"STATION","NAME","LATITUDE","LONGITUDE","ELEVATION","DATE","REPORT_TYPE","SOURCE","AWND","CDSD","CLDD","DYHF","DailyAverageDryBulbTemperature","DailyAverageStationPressure","DailyAverageWindSpeed","DailyCoolingDegreeDays","DailyDepartureFromNormalAverageTemperature","DailyHeatingDegreeDays","DailyMaximumDryBulbTemperature","DailyMinimumDryBulbTemperature","DailyPeakWindDirection","DailyPeakWindSpeed","DailyPrecipitation","DailySustainedWindDirection","DailySustainedWindSpeed","DailyWeather","HDSD","HTDD","HourlyAltimeterSetting","HourlyDewPointTemperature","HourlyDryBulbTemperature","HourlyPrecipitation","HourlyPresentWeatherType","HourlyPressureChange","HourlyPressureTendency","HourlyRelativeHumidity","HourlySeaLevelPressure","HourlySkyConditions","HourlyStationPressure","HourlyVisibility","HourlyWetBulbTemperature","HourlyWindDirection","HourlyWindGustSpeed","HourlyWindSpeed","MonthlyDaysWithGT001Precip","MonthlyDaysWithGT010Precip","MonthlyDaysWithGT32Temp","MonthlyDaysWithGT90Temp","MonthlyDaysWithLT0Temp","MonthlyDaysWithLT32Temp","MonthlyDepartureFromNormalAverageTemperature","MonthlyDepartureFromNormalCoolingDegreeDays","MonthlyDepartureFromNormalHeatingDegreeDays","MonthlyDepartureFromNormalMaximumTemperature","MonthlyDepartureFromNormalMinimumTemperature","MonthlyDepartureFromNormalPrecipitation","MonthlyGreatestPrecip","MonthlyGreatestPrecipDate","MonthlyMaxSeaLevelPressureValue","MonthlyMaxSeaLevelPressureValueDate","MonthlyMaxSeaLevelPressureValueTime","MonthlyMaximumTemperature","MonthlyMeanTemperature","MonthlyMinSeaLevelPressureValue","MonthlyMinSeaLevelPressureValueDate","MonthlyMinSeaLevelPressureValueTime","MonthlyMinimumTemperature","MonthlySeaLevelPressure","MonthlyStationPressure","MonthlyTotalLiquidPrecipitation","NormalsCoolingDegreeDay","NormalsHeatingDegreeDay","REM","REPORT_TYPE","SOURCE","ShortDurationEndDate005","ShortDurationEndDate010","ShortDurationEndDate015","ShortDurationEndDate020","ShortDurationEndDate030","ShortDurationEndDate045","ShortDurationEndDate060","ShortDurationEndDate080","ShortDurationEndDate100","ShortDurationEndDate120","ShortDurationEndDate150","ShortDurationEndDate180","ShortDurationPrecipitationValue005","ShortDurationPrecipitationValue010","ShortDurationPrecipitationValue015","ShortDurationPrecipitationValue020","ShortDurationPrecipitationValue030","ShortDurationPrecipitationValue045","ShortDurationPrecipitationValue060","ShortDurationPrecipitationValue080","ShortDurationPrecipitationValue100","ShortDurationPrecipitationValue120","ShortDurationPrecipitationValue150","ShortDurationPrecipitationValue180","Sunrise","Sunset","WindEquipmentChangeDate"
"72793524234","SEATTLE BOEING FIELD, WA US","47.54554","-122.31475","7.6","2024-03-01T00:51:00","FM-16","6",,,,,,,,,,,,,,,,,,,,,"29.51","36","39",,"-RA:02 |RA |RA",,,"87",,"FEW:02 18 OVC:08 28","29.48","7.00","38","180",,"10",,,,,,,,,,,,,,,,,,,,,,,,,,,,,"MET10803/01/24 00:51:02 SPECI KBFI 010851Z 18009KT 7SM -RA FEW018 OVC028 04/02 A2951 RMK AO2 RAB00 P0000 FIBI (CT)","FM-16","6",,,,,,,,,,,,,,,,,,,,,,,,,,,"2007-05-17"
"72793524234","SEATTLE BOEING FIELD, WA US","47.54554","-122.31475","7.6","2024-03-01T00:53:00","FM-15","7",,,,,,,,,,,,,,,,,,,,,"29.51","35","39","0.01","-RA:02 BR:1 |RA |RA","-0.01","3","86","29.51","SCT:04 18 OVC:08 28","29.48","6.00","37","170",,"9",,,,,,,,,,,,,,,,,,,,,,,,,,,,,"MET13503/01/24 00:53:02 METAR KBFI 010853Z 17008KT 6SM -RA BR SCT018 OVC028 04/02 A2951 RMK AO2 RAB00 SLP992 P0001 60001 T00390017 53005 (CT)","FM-15","7",,,,,,,,,,,,,,,,,,,,,,,,,,,"2007-05-17"
"72793524234","SEATTLE BOEING FIELD, WA US","47.54554","-122.31475","7.6","2024-03-01T01:53:00","FM-15","7",,,,,,,,,,,,,,,,,,,,,"29.53","35","38","0.01","-RA:02 BR:1 |RA |RA",,,"89","29.53","SCT:04 20 BKN:07 26","29.50","6.00","37","180",,"10",,,,,,,,,,,,,,,,,,,,,,,,,,,,,"MET12603/01/24 01:53:02 METAR KBFI 010953Z 18009KT 6SM -RA BR SCT020 BKN026 03/02 A2953 RMK AO2 RAE16B46 SLP999 P0001 T00330017 (CT)","FM-15","7",,,,,,,,,,,,,,,,,,,,,,,,,,,"2007-05-17"
"72793524234","SEATTLE BOEING FIELD, WA US","47.54554","-122.31475","7.6","2024-03-01T02:53:00","FM-15","7",,,,,,,,,,,,,,,,,,,,,"29.52","34","37","T",,,,"89","29.52","SCT:04 18 BKN:07 29","29.49","10.00","36","150",,"8",,,,,,,,,,,,,,,,,,,,,,,,,,,,,"MET11703/01/24 02:53:02 METAR KBFI 011053Z 15007KT 10SM SCT018 BKN029 03/01 A2952 RMK AO2 RAE10 SLP996 P0000 T00280011 (SN)","FM-15","7",,,,,,,,,,,,,,,,,,,,,,,,,,,"2007-05-17"
"72793524234","SEATTLE BOEING FIELD, WA US","47.54554","-122.31475","7.6","2024-03-01T03:53:00","FM-15","7",,,,,,,,,,,,,,,,,,,,,"29.52","33","38","0.00",,"-0.01","1","83","29.52","BKN:07 18 BKN:07 23","29.49","10.00","36","170","25","15",,,,,,,,,,,,,,,,,,,,,,,,,,,,,"MET13803/01/24 03:53:02 METAR KBFI 011153Z 17013G22KT 10SM BKN018 BKN023 03/01 A2952 RMK AO2 SLP996 60002 70016 T00330006 10039 20017 51004 (SN)","FM-15","7",,,,,,,,,,,,,,,,,,,,,,,,,,,"2007-05-17"
"72793524234","SEATTLE BOEING FIELD, WA US","47.54554","-122.31475","7.6","2024-03-01T04:53:00","FM-15","7",,,,,,,,,,,,,,,,,,,,,"29.52","34","37","T","-RA:02 |RA |RA",,,"89","29.52","BKN:07 18 OVC:08 33","29.49","10.00","36","160",,"8",,,,,,,,,,,,,,,,,,,,,,,,,,,,,"MET12103/01/24 04:53:02 METAR KBFI 011253Z 16007KT 10SM -RA BKN018 OVC033 03/01 A2952 RMK AO2 RAB19 SLP995 P0000 T00280011 (SN)","FM-15","7",,,,,,,,,,,,,,,,,,,,,,,,,,,"2007-05-17"
"72793524234","SEATTLE BOEING FIELD, WA US","47.54554","-122.31475","7.6","2024-03-01T05:53:00","FM-15","7",,,,,,,,,,,,,,,,,,,,,"29.52","34","37","T",,,,"89","29.52","BKN:07 18 OVC:08 33","29.49","10.00","36","140",,"8",,,,,,,,,,,,,,,,,,,,,,,,,,,,,"MET12903/01/24 05:53:02 METAR KBFI 011353Z 14007KT 10SM BKN018 OVC033 03/01 A2952 RMK AO2 RAE1258UPB1258E02 SLP995 P0000 T00280011 (SN)","FM-15","7",,,,,,,,,,,,,,,,,,,,,,,,,,,"2007-05-17"
"72793524234","SEATTLE BOEING FIELD, WA US","47.54554","-122.31475","7.6","2024-03-01T06:53:00","FM-15","7",,,,,,,,,,,,,,,,,,,,,"29.52","33","38","T","-RA:02 |RA |RA","0.00","5","83","29.52","BKN:07 18 OVC:08 33","29.49","10.00","36","150",,"7",,,,,,,,,,,,,,,,,,,,,,,,,,,,,"MET14103/01/24 06:53:02 METAR KBFI 011453Z 15006KT 10SM -RA BKN018 OVC033 03/01 A2952 RMK AO2 UPB18E22RAB22 SLP996 P0000 60000 T00330006 55000 (SN)","FM-15","7",,,,,,,,,,,,,,,,,,,,,,,,,,,"2007-05-17"
"72793524234","SEATTLE BOEING FIELD, WA US","47.54554","-122.31475","7.6","2024-03-01T07:53:00","FM-15","7",,,,,,,,,,,,,,,,,,,,,"29.53","33","38","0.00",,,,"83","29.53","BKN:07 18 BKN:07 42","29.50","10.00","36","150",,"8",,,,,,,,,,,,,,,,,,,,,,,,,,,,,"MET11903/01/24 07:53:02 METAR KBFI 011553Z 15007KT 10SM BKN018 BKN042 03/01 A2953 RMK AO2 RAE1456 SLP999 P0000 T00330006 (LG)","FM-15","7",,,,,,,,,,,,,,,,,,,,,,,,,,,"2007-05-17"
"72793524234","SEATTLE BOEING FIELD, WA US","47.54554","-122.31475","7.6","2024-03-01T08:51:00","FM-16","6",,,,,,,,,,,,,,,,,,,,,"29.51","34","39",,,,,"81",,"SCT:04 20 BKN:07 50","29.48","10.00","37","140",,"7",,,,,,,,,,,,,,,,,,,,,,,,,,,,,"MET09303/01/24 08:51:02 SPECI KBFI 011651Z 14006KT 10SM SCT020 BKN050 04/01 A2951 RMK AO2 FIBI (LG)","FM-16","6",,,,,,,,,,,,,,,,,,,,,,,,,,,"2007-05-17"
"72793524234","SEATTLE BOEING FIELD, WA US","47.54554","-122.31475","7.6","2024-03-01T08:53:00","FM-15","7",,,,,,,,,,,,,,,,,,,,,"29.51","33","40","0.00",,,,"77","29.51","SCT:04 20 BKN:07 50","29.48","10.00","37","150",,"7",,,,,,,,,,,,,,,,,,,,,,,,,,,,,"MET10503/01/24 08:53:02 METAR KBFI 011653Z 15006KT 10SM SCT020 BKN050 04/01 A2951 RMK AO2 SLP992 T00440006 (LG)","FM-15","7",,,,,,,,,,,,,,,,,,,,,,,,,,,"2007-05-17"
"72793524234","SEATTLE BOEING FIELD, WA US","47.54554","-122.31475","7.6","2024-03-01T09:53:00","FM-15","7",,,,,,,,,,,,,,,,,,,,,"29.50","33","42","0.00",,"0.02","8","71","29.49","FEW:02 20 BKN:07 110","29.47","10.00","38","160",,"9",,,,,,,,,,,,,,,,,,,,,,,,,,,,,"MET12903/01/24 09:53:02 METAR KBFI 011753Z 16008KT 10SM FEW020 BKN110 06/01 A2950 RMK AO2 SLP988 60000 T00560006 10056 20022 58008 (LG)","FM-15","7",,,,,,,,,,,,,,,,,,,,,,,,,,,"2007-05-17"
"72793524234","SEATTLE BOEING FIELD, WA US","47.54554","-122.31475","7.6","2024-03-01T10:53:00","FM-15","7",,,,,,,,,,,,,,,,,,,,,"29.50","32","42","0.00",,,,"68","29.50","BKN:07 38 OVC:08 47","29.47","10.00","38","260",,"6",,,,,,,,,,,,,,,,,,,,,,,,,,,,,"MET10503/01/24 10:53:02 METAR KBFI 011853Z 26005KT 10SM BKN038 OVC047 06/00 A2950 RMK AO2 SLP989 T00560000 (LG)","FM-15","7",,,,,,,,,,,,,,,,,,,,,,,,,,,"2007-05-17"
"72793524234","SEATTLE BOEING FIELD, WA US","47.54554","-122.31475","7.6","2024-03-01T11:24:00","FM-16","7",,,,,,,,,,,,,,,,,,,,,"29.51","33","40","T","-RA:02 |RA |RA",,,"77",,"BKN:07 24 OVC:08 30","29.48","8.00","37","170",,"8",,,,,,,,,,,,,,,,,,,,,,,,,,,,,"MET11303/01/24 11:24:02 SPECI KBFI 011924Z 17007KT 8SM -RA BKN024 OVC030 04/01 A2951 RMK AO2 RAB00 P0000 T00440006 (LG)","FM-16","7",,,,,,,,,,,,,,,,,,,,,,,,,,,"2007-05-17"
"72793524234","SEATTLE BOEING FIELD, WA US","47.54554","-122.31475","7.6","2024-03-01T11:51:00","FM-16","6",,,,,,,,,,,,,,,,,,,,,"29.51","34","39",,"-RA:02 |RA |RA",,,"81",,"BKN:07 11 OVC:08 23","29.48","5.00","37","180",,"8",,,,,,,,,,,,,,,,,,,,,,,,,,,,,"MET10803/01/24 11:51:02 SPECI KBFI 011951Z 18007KT 5SM -RA BKN011 OVC023 04/01 A2951 RMK AO2 RAB00 P0001 FIBI (LG)","FM-16","6",,,,,,,,,,,,,,,,,,,,,,,,,,,"2007-05-17"
"72793524234","SEATTLE BOEING FIELD, WA US","47.54554","-122.31475","7.6","2024-03-01T11:53:00","FM-15","7",,,,,,,,,,,,,,,,,,,,,"29.51","33","39","0.02","-RA:02 |RA |RA",,,"79","29.51","BKN:07 11 OVC:08 23","29.48","4.00","37","180",,"9",,,,,,,,,,,,,,,,,,,,,,,,,,,,,"MET12003/01/24 11:53:02 METAR KBFI 011953Z 18008KT 4SM -RA BKN011 OVC023 04/01 A2951 RMK AO2 RAB00 SLP992 P0001 T00390006 (LG)","FM-15","7",,,,,,,,,,,,,,,,,,,,,,,,,,,"2007-05-17"
"72793524234","SEATTLE BOEING FIELD, WA US","47.54554","-122.31475","7.6","2024-03-01T12:53:00","FM-15","6",,,,,,,,,,,,,,,,,,,,,"29.50","34","38","0.02","-RA:02 |RA |RA","0.00","0","86","29.49","BKN:07 13 OVC:08 22","29.47","8.00","36","200",,"5",,,,,,,,,,,,,,,,,,,,,,,,,,,,,"MET12603/01/24 12:53:02 METAR KBFI 012053Z 20004KT 8SM -RA BKN013 OVC022 03/01 A2950 RMK AO2 SLP988 P0002 60003 T00330011 50000 (LG)","FM-15","6",,,,,,,,,,,,,,,,,,,,,,,,,,,"2007-05-17"
"72793524234","SEATTLE BOEING FIELD, WA US","47.54554","-122.31475","7.6","2024-03-01T13:53:00","FM-15","7",,,,,,,,,,,,,,,,,,,,,"29.51","35","38","0.04","-RA:02 |RA |RA",,,"89","29.51","BKN:07 13 OVC:08 22","29.48","8.00","37","170",,"7",,,,,,,,,,,,,,,,,,,,,,,,,,,,,"MET11403/01/24 13:53:02 METAR KBFI 012153Z 17006KT 8SM -RA BKN013 OVC022 03/02 A2951 RMK AO2 SLP992 P0005 T00330017 (LG)","FM-15","7",,,,,,,,,,,,,,,,,,,,,,,,,,,"2007-05-17"
"72793524234","SEATTLE BOEING FIELD, WA US","47.54554","-122.31475","7.6","2024-03-01T14:51:00","FM-16","6",,,,,,,,,,,,,,,,,,,,,"29.51","36","39",,,,,"87",,"SCT:04 22 BKN:07 40","29.48","10.00","38","160",,"7",,,,,,,,,,,,,,,,,,,,,,,,,,,,,"MET10503/01/24 14:51:02 SPECI KBFI 012251Z 16006KT 10SM SCT022 BKN040 04/02 A2951 RMK AO2 RAE32 P0000 FIBI (LG)","FM-16","6",,,,,,,,,,,,,,,,,,,,,,,,,,,"2007-05-17"
"72793524234","SEATTLE BOEING FIELD, WA US","47.54554","-122.31475","7.6","2024-03-01T14:53:00","FM-15","7",,,,,,,,,,,,,,,,,,,,,"29.51","36","40","T",,,,"86","29.51","SCT:04 22 BKN:07 40","29.48","10.00","38","160",,"8",,,,,,,,,,,,,,,,,,,,,,,,,,,,,"MET11703/01/24 14:53:02 METAR KBFI 012253Z 16007KT 10SM SCT022 BKN040 04/02 A2951 RMK AO2 RAE32 SLP992 P0000 T00440022 (LG)","FM-15","7",,,,,,,,,,,,,,,,,,,,,,,,,,,"2007-05-17"
"72793524234","SEATTLE BOEING FIELD, WA US","47.54554","-122.31475","7.6","2024-03-01T15:53:00","FM-15","7",,,,,,,,,,,,,,,,,,,,,"29.49","36","41","T",,"0.01","8","82","29.49","FEW:02 25 SCT:04 34 BKN:07 50","29.46","10.00","39","150",,"7",,,,,,,,,,,,,,,,,,,,,,,,,,,,,"MET15103/01/24 15:53:02 METAR KBFI 012353Z 15006KT 10SM FEW025 SCT034 BKN050 05/02 A2949 RMK AO2 RAB02E39 SLP985 P0000 60008 T00500022 10056 20028 58003 (LG)","FM-15","7",,,,,,,,,,,,,,,,,,,,,,,,,,,"2007-05-17"
"72793524234","SEATTLE BOEING FIELD, WA US","47.54554","-122.31475","7.6","2024-03-01T16:53:00","FM-15","7",,,,,,,,,,,,,,,,,,,,,"29.47","36","40","0.03",,,,"86","29.47","FEW:02 25 SCT:04 34 BKN:07 50","29.44","10.00","38","000",,"0",,,,,,,,,,,,,,,,,,,,,,,,,,,,,"MET12203/01/24 16:53:01 METAR KBFI 020053Z 00000KT 10SM FEW025 SCT034 BKN050 04/02 A2947 RMK AO2 RAB03E26 SLP979 P0003 T00440022","FM-15","7",,,,,,,,,,,,,,,,,,,,,,,,,,,"2007-05-17"
"72793524234","SEATTLE BOEING FIELD, WA US","47.54554","-122.31475","7.6","2024-03-01T17:53:00","FM-15","7",,,,,,,,,,,,,,,,,,,,,"29.45","36","39","0.00",,,,"89","29.45","SCT:04 20 BKN:07 250","29.42","10.00","38","000",,"0",,,,,,,,,,,,,,,,,,,,,,,,,,,,,"MET10003/01/24 17:53:01 METAR KBFI 020153Z 00000KT 10SM SCT020 BKN250 04/02 A2945 RMK AO2 SLP973 T00390022","FM-15","7",,,,,,,,,,,,,,,,,,,,,,,,,,,"2007-05-17"
"72793524234","SEATTLE BOEING FIELD, WA US","47.54554","-122.31475","7.6","2024-03-01T18:53:00","FM-15","7",,,,,,,,,,,,,,,,,,,,,"29.42","36","38","0.00",,"0.07","8","93","29.42","CLR:00","29.39","10.00","37","000",,"0",,,,,,,,,,,,,,,,,,,,,,,,,,,,,"MET10203/01/24 18:53:01 METAR KBFI 020253Z 00000KT 10SM CLR 03/02 A2942 RMK AO2 SLP962 60003 T00330022 58024","FM-15","7",,,,,,,,,,,,,,,,,,,,,,,,,,,"2007-05-17"
"72793524234","SEATTLE BOEING FIELD, WA US","47.54554","-122.31475","7.6","2024-03-01T19:53:00","FM-15","7",,,,,,,,,,,,,,,,,,,,,"29.36","35","39","0.00",,,,"86","29.36","CLR:00","29.33","10.00","37","040",,"5",,,,,,,,,,,,,,,,,,,,,,,,,,,,,"MET09003/01/24 19:53:01 METAR KBFI 020353Z 04004KT 10SM CLR 04/02 A2936 RMK AO2 SLP943 T00390017","FM-15","7",,,,,,,,,,,,,,,,,,,,,,,,,,,"2007-05-17"
"72793524234","SEATTLE BOEING FIELD, WA US","47.54554","-122.31475","7.6","2024-03-01T20:53:00","FM-15","7",,,,,,,,,,,,,,,,,,,,,"29.33","35","38","0.00",,,,"89","29.33","SCT:04 120","29.30","10.00","37","000",,"0",,,,,,,,,,,,,,,,,,,,,,,,,,,,,"MET09303/01/24 20:53:01 METAR KBFI 020453Z 00000KT 10SM SCT120 03/02 A2933 RMK AO2 SLP933 T00330017","FM-15","7",,,,,,,,,,,,,,,,,,,,,,,,,,,"2007-05-17"
"72793524234","SEATTLE BOEING FIELD, WA US","47.54554","-122.31475","7.6","2024-03-01T21:53:00","FM-15","7",,,,,,,,,,,,,,,,,,,,,"29.32","35","38","0.00",,"0.10","6","89","29.32","BKN:07 110","29.29","10.00","37","000",,"0",,,,,,,,,,,,,,,,,,,,,,,,,,,,,"MET11703/01/24 21:53:01 METAR KBFI 020553Z 00000KT 10SM BKN110 03/02 A2932 RMK AO2 SLP928 60003 T00330017 10050 20028 56034","FM-15","7",,,,,,,,,,,,,,,,,,,,,,,,,,,"2007-05-17"
"72793524234","SEATTLE BOEING FIELD, WA US","47.54554","-122.31475","7.6","2024-03-01T22:53:00","FM-15","7",,,,,,,,,,,,,,,,,,,,,"29.30","35","38","0.00",,,,"89","29.30","OVC:08 70","29.27","10.00","37","000",,"0",,,,,,,,,,,,,,,,,,,,,,,,,,,,,"MET09303/01/24 22:53:01 METAR KBFI 020653Z 00000KT 10SM OVC070 03/02 A2930 RMK AO2 SLP923 T00330017","FM-15","7",,,,,,,,,,,,,,,,,,,,,,,,,,,"2007-05-17"
"72793524234","SEATTLE BOEING FIELD, WA US","47.54554","-122.31475","7.6","2024-03-01T23:53:00","FM-15","7",,,,,,,,,,,,,,,,,,,,,"29.28","36","38","0.00",,,,"93","29.28","SCT:04 50 OVC:08 70","29.25","10.00","37","000",,"0",,,,,,,,,,,,,,,,,,,,,,,,,,,,,"MET11003/01/24 23:53:01 METAR KBFI 020753Z 00000KT 10SM SCT050 OVC070 03/02 A2928 RMK AO2 SLP914 T00330022 400560022","FM-15","7",,,,,,,,,,,,,,,,,,,,,,,,,,,"2007-05-17"
"72793524234","SEATTLE BOEING FIELD, WA US","47.54554","-122.31475","7.6","2024-03-01T23:59:00","SOD  ","6",,,,,"39","29.42","5.7","0","-5.5","26","42","36","170","28","0.13","170","20","RA BR",,,,,,,,,,,,,,,,,,,,,,,,,,,,,,,,,,,,,,,,,,,,,,,"SOD73024 HR PRECIPITATION (IN):0.13  24 HR MAX TEMP (F):42 24 HR MAX TEMP TIME (LST):1102 24 HR MIN TEMP (F):36 24 HR MIN TEMP TIME (LST):0740 AVERAGE STATION PRESSURE:29.420 MINIMUM SEA LEVEL PRESSURE:29.27 TIME OF OCCURRENCE:2351 PEAK WIND SPEED (MPH):28  PEAK WIND DIR (DEG):170 PEAK WIND TIME (LST):0422  FASTEST 2MIN SPEED (MPH):20 FASTEST 2MIN DIR (DEG):170 FASTEST 2MIN TIME (LST):0423 AVERAGE WIND SPEED (MPH):5.7  24 HR AVG TEMP (F):39 HEATING DEGREE DAYS:26  COOLING DEGREE DAYS:0   LATEST DAY MAX TEMP (0700-1900 LST):42  LATEST NIGHT MIN TEMP(1900-0800 LST):34 HOURLY INCREMENTAL PRECIPITATION VALUES (IN):.01 0.01 T    0.00 T    T    T    0.00 0.00 0.00 0.00 0.02 0.02 0.04 T    T    0.03 0.00 0.00 0.00 0.00 0.00 0.00 0.00","SOD  ","6",,,,,,,,,,,,,,,,,,,,,,,,,"0648","1756","2007-05-17"
"72793524234","SEATTLE BOEING FIELD, WA US","47.54554","-122.31475","7.6","2024-03-02T00:53:00","FM-15","7",,,,,,,,,,,,,,,,,,,,,"29.29","35","39","T","-RA:02 |RA |RA","0.03","5","86","29.29","OVC:08 34","29.26","10.00","37",,,,,,,,,,,,,,,,,,,,,,,,,,,,,,,,"MET12603/02/24 00:53:02 METAR KBFI 020853Z      KT 10SM -RA OVC034 04/02 A2929 RMK AO2 RAB34 SLP918 P0000 60000 T00390017 55010 (CT)","FM-15","7",,,,,,,,,,,,,,,,,,,,,,,,,,,"2007-05-17"
"72793524234","SEATTLE BOEING FIELD, WA US","47.54554","-122.31475","7.6","2024-03-02T01:53:00","FM-15","7",,,,,,,,,,,,,,,,,,,,,"29.28","33","39","T",,,,"79","29.28","OVC:08 55","29.25","10.00","37","000",,"0",,,,,,,,,,,,,,,,,,,,,,,,,,,,,"MET11603/02/24 01:53:02 METAR KBFI 020953Z 00000KT 10SM OVC055 04/01 A2928 RMK AO2 RAE11B30E39 SLP915 P0000 T00390006 (PV)","FM-15","7",,,,,,,,,,,,,,,,,,,,,,,,,,,"2007-05-17"
"72793524234","SEATTLE BOEING FIELD, WA US","47.54554","-122.31475","7.6","2024-03-02T02:53:00","FM-15","7",,,,,,,,,,,,,,,,,,,,,"29.29","34","38","0.00",,,,"86","29.28","OVC:08 35","29.26","10.00","36","170",,"3",,,,,,,,,,,,,,,,,,,,,,,,,,,,,"MET09803/02/24 02:53:02 METAR KBFI 021053Z 17003KT 10SM OVC035 03/01 A2929 RMK AO2 SLP917 T00330011 (PV)","FM-15","7",,,,,,,,,,,,,,,,,,,,,,,,,,,"2007-05-17"
"72793524234","SEATTLE BOEING FIELD, WA US","47.54554","-122.31475","7.6","2024-03-02T03:53:00","FM-15","7",,,,,,,,,,,,,,,,,,,,,"29.29","33","37","0.00",,"0.00","3","86","29.29","SCT:04 85 BKN:07 110","29.26","10.00","35","150",,"5",,,,,,,,,,,,,,,,,,,,,,,,,,,,,"MET13503/02/24 03:53:02 METAR KBFI 021153Z 15004KT 10SM SCT085 BKN110 03/01 A2929 RMK AO2 SLP919 60000 70011 T00280006 10044 20028 53001 (PV)","FM-15","7",,,,,,,,,,,,,,,,,,,,,,,,,,,"2007-05-17"
"72793524234","SEATTLE BOEING FIELD, WA US","47.54554","-122.31475","7.6","2024-03-02T04:53:00","FM-15","7",,,,,,,,,,,,,,,,,,,,,"29.31","34","37","0.00",,,,"89","29.31","FEW:02 41 BKN:07 65 OVC:08 75","29.28","10.00","36","150",,"5",,,,,,,,,,,,,,,,,,,,,,,,,,,,,"MET11203/02/24 04:53:02 METAR KBFI 021253Z 15004KT 10SM FEW041 BKN065 OVC075 03/01 A2931 RMK AO2 SLP924 T00280011 (PV)","FM-15","7",,,,,,,,,,,,,,,,,,,,,,,,,,,"2007-05-17"
"72793524234","SEATTLE BOEING FIELD, WA US","47.54554","-122.31475","7.6","2024-03-02T05:53:00","FM-15","7",,,,,,,,,,,,,,,,,,,,,"29.32","33","36","0.00",,,,"89","29.32","BKN:07 28 BKN:07 100","29.29","10.00","35","140",,"7",,,,,,,,,,,,,,,,,,,,,,,,,,,,,"MET10503/02/24 05:53:02 METAR KBFI 021353Z 14006KT 10SM BKN028 BKN100 02/01 A2932 RMK AO2 SLP928 T00220006 (PV)","FM-15","7",,,,,,,,,,,,,,,,,,,,,,,,,,,"2007-05-17"
"72793524234","SEATTLE BOEING FIELD, WA US","47.54554","-122.31475","7.6","2024-03-02T06:53:00","FM-15","7",,,,,,,,,,,,,,,,,,,,,"29.35","33","37","0.01","-RA:02 |RA |RA","-0.05","3","86","29.34","BKN:07 28 BKN:07 100","29.32","8.00","35","VRB","17","8",,,,,,,,,,,,,,,,,,,,,,,,,,,,,"MET13503/02/24 06:53:02 METAR KBFI 021453Z 20007G15KT 8SM -RA BKN028 BKN100 03/01 A2935 RMK AO2 RAB38 SLP937 P0001 60001 T00280006 53018 (PV)","FM-15","7",,,,,,,,,,,,,,,,,,,,,,,,,,,"2007-05-17"
"72793524234","SEATTLE BOEING FIELD, WA US","47.54554","-122.31475","7.6","2024-03-02T07:53:00","FM-15","7",,,,,,,,,,,,,,,,,,,,,"29.37","34","37","T",,,,"89","29.36","BKN:07 15 OVC:08 29","29.34","10.00","36","160",,"10",,,,,,,,,,,,,,,,,,,,,,,,,,,,,"MET11703/02/24 07:53:02 METAR KBFI 021553Z 16009KT 10SM BKN015 OVC029 03/01 A2937 RMK AO2 RAE03 SLP943 P0000 T00280011 (PV)","FM-15","7",,,,,,,,,,,,,,,,,,,,,,,,,,,"2007-05-17"
"72793524234","SEATTLE BOEING FIELD, WA US","47.54554","-122.31475","7.6","2024-03-02T08:49:00","FM-16","7",,,,,,,,,,,,,,,,,,,,,"29.39","34","37",,,,,"87",,"SCT:04 19","29.36","10.00","36","180","17","10",,,,,,,,,,,,,,,,,,,,,,,,,,,,,"MET08403/02/24 08:49:02 SPECI KBFI 021649Z 18009G15KT 10SM SCT019 03/01 A2939 RMK AO2 (PV)","FM-16","7",,,,,,,,,,,,,,,,,,,,,,,,,,,"2007-05-17"
"72793524234","SEATTLE BOEING FIELD, WA US","47.54554","-122.31475","7.6","2024-03-02T08:53:00","FM-15","7",,,,,,,,,,,,,,,,,,,,,"29.39","34","38","0.00",,,,"86","29.39","SCT:04 12 SCT:04 21","29.36","10.00","36","VRB","21","13",,,,,,,,,,,,,,,,,,,,,,,,,,,,,"MET10803/02/24 08:53:02 METAR KBFI 021653Z 18011G18KT 10SM SCT012 SCT021 03/01 A2939 RMK AO2 SLP953 T00330011 (PV)","FM-15","7",,,,,,,,,,,,,,,,,,,,,,,,,,,"2007-05-17"
"72793524234","SEATTLE BOEING FIELD, WA US","47.54554","-122.31475","7.6","2024-03-02T09:53:00","FM-15","7",,,,,,,,,,,,,,,,,,,,,"29.43","34","41","0.00",,"-0.06","3","76","29.43","CLR:00","29.40","10.00","38","180","26","13",,,,,,,,,,,,,,,,,,,,,,,,,,,,,"MET12203/02/24 09:53:02 METAR KBFI 021753Z 18011G23KT 10SM CLR 05/01 A2943 RMK AO2 SLP965 60001 T00500011 10050 20022 53022 (PV)","FM-15","7",,,,,,,,,,,,,,,,,,,,,,,,,,,"2007-05-17"
"72793524234","SEATTLE BOEING FIELD, WA US","47.54554","-122.31475","7.6","2024-03-02T09:59:00","FM-16","7",,,,,,,,,,,,,,,,,,,,,"29.43","34","41",,,,,"76",,"BKN:07 18","29.40","10.00","38","190","24","14",,,,,,,,,,,,,,,,,,,,,,,,,,,,,"MET09403/02/24 09:59:02 SPECI KBFI 021759Z 19012G21KT 10SM BKN018 05/01 A2943 RMK AO2 T00500011 (PV)","FM-16","7",,,,,,,,,,,,,,,,,,,,,,,,,,,"2007-05-17"
"72793524234","SEATTLE BOEING FIELD, WA US","47.54554","-122.31475","7.6","2024-03-02T10:51:00","FM-16","6",,,,,,,,,,,,,,,,,,,,,"29.45","34","43",,,,,"71",,"SCT:04 20 SCT:04 110","29.42","10.00","39","190","21","13",,,,,,,,,,,,,,,,,,,,,,,,,,,,,"MET09603/02/24 10:51:02 SPECI KBFI 021851Z 19011G18KT 10SM SCT020 SCT110 06/01 A2945 RMK AO2 FIBI (PV)","FM-16","6",,,,,,,,,,,,,,,,,,,,,,,,,,,"2007-05-17"
"72793524234","SEATTLE BOEING FIELD, WA US","47.54554","-122.31475","7.6","2024-03-02T10:53:00","FM-15","7",,,,,,,,,,,,,,,,,,,,,"29.45","33","42","0.00",,,,"71","29.45","SCT:04 20 SCT:04 110","29.42","10.00","38","200","21","10",,,,,,,,,,,,,,,,,,,,,,,,,,,,,"MET10303/02/24 10:53:02 METAR KBFI 021853Z 20009G18KT 10SM SCT020 SCT110 06/01 A2945 RMK AO2 SLP973 T00560006","FM-15","7",,,,,,,,,,,,,,,,,,,,,,,,,,,"2007-05-17"
"72793524234","SEATTLE BOEING FIELD, WA US","47.54554","-122.31475","7.6","2024-03-02T11:53:00","FM-15","7",,,,,,,,,,,,,,,,,,,,,"29.47","31","43","0.00",,,,"63","29.47","SCT:04 35 SCT:04 100","29.44","10.00","38","VRB","20","9",,,,,,,,,,,,,,,,,,,,,,,,,,,,,"MET10903/02/24 11:53:02 METAR KBFI 021953Z 21008G17KT 10SM SCT035 SCT100 06/M01 A2947 RMK AO2 SLP980 T00611006 (MM)","FM-15","7",,,,,,,,,,,,,,,,,,,,,,,,,,,"2007-05-17"
"72793524234","SEATTLE BOEING FIELD, WA US","47.54554","-122.31475","7.6","2024-03-02T12:53:00","FM-15","7",,,,,,,,,,,,,,,,,,,,,"29.49","29","43","0.00",,"-0.06","1","58","29.49","FEW:02 120","29.46","10.00","37","210","21","10",,,,,,,,,,,,,,,,,,,,,,,,,,,,,"MET10803/02/24 12:53:02 METAR KBFI 022053Z 21009G18KT 10SM FEW120 06/M02 A2949 RMK AO2 SLP985 T00611017 51020 (MM)","FM-15","7",,,,,,,,,,,,,,,,,,,,,,,,,,,"2007-05-17"
"72793524234","SEATTLE BOEING FIELD, WA US","47.54554","-122.31475","7.6","2024-03-02T13:53:00","FM-15","7",,,,,,,,,,,,,,,,,,,,,"29.50","28","42","0.00",,,,"58","29.49","BKN:07 90 BKN:07 110","29.47","10.00","36","210","24","9",,,,,,,,,,,,,,,,,,,,,,,,,,,,,"MET10903/02/24 13:53:02 METAR KBFI 022153Z 21008G21KT 10SM BKN090 BKN110 06/M02 A2950 RMK AO2 SLP988 T00561022 (MM)","FM-15","7",,,,,,,,,,,,,,,,,,,,,,,,,,,"2007-05-17"
"72793524234","SEATTLE BOEING FIELD, WA US","47.54554","-122.31475","7.6","2024-03-02T14:42:00","FM-16","7",,,,,,,,,,,,,,,,,,,,,"29.53","33","37","0.02","-RA:02 BR:1 |RA |RA",,,"86",,"OVC:08 4","29.50","3.00","35","200","23","11",,,,,,,,,,,,,,,,,,,,,,,,,,,,,"MET11203/02/24 14:42:02 SPECI KBFI 022242Z 20010G20KT 3SM -RA BR OVC004 03/01 A2953 RMK AO2 RAB28 P0002 T00280006 (MM)","FM-16","7",,,,,,,,,,,,,,,,,,,,,,,,,,,"2007-05-17"
"72793524234","SEATTLE BOEING FIELD, WA US","47.54554","-122.31475","7.6","2024-03-02T14:53:00","FM-15","7",,,,,,,,,,,,,,,,,,,,,"29.52","34","37","0.04","-RA:02 BR:1 |RA |RA",,,"89","29.52","OVC:08 8","29.49","3.00","36","160","20","10",,,,,,,,,,,,,,,,,,,,,,,,,,,,,"MET11903/02/24 14:53:02 METAR KBFI 022253Z 16009G17KT 3SM -RA BR OVC008 03/01 A2952 RMK AO2 RAB28 SLP997 P0004 T00280011 (MM)","FM-15","7",,,,,,,,,,,,,,,,,,,,,,,,,,,"2007-05-17"
"72793524234","SEATTLE BOEING FIELD, WA US","47.54554","-122.31475","7.6","2024-03-02T15:00:00","FM-16","7",,,,,,,,,,,,,,,,,,,,,"29.52","35","38","T",,,,"89",,"SCT:04 10 BKN:07 16 BKN:07 75","29.49","10.00","37","150",,"7",,,,,,,,,,,,,,,,,,,,,,,,,,,,,"MET11703/02/24 15:00:02 SPECI KBFI 022300Z 15006KT 10SM SCT010 BKN016 BKN075 03/02 A2952 RMK AO2 RAE00 P0000 T00330017 (MM)","FM-16","7",,,,,,,,,,,,,,,,,,,,,,,,,,,"2007-05-17"
"72793524234","SEATTLE BOEING FIELD, WA US","47.54554","-122.31475","7.6","2024-03-02T15:53:00","FM-15","7",,,,,,,,,,,,,,,,,,,,,"29.52","36","40","T",,"-0.04","0","86","29.52","SCT:04 10 BKN:07 16 BKN:07 75","29.49","10.00","38","150",,"6",,,,,,,,,,,,,,,,,,,,,,,,,,,,,"MET14803/02/24 15:53:02 METAR KBFI 022353Z 15005KT 10SM SCT010 BKN016 BKN075 04/02 A2952 RMK AO2 RAE00 SLP997 P0000 60004 T00440022 10072 20022 50012 (MM)","FM-15","7",,,,,,,,,,,,,,,,,,,,,,,,,,,"2007-05-17"
"72793524234","SEATTLE BOEING FIELD, WA US","47.54554","-122.31475","7.6","2024-03-02T16:00:00","FM-16","7",,,,,,,,,,,,,,,,,,,,,"29.52","35","40",,,,,"83",,"FEW:02 19 SCT:04 24 BKN:07 46","29.49","10.00","38","130",,"6",,,,,,,,,,,,,,,,,,,,,,,,,,,,,"MET10003/02/24 16:00:01 SPECI KBFI 030000Z 13005KT 10SM FEW019 SCT024 BKN046 04/02 A2952 RMK AO2 T00440017","FM-16","7",,,,,,,,,,,,,,,,,,,,,,,,,,,"2007-05-17"
"72793524234","SEATTLE BOEING FIELD, WA US","47.54554","-122.31475","7.6","2024-03-02T16:07:00","FM-16","7",,,,,,,,,,,,,,,,,,,,,"29.52","36","40",,,,,"86",,"SCT:04 10 BKN:07 16 BKN:07 75","29.49","10.00","38","130",,"5",,,,,,,,,,,,,,,,,,,,,,,,,,,,,"MET10003/02/24 16:07:01 SPECI KBFI 030007Z 13004KT 10SM SCT010 BKN016 BKN075 04/02 A2952 RMK AO2 T00440022","FM-16","7",,,,,,,,,,,,,,,,,,,,,,,,,,,"2007-05-17"
"72793524234","SEATTLE BOEING FIELD, WA US","47.54554","-122.31475","7.6","2024-03-02T16:53:00","FM-15","7",,,,,,,,,,,,,,,,,,,,,"29.53","35","41","0.00",,,,"79","29.52","SCT:04 12 BKN:07 16 BKN:07 25","29.50","10.00","38","180",,"5",,,,,,,,,,,,,,,,,,,,,,,,,,,,,"MET10703/02/24 16:53:01 METAR KBFI 030053Z 18004KT 10SM SCT012 BKN016 BKN025 05/02 A2953 RMK AO2 SLP998 T00500017","FM-15","7",,,,,,,,,,,,,,,,,,,,,,,,,,,"2007-05-17"
"72793524234","SEATTLE BOEING FIELD, WA US","47.54554","-122.31475","7.6","2024-03-02T17:53:00","FM-15","7",,,,,,,,,,,,,,,,,,,,,"29.54","31","42","0.00",,,,"65","29.54","SCT:04 12 BKN:07 16 BKN:07 25","29.51","10.00","37","190","18","9",,,,,,,,,,,,,,,,,,,,,,,,,,,,,"MET11103/02/24 17:53:01 METAR KBFI 030153Z 19008G16KT 10SM SCT012 BKN016 BKN025 06/M01 A2954 RMK AO2 SLP002 T00561006","FM-15","7",,,,,,,,,,,,,,,,,,,,,,,,,,,"2007-05-17"
"72793524234","SEATTLE BOEING FIELD, WA US","47.54554","-122.31475","7.6","2024-03-02T18:00:00","FM-16","7",,,,,,,,,,,,,,,,,,,,,"29.54","31","42",,,,,"65",,"FEW:02 12 BKN:07 95 OVC:08 110","29.51","10.00","37","210",,"9",,,,,,,,,,,,,,,,,,,,,,,,,,,,,"MET10103/02/24 18:00:01 SPECI KBFI 030200Z 21008KT 10SM FEW012 BKN095 OVC110 06/M01 A2954 RMK AO2 T00561006","FM-16","7",,,,,,,,,,,,,,,,,,,,,,,,,,,"2007-05-17"
"72793524234","SEATTLE BOEING FIELD, WA US","47.54554","-122.31475","7.6","2024-03-02T18:07:00","FM-16","7",,,,,,,,,,,,,,,,,,,,,"29.54","31","42",,,,,"65",,"SCT:04 12 BKN:07 16 OVC:08 25","29.51","10.00","37","190","20","11",,,,,,,,,,,,,,,,,,,,,,,,,,,,,"MET10403/02/24 18:07:01 SPECI KBFI 030207Z 19010G17KT 10SM SCT012 BKN016 OVC025 06/M01 A2954 RMK AO2 T00561006","FM-16","7",,,,,,,,,,,,,,,,,,,,,,,,,,,"2007-05-17"
"72793524234","SEATTLE BOEING FIELD, WA US","47.54554","-122.31475","7.6","2024-03-02T18:51:00","FM-16","6",,,,,,,,,,,,,,,,,,,,,"29.56","30","41",,,,,"66",,"SCT:04 15 BKN:07 30 OVC:08 50","29.53","10.00","37","210","21","8",,,,,,,,,,,,,,,,,,,,,,,,,,,,,"MET10403/02/24 18:51:03 SPECI KBFI 030251Z 21007G18KT 10SM SCT015 BKN030 OVC050 05/M01 A2956 RMK AO2 FIBI (HW)","FM-16","6",,,,,,,,,,,,,,,,,,,,,,,,,,,"2007-05-17"
"72793524234","SEATTLE BOEING FIELD, WA US","47.54554","-122.31475","7.6","2024-03-02T18:53:00","FM-15","7",,,,,,,,,,,,,,,,,,,,,"29.56","31","40","0.00",,"-0.04","3","70","29.56","SCT:04 15 BKN:07 30 OVC:08 50","29.53","10.00","36","200","20","8",,,,,,,,,,,,,,,,,,,,,,,,,,,,,"MET11703/02/24 18:53:01 METAR KBFI 030253Z 20007G17KT 10SM SCT015 BKN030 OVC050 04/M01 A2956 RMK AO2 SLP011 T00441006 53014","FM-15","7",,,,,,,,,,,,,,,,,,,,,,,,,,,"2007-05-17"
"72793524234","SEATTLE BOEING FIELD, WA US","47.54554","-122.31475","7.6","2024-03-02T19:51:00","FM-16","6",,,,,,,,,,,,,,,,,,,,,"29.58","34","37",,"-RA:02 |RA |RA",,,"87",,"SCT:04 17 BKN:07 26 BKN:07 41","29.55","10.00","36","200","23","13",,,,,,,,,,,,,,,,,,,,,,,,,,,,,"MET11903/02/24 19:51:03 SPECI KBFI 030351Z 20011G20KT 10SM -RA SCT017 BKN026 BKN041 03/01 A2958 RMK AO2 RAB42 P0000 FIBI (HW)","FM-16","6",,,,,,,,,,,,,,,,,,,,,,,,,,,"2007-05-17"
"72793524234","SEATTLE BOEING FIELD, WA US","47.54554","-122.31475","7.6","2024-03-02T19:53:00","FM-15","7",,,,,,,,,,,,,,,,,,,,,"29.58","33","38","T","-RA:02 |RA |RA",,,"83","29.58","SCT:04 17 BKN:07 26 BKN:07 41","29.55","10.00","36","210","23","10",,,,,,,,,,,,,,,,,,,,,,,,,,,,,"MET12603/02/24 19:53:01 METAR KBFI 030353Z 21009G20KT 10SM -RA SCT017 BKN026 BKN041 03/01 A2958 RMK AO2 RAB42 SLP016 P0000 T00330006","FM-15","7",,,,,,,,,,,,,,,,,,,,,,,,,,,"2007-05-17"
"72793524234","SEATTLE BOEING FIELD, WA US","47.54554","-122.31475","7.6","2024-03-02T20:51:00","FM-16","6",,,,,,,,,,,,,,,,,,,,,"29.57","34","37",,,,,"87",,"OVC:08 36","29.54","10.00","36","000",,"0",,,,,,,,,,,,,,,,,,,,,,,,,,,,,"MET10603/02/24 20:51:03 SPECI KBFI 030451Z 00000KT 10SM OVC036 03/01 A2957 RMK AO2 RAE50UPB48E49 P0000 FIBI (HW)","FM-16","6",,,,,,,,,,,,,,,,,,,,,,,,,,,"2007-05-17"
"72793524234","SEATTLE BOEING FIELD, WA US","47.54554","-122.31475","7.6","2024-03-02T20:53:00","FM-15","7",,,,,,,,,,,,,,,,,,,,,"29.57","34","37","T",,,,"89","29.57","OVC:08 39","29.54","10.00","36","000",,"0",,,,,,,,,,,,,,,,,,,,,,,,,,,,,"MET11303/02/24 20:53:01 METAR KBFI 030453Z 00000KT 10SM OVC039 03/01 A2957 RMK AO2 RAE50UPB48E49 SLP014 P0000 T00280011","FM-15","7",,,,,,,,,,,,,,,,,,,,,,,,,,,"2007-05-17"
"72793524234","SEATTLE BOEING FIELD, WA US","47.54554","-122.31475","7.6","2024-03-02T21:53:00","FM-15","7",,,,,,,,,,,,,,,,,,,,,"29.58","34","37","0.00",,"-0.01","1","89","29.57","FEW:02 60 BKN:07 80 OVC:08 100","29.55","10.00","36","140",,"3",,,,,,,,,,,,,,,,,,,,,,,,,,,,,"MET13103/02/24 21:53:01 METAR KBFI 030553Z 14003KT 10SM FEW060 BKN080 OVC100 03/01 A2958 RMK AO2 SLP015 60000 T00280011 10056 20028 51004","FM-15","7",,,,,,,,,,,,,,,,,,,,,,,,,,,"2007-05-17"
"72793524234","SEATTLE BOEING FIELD, WA US","47.54554","-122.31475","7.6","2024-03-02T22:53:00","FM-15","7",,,,,,,,,,,,,,,,,,,,,"29.58","34","37","0.00",,,,"89","29.58","FEW:02 49 OVC:08 65","29.55","10.00","36","000",,"0",,,,,,,,,,,,,,,,,,,,,,,,,,,,,"MET10003/02/24 22:53:01 METAR KBFI 030653Z 00000KT 10SM FEW049 OVC065 03/01 A2958 RMK AO2 SLP016 T00280011","FM-15","7",,,,,,,,,,,,,,,,,,,,,,,,,,,"2007-05-17"
"72793524234","SEATTLE BOEING FIELD, WA US","47.54554","-122.31475","7.6","2024-03-02T23:53:00","FM-15","7",,,,,,,,,,,,,,,,,,,,,"29.58","34","36","0.00",,,,"93","29.58","OVC:08 55","29.55","10.00","35","000",,"0",,,,,,,,,,,,,,,,,,,,,,,,,,,,,"MET10303/02/24 23:53:01 METAR KBFI 030753Z 00000KT 10SM OVC055 02/01 A2958 RMK AO2 SLP017 T00220011 400720022","FM-15","7",,,,,,,,,,,,,,,,,,,,,,,,,,,"2007-05-17"
"72793524234","SEATTLE BOEING FIELD, WA US","47.54554","-122.31475","7.6","2024-03-02T23:59:00","SOD  ","6",,,,,"41","29.42","6.7","0","-3.7","24","45","36","200","29","0.05","180","17","RA BR",,,,,,,,,,,,,,,,,,,,,,,,,,,,,,,,,,,,,,,,,,,,,,,"SOD73024 HR PRECIPITATION (IN):0.05  24 HR MAX TEMP (F):45 24 HR MAX TEMP TIME (LST):1148 24 HR MIN TEMP (F):36 24 HR MIN TEMP TIME (LST):2356 AVERAGE STATION PRESSURE:29.420 MINIMUM SEA LEVEL PRESSURE:29.27 TIME OF OCCURRENCE:0011 PEAK WIND SPEED (MPH):29  PEAK WIND DIR (DEG):200 PEAK WIND TIME (LST):1336  FASTEST 2MIN SPEED (MPH):17 FASTEST 2MIN DIR (DEG):180 FASTEST 2MIN TIME (LST):0946 AVERAGE WIND SPEED (MPH):6.7  24 HR AVG TEMP (F):41 HEATING DEGREE DAYS:24  COOLING DEGREE DAYS:0   LATEST DAY MAX TEMP (0700-1900 LST):45  LATEST NIGHT MIN TEMP(1900-0800 LST):36 HOURLY INCREMENTAL PRECIPITATION VALUES (IN):    T    0.00 0.00 0.00 0.00 0.01 T    0.00 0.00 0.00 0.00 0.00 0.00 0.04 T    0.00 0.00 0.00 T    T    0.00 0.00 0.00","SOD  ","6",,,,,,,,,,,,,,,,,,,,,,,,,"0646","1757","2007-05-17"
"72793524234","SEATTLE BOEING FIELD, WA US","47.54554","-122.31475","7.6","2024-03-03T00:53:00","FM-15","7",,,,,,,,,,,,,,,,,,,,,"29.59","34","37","0.00",,"-0.01","3","89","29.59","SCT:04 45 OVC:08 55","29.56","10.00","36","140",,"5",,,,,,,,,,,,,,,,,,,,,,,,,,,,,"MET11103/03/24 00:53:02 METAR KBFI 030853Z 14004KT 10SM SCT045 OVC055 03/01 A2959 RMK AO2 SLP019 T00280011 53005 (HW)","FM-15","7",,,,,,,,,,,,,,,,,,,,,,,,,,,"2007-05-17"
"72793524234","SEATTLE BOEING FIELD, WA US","47.54554","-122.31475","7.6","2024-03-03T01:53:00","FM-15","7",,,,,,,,,,,,,,,,,,,,,"29.59","32","37","0.00",,,,"82","29.59","OVC:08 42","29.56","10.00","35","130",,"7",,,,,,,,,,,,,,,,,,,,,,,,,,,,,"MET09803/03/24 01:53:02 METAR KBFI 030953Z 13006KT 10SM OVC042 03/00 A2959 RMK AO2 SLP021 T00280000 (HW)","FM-15","7",,,,,,,,,,,,,,,,,,,,,,,,,,,"2007-05-17"
"72793524234","SEATTLE BOEING FIELD, WA US","47.54554","-122.31475","7.6","2024-03-03T02:53:00","FM-15","7",,,,,,,,,,,,,,,,,,,,,"29.60","32","37","0.00",,,,"82","29.59","FEW:02 40 OVC:08 55","29.57","10.00","35","110",,"3",,,,,,,,,,,,,,,,,,,,,,,,,,,,,"MET10003/03/24 02:53:02 METAR KBFI 031053Z 11003KT 10SM FEW040 OVC055 03/00 A2960 RMK AO2 SLP022 T00280000","FM-15","7",,,,,,,,,,,,,,,,,,,,,,,,,,,"2007-05-17"
"72793524234","SEATTLE BOEING FIELD, WA US","47.54554","-122.31475","7.6","2024-03-03T03:53:00","FM-15","7",,,,,,,,,,,,,,,,,,,,,"29.60","31","36","0.00",,"-0.01","2","82","29.60","OVC:08 43","29.57","10.00","34","150",,"7",,,,,,,,,,,,,,,,,,,,,,,,,,,,,"MET12303/03/24 03:53:02 METAR KBFI 031153Z 15006KT 10SM OVC043 02/M01 A2960 RMK AO2 SLP023 70005 T00221006 10033 20017 52004 (TA)","FM-15","7",,,,,,,,,,,,,,,,,,,,,,,,,,,"2007-05-17"
"72793524234","SEATTLE BOEING FIELD, WA US","47.54554","-122.31475","7.6","2024-03-03T04:53:00","FM-15","7",,,,,,,,,,,,,,,,,,,,,"29.61","31","35","0.00",,,,"85","29.60","FEW:02 39 BKN:07 47 OVC:08 60","29.58","10.00","33","150",,"8",,,,,,,,,,,,,,,,,,,,,,,,,,,,,"MET11303/03/24 04:53:02 METAR KBFI 031253Z 15007KT 10SM FEW039 BKN047 OVC060 02/M01 A2961 RMK AO2 SLP025 T00171006 (TA)","FM-15","7",,,,,,,,,,,,,,,,,,,,,,,,,,,"2007-05-17"
"72793524234","SEATTLE BOEING FIELD, WA US","47.54554","-122.31475","7.6","2024-03-03T05:53:00","FM-15","7",,,,,,,,,,,,,,,,,,,,,"29.62","32","37","0.00",,,,"82","29.62","OVC:08 40","29.59","10.00","35","130",,"6",,,,,,,,,,,,,,,,,,,,,,,,,,,,,"MET09803/03/24 05:53:02 METAR KBFI 031353Z 13005KT 10SM OVC040 03/00 A2962 RMK AO2 SLP030 T00280000 (TA)","FM-15","7",,,,,,,,,,,,,,,,,,,,,,,,,,,"2007-05-17"
"72793524234","SEATTLE BOEING FIELD, WA US","47.54554","-122.31475","7.6","2024-03-03T06:51:00","FM-16","6",,,,,,,,,,,,,,,,,,,,,"29.63","34","37",,"UP:09 ||",,,"87",,"BKN:07 23 OVC:08 29","29.60","10.00","36","160",,"9",,,,,,,,,,,,,,,,,,,,,,,,,,,,,"MET11403/03/24 06:51:02 SPECI KBFI 031451Z 16008KT 10SM UP BKN023 OVC029 03/01 A2963 RMK AO2 UPB06E17B37 P0000 FIBI (TA)","FM-16","6",,,,,,,,,,,,,,,,,,,,,,,,,,,"2007-05-17"
"72793524234","SEATTLE BOEING FIELD, WA US","47.54554","-122.31475","7.6","2024-03-03T06:53:00","FM-15","7",,,,,,,,,,,,,,,,,,,,,"29.63","33","37","T","UP:09 ||","-0.04","3","86","29.63","FEW:02 17 BKN:07 23 OVC:08 29","29.60","10.00","35","160",,"11",,,,,,,,,,,,,,,,,,,,,,,,,,,,,"MET14503/03/24 06:53:02 METAR KBFI 031453Z 16010KT 10SM UP FEW017 BKN023 OVC029 03/01 A2963 RMK AO2 UPB06E17B37 SLP035 P0000 60000 T00280006 53012 (TA)","FM-15","7",,,,,,,,,,,,,,,,,,,,,,,,,,,"2007-05-17"
"72793524234","SEATTLE BOEING FIELD, WA US","47.54554","-122.31475","7.6","2024-03-03T07:53:00","FM-15","7",,,,,,,,,,,,,,,,,,,,,"29.65","34","37","T",,,,"89","29.65","BKN:07 23 OVC:08 29","29.62","10.00","36","150",,"11",,,,,,,,,,,,,,,,,,,,,,,,,,,,,"MET12503/03/24 07:53:02 METAR KBFI 031553Z 15010KT 10SM BKN023 OVC029 03/01 A2965 RMK AO2 UPE22RAB09E16 SLP039 P0000 T00280011 (TA)","FM-15","7",,,,,,,,,,,,,,,,,,,,,,,,,,,"2007-05-17"
"72793524234","SEATTLE BOEING FIELD, WA US","47.54554","-122.31475","7.6","2024-03-03T08:53:00","FM-15","7",,,,,,,,,,,,,,,,,,,,,"29.67","34","37","T","-RA:02 |RA |RA",,,"89","29.67","BKN:07 29 BKN:07 39 BKN:07 65","29.64","7.00","36","160",,"7",,,,,,,,,,,,,,,,,,,,,,,,,,,,,"MET12703/03/24 08:53:02 METAR KBFI 031653Z 16006KT 7SM -RA BKN029 BKN039 BKN065 03/01 A2967 RMK AO2 RAB43 SLP046 P0000 T00280011 (TA)","FM-15","7",,,,,,,,,,,,,,,,,,,,,,,,,,,"2007-05-17"
"72793524234","SEATTLE BOEING FIELD, WA US","47.54554","-122.31475","7.6","2024-03-03T08:55:00","FM-16","7",,,,,,,,,,,,,,,,,,,,,"29.67","34","37","T","-RA:02 |RA |RA",,,"89",,"SCT:04 13 BKN:07 29 BKN:07 65","29.64","8.00","36","160",,"7",,,,,,,,,,,,,,,,,,,,,,,,,,,,,"MET11403/03/24 08:55:02 SPECI KBFI 031655Z 16006KT 8SM -RA SCT013 BKN029 BKN065 03/01 A2967 RMK AO2 P0000 T00280011 (TA)","FM-16","7",,,,,,,,,,,,,,,,,,,,,,,,,,,"2007-05-17"
"72793524234","SEATTLE BOEING FIELD, WA US","47.54554","-122.31475","7.6","2024-03-03T09:53:00","FM-15","7",,,,,,,,,,,,,,,,,,,,,"29.68","34","38","T","-RA:02 |RA |RA","-0.05","3","86","29.68","SCT:04 13 BKN:07 29 BKN:07 65","29.65","9.00","36","170","21","14",,,,,,,,,,,,,,,,,,,,,,,,,,,,,"MET16703/03/24 09:53:02 METAR KBFI 031753Z 17012G18KT 9SM -RA SCT013 BKN029 BKN065 03/01 A2968 RMK AO2 RAE20B50UPB1658E06 SLP051 P0000 60000 T00330011 10039 20017 53017 (TA)","FM-15","7",,,,,,,,,,,,,,,,,,,,,,,,,,,"2007-05-17"
"72793524234","SEATTLE BOEING FIELD, WA US","47.54554","-122.31475","7.6","2024-03-03T10:53:00","FM-15","7",,,,,,,,,,,,,,,,,,,,,"29.69","36","40","T",,,,"86","29.69","FEW:02 13 BKN:07 18 OVC:08 50","29.66","10.00","38","160",,"13",,,,,,,,,,,,,,,,,,,,,,,,,,,,,"MET12403/03/24 10:53:02 METAR KBFI 031853Z 16011KT 10SM FEW013 BKN018 OVC050 04/02 A2969 RMK AO2 RAE33 SLP055 P0000 T00440022 (TA)","FM-15","7",,,,,,,,,,,,,,,,,,,,,,,,,,,"2007-05-17"
"72793524234","SEATTLE BOEING FIELD, WA US","47.54554","-122.31475","7.6","2024-03-03T11:51:00","FM-16","6",,,,,,,,,,,,,,,,,,,,,"29.70","36","43",,,,,"76",,"SCT:04 17 BKN:07 50","29.67","10.00","40","170","28","16",,,,,,,,,,,,,,,,,,,,,,,,,,,,,"MET09603/03/24 11:51:02 SPECI KBFI 031951Z 17014G24KT 10SM SCT017 BKN050 06/02 A2970 RMK AO2 FIBI (TA)","FM-16","6",,,,,,,,,,,,,,,,,,,,,,,,,,,"2007-05-17"
"72793524234","SEATTLE BOEING FIELD, WA US","47.54554","-122.31475","7.6","2024-03-03T11:53:00","FM-15","7",,,,,,,,,,,,,,,,,,,,,"29.70","36","42","0.00",,,,"79","29.70","BKN:07 19 BKN:07 50","29.67","10.00","39","170","28","17",,,,,,,,,,,,,,,,,,,,,,,,,,,,,"MET10803/03/24 11:53:02 METAR KBFI 031953Z 17015G24KT 10SM BKN019 BKN050 06/02 A2970 RMK AO2 SLP056 T00560022 (TA)","FM-15","7",,,,,,,,,,,,,,,,,,,,,,,,,,,"2007-05-17"
"72793524234","SEATTLE BOEING FIELD, WA US","47.54554","-122.31475","7.6","2024-03-03T12:53:00","FM-15","7",,,,,,,,,,,,,,,,,,,,,"29.69","34","42","0.00",,"-0.01","0","73","29.69","BKN:07 18 OVC:08 27","29.66","10.00","39","180","32","21",,,,,,,,,,,,,,,,,,,,,,,,,,,,,"MET13803/03/24 12:53:02 METAR KBFI 032053Z 18018G28KT 10SM BKN018 OVC027 06/01 A2969 RMK AO2 PK WND 16028/2052 SLP054 60000 T00560011 50002 (DW)","FM-15","7",,,,,,,,,,,,,,,,,,,,,,,,,,,"2007-05-17"
"72793524234","SEATTLE BOEING FIELD, WA US","47.54554","-122.31475","7.6","2024-03-03T13:53:00","FM-15","7",,,,,,,,,,,,,,,,,,,,,"29.69","35","43","0.00",,,,"74","29.69","SCT:04 17 OVC:08 25","29.66","10.00","40","160","21","15",,,,,,,,,,,,,,,,,,,,,,,,,,,,,"MET10803/03/24 13:53:02 METAR KBFI 032153Z 16013G18KT 10SM SCT017 OVC025 06/02 A2969 RMK AO2 SLP053 T00610017 (DW)","FM-15","7",,,,,,,,,,,,,,,,,,,,,,,,,,,"2007-05-17"
"72793524234","SEATTLE BOEING FIELD, WA US","47.54554","-122.31475","7.6","2024-03-03T14:53:00","FM-15","7",,,,,,,,,,,,,,,,,,,,,"29.68","34","43","T",,,,"71","29.68","SCT:04 17 BKN:07 25","29.65","10.00","39","180","22","13",,,,,,,,,,,,,,,,,,,,,,,,,,,,,"MET12303/03/24 14:53:02 METAR KBFI 032253Z 18011G19KT 10SM SCT017 BKN025 06/01 A2968 RMK AO2 RAB01E15 SLP052 P0000 T00610011 (MB)","FM-15","7",,,,,,,,,,,,,,,,,,,,,,,,,,,"2007-05-17"
"72793524234","SEATTLE BOEING FIELD, WA US","47.54554","-122.31475","7.6","2024-03-03T15:51:00","FM-16","6",,,,,,,,,,,,,,,,,,,,,"29.69","34","43",,,,,"71",,"BKN:07 32","29.66","10.00","39","180","21","10",,,,,,,,,,,,,,,,,,,,,,,,,,,,,"MET08903/03/24 15:51:02 SPECI KBFI 032351Z 18009G18KT 10SM BKN032 06/01 A2969 RMK AO2 FIBI (MB)","FM-16","6",,,,,,,,,,,,,,,,,,,,,,,,,,,"2007-05-17"
"72793524234","SEATTLE BOEING FIELD, WA US","47.54554","-122.31475","7.6","2024-03-03T15:53:00","FM-15","7",,,,,,,,,,,,,,,,,,,,,"29.69","34","43","0.00",,"0.00","3","71","29.69","BKN:07 32","29.66","10.00","39","180","21","8",,,,,,,,,,,,,,,,,,,,,,,,,,,,,"MET12503/03/24 15:53:02 METAR KBFI 032353Z 18007G18KT 10SM BKN032 06/01 A2969 RMK AO2 SLP055 60000 T00610011 10067 20028 53001 (MB)","FM-15","7",,,,,,,,,,,,,,,,,,,,,,,,,,,"2007-05-17"
"72793524234","SEATTLE BOEING FIELD, WA US","47.54554","-122.31475","7.6","2024-03-03T16:51:00","FM-16","6",,,,,,,,,,,,,,,,,,,,,"29.70","34","43",,,,,"71",,"BKN:07 21 BKN:07 27 OVC:08 37","29.67","10.00","39","210","18","8",,,,,,,,,,,,,,,,,,,,,,,,,,,,,"MET10303/03/24 16:51:03 SPECI KBFI 040051Z 21007G16KT 10SM BKN021 BKN027 OVC037 06/01 A2970 RMK AO2 FIBI (SN)","FM-16","6",,,,,,,,,,,,,,,,,,,,,,,,,,,"2007-05-17"
"72793524234","SEATTLE BOEING FIELD, WA US","47.54554","-122.31475","7.6","2024-03-03T16:53:00","FM-15","7",,,,,,,,,,,,,,,,,,,,,"29.70","33","42","0.00",,,,"71","29.70","BKN:07 21 BKN:07 27 OVC:08 37","29.67","10.00","38","210","18","8",,,,,,,,,,,,,,,,,,,,,,,,,,,,,"MET11003/03/24 16:53:01 METAR KBFI 040053Z 21007G16KT 10SM BKN021 BKN027 OVC037 06/01 A2970 RMK AO2 SLP056 T00560006","FM-15","7",,,,,,,,,,,,,,,,,,,,,,,,,,,"2007-05-17"
"72793524234","SEATTLE BOEING FIELD, WA US","47.54554","-122.31475","7.6","2024-03-03T17:53:00","FM-15","7",,,,,,,,,,,,,,,,,,,,,"29.71","32","41","T",,,,"70","29.70","BKN:07 21 BKN:07 27 OVC:08 37","29.68","10.00","37","180","21","7",,,,,,,,,,,,,,,,,,,,,,,,,,,,,"MET12503/03/24 17:53:01 METAR KBFI 040153Z 18006G18KT 10SM BKN021 BKN027 OVC037 05/00 A2971 RMK AO2 RAB14E25 SLP059 P0000 T00500000","FM-15","7",,,,,,,,,,,,,,,,,,,,,,,,,,,"2007-05-17"
"72793524234","SEATTLE BOEING FIELD, WA US","47.54554","-122.31475","7.6","2024-03-03T18:53:00","FM-15","7",,,,,,,,,,,,,,,,,,,,,"29.72","33","40","T",,"-0.02","3","77","29.72","BKN:07 27 OVC:08 34","29.69","10.00","37","170","20","11",,,,,,,,,,,,,,,,,,,,,,,,,,,,,"MET13003/03/24 18:53:01 METAR KBFI 040253Z 17010G17KT 10SM BKN027 OVC034 04/01 A2972 RMK AO2 RAB13E42 SLP063 P0000 60000 T00440006 53007","FM-15","7",,,,,,,,,,,,,,,,,,,,,,,,,,,"2007-05-17"
"72793524234","SEATTLE BOEING FIELD, WA US","47.54554","-122.31475","7.6","2024-03-03T19:53:00","FM-15","7",,,,,,,,,,,,,,,,,,,,,"29.72","34","38","T","-RA:02 |RA |RA",,,"86","29.72","SCT:04 18 BKN:07 24 OVC:08 36","29.69","10.00","36","180","21","14",,,,,,,,,,,,,,,,,,,,,,,,,,,,,"MET12803/03/24 19:53:02 METAR KBFI 040353Z 18012G18KT 10SM -RA SCT018 BKN024 OVC036 03/01 A2972 RMK AO2 RAB0256 SLP065 P0000 T00330011","FM-15","7",,,,,,,,,,,,,,,,,,,,,,,,,,,"2007-05-17"
"72793524234","SEATTLE BOEING FIELD, WA US","47.54554","-122.31475","7.6","2024-03-03T20:53:00","FM-15","7",,,,,,,,,,,,,,,,,,,,,"29.73","34","38","T","-RA:02 |RA |RA",,,"86","29.73","BKN:07 18 BKN:07 25 OVC:08 32","29.70","10.00","36","170",,"11",,,,,,,,,,,,,,,,,,,,,,,,,,,,,"MET12603/03/24 20:53:02 METAR KBFI 040453Z 17010KT 10SM -RA BKN018 BKN025 OVC032 03/01 A2973 RMK AO2 RAE14B30 SLP067 P0000 T00330011","FM-15","7",,,,,,,,,,,,,,,,,,,,,,,,,,,"2007-05-17"
"72793524234","SEATTLE BOEING FIELD, WA US","47.54554","-122.31475","7.6","2024-03-03T21:53:00","FM-15","7",,,,,,,,,,,,,,,,,,,,,"29.74","33","39","0.00",,"-0.03","3","79","29.74","OVC:08 21","29.71","10.00","37","180","22","10",,,,,,,,,,,,,,,,,,,,,,,,,,,,,"MET13403/03/24 21:53:02 METAR KBFI 040553Z 18009G19KT 10SM OVC021 04/01 A2974 RMK AO2 RAE0459 SLP072 P0000 60000 T00390006 10061 20033 53009","FM-15","7",,,,,,,,,,,,,,,,,,,,,,,,,,,"2007-05-17"
"72793524234","SEATTLE BOEING FIELD, WA US","47.54554","-122.31475","7.6","2024-03-03T22:53:00","FM-15","7",,,,,,,,,,,,,,,,,,,,,"29.75","33","38","0.00",,,,"83","29.75","OVC:08 17","29.72","10.00","36","180","21","10",,,,,,,,,,,,,,,,,,,,,,,,,,,,,"MET09603/03/24 22:53:02 METAR KBFI 040653Z 18009G18KT 10SM OVC017 03/01 A2975 RMK AO2 SLP074 T00330006","FM-15","7",,,,,,,,,,,,,,,,,,,,,,,,,,,"2007-05-17"
"72793524234","SEATTLE BOEING FIELD, WA US","47.54554","-122.31475","7.6","2024-03-03T23:53:00","FM-15","7",,,,,,,,,,,,,,,,,,,,,"29.77","34","38","0.00",,,,"86","29.76","OVC:08 17","29.74","10.00","36","VRB","20","8",,,,,,,,,,,,,,,,,,,,,,,,,,,,,"MET10603/03/24 23:53:02 METAR KBFI 040753Z 20007G17KT 10SM OVC017 03/01 A2977 RMK AO2 SLP079 T00330011 400670017","FM-15","7",,,,,,,,,,,,,,,,,,,,,,,,,,,"2007-05-17"
"72793524234","SEATTLE BOEING FIELD, WA US","47.54554","-122.31475","7.6","2024-03-03T23:59:00","SOD  ","6",,,,,"40","29.65","10.3","0","-4.8","25","44","35","160","32","T","170","22","RA UP",,,,,,,,,,,,,,,,,,,,,,,,,,,,,,,,,,,,,,,,,,,,,,,"SOD73024 HR PRECIPITATION (IN):T     24 HR MAX TEMP (F):44 24 HR MAX TEMP TIME (LST):1506 24 HR MIN TEMP (F):35 24 HR MIN TEMP TIME (LST):0519 AVERAGE STATION PRESSURE:29.645 MINIMUM SEA LEVEL PRESSURE:29.58 TIME OF OCCURRENCE:0049 PEAK WIND SPEED (MPH):32  PEAK WIND DIR (DEG):160 PEAK WIND TIME (LST):1252  FASTEST 2MIN SPEED (MPH):22 FASTEST 2MIN DIR (DEG):170 FASTEST 2MIN TIME (LST):1252 AVERAGE WIND SPEED (MPH):10.3 24 HR AVG TEMP (F):40 HEATING DEGREE DAYS:25  COOLING DEGREE DAYS:0   LATEST DAY MAX TEMP (0700-1900 LST):44  LATEST NIGHT MIN TEMP(1900-0800 LST):35 HOURLY INCREMENTAL PRECIPITATION VALUES (IN):.00 0.00 0.00 0.00 0.00 0.00 T    T    T    T    T    0.00 0.00 0.00 T    0.00 0.00 T    T    T    T    0.00 0.00 0.00","SOD  ","6",,,,,,,,,,,,,,,,,,,,,,,,,"0644","1759","2007-05-17"
"72793524234","SEATTLE BOEING FIELD, WA US","47.54554","-122.31475","7.6","2024-03-04T00:51:00","FM-16","6",,,,,,,,,,,,,,,,,,,,,"29.78","34","37",,"UP:09 ||",,,"87",,"OVC:08 13","29.75","10.00","36","190","22","11",,,,,,,,,,,,,,,,,,,,,,,,,,,,,"MET11203/04/24 00:51:02 SPECI KBFI 040851Z 19010G19KT 10SM UP OVC013 03/01 A2978 RMK AO2 RAB50E51UPB51 P0000 FIBI (MB)","FM-16","6",,,,,,,,,,,,,,,,,,,,,,,,,,,"2007-05-17"
"72793524234","SEATTLE BOEING FIELD, WA US","47.54554","-122.31475","7.6","2024-03-04T00:53:00","FM-15","7",,,,,,,,,,,,,,,,,,,,,"29.78","34","37","T","-RA:02 |RA |RA","-0.03","3","89","29.78","OVC:08 13","29.75","10.00","36","190","22","7",,,,,,,,,,,,,,,,,,,,,,,,,,,,,"MET13703/04/24 00:53:02 METAR KBFI 040853Z 19006G19KT 10SM -RA OVC013 03/01 A2978 RMK AO2 RAB50UPB51E53 SLP083 P0000 60000 T00280011 53011 (MB)","FM-15","7",,,,,,,,,,,,,,,,,,,,,,,,,,,"2007-05-17"
"72793524234","SEATTLE BOEING FIELD, WA US","47.54554","-122.31475","7.6","2024-03-04T01:53:00","FM-15","7",,,,,,,,,,,,,,,,,,,,,"29.79","34","37","0.01","UP:09 ||",,,"89","29.79","OVC:08 12","29.76","10.00","36","180",,"8",,,,,,,,,,,,,,,,,,,,,,,,,,,,,"MET11803/04/24 01:53:02 METAR KBFI 040953Z 18007KT 10SM UP OVC012 03/01 A2979 RMK AO2 RAE37UPB37 SLP087 P0001 T00280011 (MB)","FM-15","7",,,,,,,,,,,,,,,,,,,,,,,,,,,"2007-05-17"
"72793524234","SEATTLE BOEING FIELD, WA US","47.54554","-122.31475","7.6","2024-03-04T02:53:00","FM-15","7",,,,,,,,,,,,,,,,,,,,,"29.79","34","38","T",,,,"86","29.79","OVC:08 13","29.76","10.00","36","VRB","17","3",,,,,,,,,,,,,,,,,,,,,,,,,,,,,"MET12703/04/24 02:53:02 METAR KBFI 041053Z VRB03G15KT 10SM OVC013 03/01 A2979 RMK AO2 UPE21B38E41RAB21E38 SLP088 P0000 T00330011 (MM)","FM-15","7",,,,,,,,,,,,,,,,,,,,,,,,,,,"2007-05-17"
"72793524234","SEATTLE BOEING FIELD, WA US","47.54554","-122.31475","7.6","2024-03-04T03:51:00","FM-16","6",,,,,,,,,,,,,,,,,,,,,"29.80","34","37",,,,,"87",,"BKN:07 17 OVC:08 22","29.77","10.00","36","220",,"7",,,,,,,,,,,,,,,,,,,,,,,,,,,,,"MET09303/04/24 03:51:02 SPECI KBFI 041151Z 22006KT 10SM BKN017 OVC022 03/01 A2980 RMK AO2 FIBI (MM)","FM-16","6",,,,,,,,,,,,,,,,,,,,,,,,,,,"2007-05-17"
"72793524234","SEATTLE BOEING FIELD, WA US","47.54554","-122.31475","7.6","2024-03-04T03:53:00","FM-15","7",,,,,,,,,,,,,,,,,,,,,"29.80","33","38","0.00",,"-0.03","1","83","29.80","BKN:07 17 OVC:08 22","29.77","10.00","36","200",,"7",,,,,,,,,,,,,,,,,,,,,,,,,,,,,"MET13503/04/24 03:53:02 METAR KBFI 041153Z 20006KT 10SM BKN017 OVC022 03/01 A2980 RMK AO2 SLP092 60001 70001 T00330006 10039 20022 51009 (MM)","FM-15","7",,,,,,,,,,,,,,,,,,,,,,,,,,,"2007-05-17"
"72793524234","SEATTLE BOEING FIELD, WA US","47.54554","-122.31475","7.6","2024-03-04T04:53:00","FM-15","7",,,,,,,,,,,,,,,,,,,,,"29.82","33","38","0.00",,,,"83","29.82","BKN:07 16 OVC:08 23","29.79","10.00","36","200",,"8",,,,,,,,,,,,,,,,,,,,,,,,,,,,,"MET10503/04/24 04:53:02 METAR KBFI 041253Z 20007KT 10SM BKN016 OVC023 03/01 A2982 RMK AO2 SLP098 T00330006 (MM)","FM-15","7",,,,,,,,,,,,,,,,,,,,,,,,,,,"2007-05-17"
"72793524234","SEATTLE BOEING FIELD, WA US","47.54554","-122.31475","7.6","2024-03-04T05:53:00","FM-15","7",,,,,,,,,,,,,,,,,,,,,"29.84","33","38","0.00",,,,"83","29.83","BKN:07 19 OVC:08 24","29.81","10.00","36","220",,"5",,,,,,,,,,,,,,,,,,,,,,,,,,,,,"MET10503/04/24 05:53:02 METAR KBFI 041353Z 22004KT 10SM BKN019 OVC024 03/01 A2984 RMK AO2 SLP103 T00330006 (MM)","FM-15","7",,,,,,,,,,,,,,,,,,,,,,,,,,,"2007-05-17"
"72793524234","SEATTLE BOEING FIELD, WA US","47.54554","-122.31475","7.6","2024-03-04T06:53:00","FM-15","7",,,,,,,,,,,,,,,,,,,,,"29.86","33","37","0.00",,"-0.06","3","86","29.86","BKN:07 17 OVC:08 21","29.83","10.00","35","160",,"7",,,,,,,,,,,,,,,,,,,,,,,,,,,,,"MET11103/04/24 06:53:02 METAR KBFI 041453Z 16006KT 10SM BKN017 OVC021 03/01 A2986 RMK AO2 SLP112 T00280006 53020 (MM)","FM-15","7",,,,,,,,,,,,,,,,,,,,,,,,,,,"2007-05-17"
"72793524234","SEATTLE BOEING FIELD, WA US","47.54554","-122.31475","7.6","2024-03-04T07:30:00","FM-16","7",,,,,,,,,,,,,,,,,,,,,"29.88","32","37",,,,,"82",,"SCT:04 19","29.85","10.00","35","170",,"9",,,,,,,,,,,,,,,,,,,,,,,,,,,,,"MET09103/04/24 07:30:02 SPECI KBFI 041530Z 17008KT 10SM SCT019 03/00 A2988 RMK AO2 T00280000 (MM)","FM-16","7",,,,,,,,,,,,,,,,,,,,,,,,,,,"2007-05-17"
"72793524234","SEATTLE BOEING FIELD, WA US","47.54554","-122.31475","7.6","2024-03-04T07:43:00","FM-16","7",,,,,,,,,,,,,,,,,,,,,"29.88","32","37",,,,,"82",,"BKN:07 19 BKN:07 26","29.85","10.00","35","150",,"8",,,,,,,,,,,,,,,,,,,,,,,,,,,,,"MET09803/04/24 07:43:02 SPECI KBFI 041543Z 15007KT 10SM BKN019 BKN026 03/00 A2988 RMK AO2 T00280000 (MM)","FM-16","7",,,,,,,,,,,,,,,,,,,,,,,,,,,"2007-05-17"
"72793524234","SEATTLE BOEING FIELD, WA US","47.54554","-122.31475","7.6","2024-03-04T07:53:00","FM-15","7",,,,,,,,,,,,,,,,,,,,,"29.88","32","37","0.00",,,,"82","29.88","BKN:07 16 BKN:07 26","29.85","10.00","35","140",,"9",,,,,,,,,,,,,,,,,,,,,,,,,,,,,"MET10503/04/24 07:53:02 METAR KBFI 041553Z 14008KT 10SM BKN016 BKN026 03/00 A2988 RMK AO2 SLP119 T00280000 (MM)","FM-15","7",,,,,,,,,,,,,,,,,,,,,,,,,,,"2007-05-17"
"72793524234","SEATTLE BOEING FIELD, WA US","47.54554","-122.31475","7.6","2024-03-04T08:53:00","FM-15","7",,,,,,,,,,,,,,,,,,,,,"29.91","34","40","0.00",,,,"79","29.91","OVC:08 22","29.88","10.00","37","160",,"11",,,,,,,,,,,,,,,,,,,,,,,,,,,,,"MET09803/04/24 08:53:02 METAR KBFI 041653Z 16010KT 10SM OVC022 04/01 A2991 RMK AO2 SLP128 T00440011 (MM)","FM-15","7",,,,,,,,,,,,,,,,,,,,,,,,,,,"2007-05-17"
"72793524234","SEATTLE BOEING FIELD, WA US","47.54554","-122.31475","7.6","2024-03-04T09:53:00","FM-15","7",,,,,,,,,,,,,,,,,,,,,"29.93","32","41","0.00",,"-0.06","1","70","29.92","BKN:07 20","29.90","10.00","37","VRB",,"6",,,,,,,,,,,,,,,,,,,,,,,,,,,,,"MET11603/04/24 09:53:02 METAR KBFI 041753Z VRB05KT 10SM BKN020 05/00 A2993 RMK AO2 SLP133 T00500000 10050 20022 51021 (MM)","FM-15","7",,,,,,,,,,,,,,,,,,,,,,,,,,,"2007-05-17"
"72793524234","SEATTLE BOEING FIELD, WA US","47.54554","-122.31475","7.6","2024-03-04T10:51:00","FM-16","6",,,,,,,,,,,,,,,,,,,,,"29.93","32","43",,,,,"66",,"BKN:07 32","29.90","10.00","38","200",,"9",,,,,,,,,,,,,,,,,,,,,,,,,,,,,"MET08603/04/24 10:51:02 SPECI KBFI 041851Z 20008KT 10SM BKN032 06/00 A2993 RMK AO2 FIBI (MM)","FM-16","6",,,,,,,,,,,,,,,,,,,,,,,,,,,"2007-05-17"
"72793524234","SEATTLE BOEING FIELD, WA US","47.54554","-122.31475","7.6","2024-03-04T10:53:00","FM-15","7",,,,,,,,,,,,,,,,,,,,,"29.94","32","43","0.00",,,,"65","29.93","BKN:07 32","29.91","10.00","38","180",,"8",,,,,,,,,,,,,,,,,,,,,,,,,,,,,"MET09803/04/24 10:53:02 METAR KBFI 041853Z 18007KT 10SM BKN032 06/00 A2994 RMK AO2 SLP136 T00610000 (MM)","FM-15","7",,,,,,,,,,,,,,,,,,,,,,,,,,,"2007-05-17"
"72793524234","SEATTLE BOEING FIELD, WA US","47.54554","-122.31475","7.6","2024-03-04T11:53:00","FM-15","7",,,,,,,,,,,,,,,,,,,,,"29.94","30","43","0.00",,,,"60","29.94","SCT:04 35","29.91","10.00","38","210",,"8",,,,,,,,,,,,,,,,,,,,,,,,,,,,,"MET09903/04/24 11:53:02 METAR KBFI 041953Z 21007KT 10SM SCT035 06/M01 A2994 RMK AO2 SLP138 T00611011 (KT)","FM-15","7",,,,,,,,,,,,,,,,,,,,,,,,,,,"2007-05-17"
"72793524234","SEATTLE BOEING FIELD, WA US","47.54554","-122.31475","7.6","2024-03-04T12:53:00","FM-15","7",,,,,,,,,,,,,,,,,,,,,"29.94","30","45","0.00",,"-0.01","0","56","29.93","SCT:04 70","29.91","10.00","39","220","20","10",,,,,,,,,,,,,,,,,,,,,,,,,,,,,"MET10803/04/24 12:53:02 METAR KBFI 042053Z 22009G17KT 10SM SCT070 07/M01 A2994 RMK AO2 SLP137 T00721011 50003 (KT)","FM-15","7",,,,,,,,,,,,,,,,,,,,,,,,,,,"2007-05-17"
"72793524234","SEATTLE BOEING FIELD, WA US","47.54554","-122.31475","7.6","2024-03-04T13:53:00","FM-15","7",,,,,,,,,,,,,,,,,,,,,"29.93","30","45","0.00",,,,"56","29.92","FEW:02 20 SCT:04 25","29.90","10.00","39","190","17","11",,,,,,,,,,,,,,,,,,,,,,,,,,,,,"MET10903/04/24 13:53:02 METAR KBFI 042153Z 19010G15KT 10SM FEW020 SCT025 07/M01 A2993 RMK AO2 SLP133 T00721011 (KT)","FM-15","7",,,,,,,,,,,,,,,,,,,,,,,,,,,"2007-05-17"
"72793524234","SEATTLE BOEING FIELD, WA US","47.54554","-122.31475","7.6","2024-03-04T14:51:00","FM-16","6",,,,,,,,,,,,,,,,,,,,,"29.92","30","45",,,,,"57",,"BKN:07 20 BKN:07 37 BKN:07 120","29.89","10.00","39","220",,"9",,,,,,,,,,,,,,,,,,,,,,,,,,,,,"MET10103/04/24 14:51:02 SPECI KBFI 042251Z 22008KT 10SM BKN020 BKN037 BKN120 07/M01 A2992 RMK AO2 FIBI (SN)","FM-16","6",,,,,,,,,,,,,,,,,,,,,,,,,,,"2007-05-17"
"72793524234","SEATTLE BOEING FIELD, WA US","47.54554","-122.31475","7.6","2024-03-04T14:53:00","FM-15","7",,,,,,,,,,,,,,,,,,,,,"29.92","30","44","0.00",,,,"58","29.92","BKN:07 20 BKN:07 37 BKN:07 120","29.89","10.00","38","210",,"8",,,,,,,,,,,,,,,,,,,,,,,,,,,,,"MET11303/04/24 14:53:02 METAR KBFI 042253Z 21007KT 10SM BKN020 BKN037 BKN120 07/M01 A2992 RMK AO2 SLP132 T00671011 (SN)","FM-15","7",,,,,,,,,,,,,,,,,,,,,,,,,,,"2007-05-17"
"72793524234","SEATTLE BOEING FIELD, WA US","47.54554","-122.31475","7.6","2024-03-04T15:53:00","FM-15","7",,,,,,,,,,,,,,,,,,,,,"29.92","33","43","0.00",,"0.02","6","68","29.92","SCT:04 25 SCT:04 33 BKN:07 110","29.89","10.00","39","260",,"6",,,,,,,,,,,,,,,,,,,,,,,,,,,,,"MET13003/04/24 15:53:02 METAR KBFI 042353Z 26005KT 10SM SCT025 SCT033 BKN110 06/01 A2992 RMK AO2 SLP131 T00610006 10078 20050 56006 (SN)","FM-15","7",,,,,,,,,,,,,,,,,,,,,,,,,,,"2007-05-17"
"72793524234","SEATTLE BOEING FIELD, WA US","47.54554","-122.31475","7.6","2024-03-04T15:55:00","FM-16","7",,,,,,,,,,,,,,,,,,,,,"29.92","33","43",,,,,"68",,"BKN:07 25 BKN:07 33 BKN:07 110","29.89","10.00","39","270",,"6",,,,,,,,,,,,,,,,,,,,,,,,,,,,,"MET10503/04/24 15:55:02 SPECI KBFI 042355Z 27005KT 10SM BKN025 BKN033 BKN110 06/01 A2992 RMK AO2 T00610006 (SN)","FM-16","7",,,,,,,,,,,,,,,,,,,,,,,,,,,"2007-05-17"
"72793524234","SEATTLE BOEING FIELD, WA US","47.54554","-122.31475","7.6","2024-03-04T16:53:00","FM-15","7",,,,,,,,,,,,,,,,,,,,,"29.92","33","42","0.00",,,,"71","29.92","BKN:07 25 BKN:07 31 OVC:08 39","29.89","10.00","38","300",,"6",,,,,,,,,,,,,,,,,,,,,,,,,,,,,"MET10703/04/24 16:53:01 METAR KBFI 050053Z 30005KT 10SM BKN025 BKN031 OVC039 06/01 A2992 RMK AO2 SLP132 T00560006","FM-15","7",,,,,,,,,,,,,,,,,,,,,,,,,,,"2007-05-17"
"72793524234","SEATTLE BOEING FIELD, WA US","47.54554","-122.31475","7.6","2024-03-04T17:53:00","FM-15","7",,,,,,,,,,,,,,,,,,,,,"29.93","33","40","0.00",,,,"77","29.93","BKN:07 21 BKN:07 27 BKN:07 110","29.90","10.00","37","050",,"8",,,,,,,,,,,,,,,,,,,,,,,,,,,,,"MET10703/04/24 17:53:01 METAR KBFI 050153Z 05007KT 10SM BKN021 BKN027 BKN110 04/01 A2993 RMK AO2 SLP135 T00440006","FM-15","7",,,,,,,,,,,,,,,,,,,,,,,,,,,"2007-05-17"
"72793524234","SEATTLE BOEING FIELD, WA US","47.54554","-122.31475","7.6","2024-03-04T18:51:00","FM-16","6",,,,,,,,,,,,,,,,,,,,,"29.93","30","39",,,,,"70",,"FEW:02 27 BKN:07 34 OVC:08 95","29.90","10.00","35","060",,"7",,,,,,,,,,,,,,,,,,,,,,,,,,,,,"MET10103/04/24 18:51:03 SPECI KBFI 050251Z 06006KT 10SM FEW027 BKN034 OVC095 04/M01 A2993 RMK AO2 FIBI (SN)","FM-16","6",,,,,,,,,,,,,,,,,,,,,,,,,,,"2007-05-17"
"72793524234","SEATTLE BOEING FIELD, WA US","47.54554","-122.31475","7.6","2024-03-04T18:53:00","FM-15","7",,,,,,,,,,,,,,,,,,,,,"29.93","31","39","0.00",,"-0.01","1","73","29.93","SCT:04 27 BKN:07 60 OVC:08 95","29.90","10.00","36","070",,"8",,,,,,,,,,,,,,,,,,,,,,,,,,,,,"MET11403/04/24 18:53:02 METAR KBFI 050253Z 07007KT 10SM SCT027 BKN060 OVC095 04/M01 A2993 RMK AO2 SLP135 T00391006 51004","FM-15","7",,,,,,,,,,,,,,,,,,,,,,,,,,,"2007-05-17"
"72793524234","SEATTLE BOEING FIELD, WA US","47.54554","-122.31475","7.6","2024-03-04T19:51:00","FM-16","6",,,,,,,,,,,,,,,,,,,,,"29.96","34","36",,"-RA:02 BR:1 |RA |RA",,,"93",,"OVC:08 15","29.93","4.00","35","000",,"0",,,,,,,,,,,,,,,,,,,,,,,,,,,,,"MET10403/04/24 19:51:03 SPECI KBFI 050351Z 00000KT 4SM -RA BR OVC015 02/01 A2996 RMK AO2 RAB29 P0006 FIBI (SN)","FM-16","6",,,,,,,,,,,,,,,,,,,,,,,,,,,"2007-05-17"
"72793524234","SEATTLE BOEING FIELD, WA US","47.54554","-122.31475","7.6","2024-03-04T19:53:00","FM-15","7",,,,,,,,,,,,,,,,,,,,,"29.96","33","35","0.08","-RA:02 BR:1 |RA |RA",,,"93","29.96","OVC:08 15","29.93","4.00","34","000",,"0",,,,,,,,,,,,,,,,,,,,,,,,,,,,,"MET11103/04/24 19:53:02 METAR KBFI 050353Z 00000KT 4SM -RA BR OVC015 02/01 A2996 RMK AO2 RAB29 SLP146 P0006 T00170006","FM-15","7",,,,,,,,,,,,,,,,,,,,,,,,,,,"2007-05-17"
"72793524234","SEATTLE BOEING FIELD, WA US","47.54554","-122.31475","7.6","2024-03-04T20:21:00","FM-16","7",,,,,,,,,,,,,,,,,,,,,"29.97","33","35","0.09","SN:03 BR:1 |SN |",,,"93",,"BKN:07 8 OVC:08 14","29.94","2.50","34","000",,"0",,,,,,,,,,,,,,,,,,,,,,,,,,,,,"MET11903/04/24 20:21:02 SPECI KBFI 050421Z 00000KT 2 1/2SM SN BR BKN008 OVC014 02/01 A2997 RMK AO2 RAE16SNB16 P0009 T00170006","FM-16","7",,,,,,,,,,,,,,,,,,,,,,,,,,,"2007-05-17"
"72793524234","SEATTLE BOEING FIELD, WA US","47.54554","-122.31475","7.6","2024-03-04T20:53:00","FM-15","7",,,,,,,,,,,,,,,,,,,,,"29.97","32","32","0.20","SN:03 BR:1 |SN |",,,"100","29.96","OVC:08 8","29.94","2.00","32","000",,"0",,,,,,,,,,,,,,,,,,,,,,,,,,,,,"MET11503/04/24 20:53:02 METAR KBFI 050453Z 00000KT 2SM SN BR OVC008 00/00 A2997 RMK AO2 RAE16SNB16 SLP147 P0021 T00000000","FM-15","7",,,,,,,,,,,,,,,,,,,,,,,,,,,"2007-05-17"
"72793524234","SEATTLE BOEING FIELD, WA US","47.54554","-122.31475","7.6","2024-03-04T21:51:00","FM-16","6",,,,,,,,,,,,,,,,,,,,,"29.96","32","34",,,,,"93",,"SCT:04 14 OVC:08 22","29.93","9.00","33","000",,"0",,,,,,,,,,,,,,,,,,,,,,,,,,,,,"MET10403/04/24 21:51:03 SPECI KBFI 050551Z 00000KT 9SM SCT014 OVC022 01/00 A2996 RMK AO2 SNE49 P0004 FIBI (JL)","FM-16","6",,,,,,,,,,,,,,,,,,,,,,,,,,,"2007-05-17"
"72793524234","SEATTLE BOEING FIELD, WA US","47.54554","-122.31475","7.6","2024-03-04T21:53:00","FM-15","7",,,,,,,,,,,,,,,,,,,,,"29.96","32","33","0.03",,"-0.03","0","96","29.96","SCT:04 8 OVC:08 22","29.93","9.00","33","000",,"0",,,,,,,,,,,,,,,,,,,,,,,,,,,,,"MET13503/04/24 21:53:02 METAR KBFI 050553Z 00000KT 9SM SCT008 OVC022 01/00 A2996 RMK AO2 SNE49 SLP145 P0004 60031 T00060000 10061 20000 50010","FM-15","7",,,,,,,,,,,,,,,,,,,,,,,,,,,"2007-05-17"
"72793524234","SEATTLE BOEING FIELD, WA US","47.54554","-122.31475","7.6","2024-03-04T22:53:00","FM-15","7",,,,,,,,,,,,,,,,,,,,,"29.96","32","33","0.00","BR:1 ||",,,"96","29.95","SCT:04 8 OVC:08 22","29.93","5.00","33","000",,"0",,,,,,,,,,,,,,,,,,,,,,,,,,,,,"MET10203/04/24 22:53:02 METAR KBFI 050653Z 00000KT 5SM BR SCT008 OVC022 01/00 A2996 RMK AO2 SLP143 T00060000","FM-15","7",,,,,,,,,,,,,,,,,,,,,,,,,,,"2007-05-17"
"72793524234","SEATTLE BOEING FIELD, WA US","47.54554","-122.31475","7.6","2024-03-04T23:51:00","FM-16","6",,,,,,,,,,,,,,,,,,,,,"29.95","32","32",,"FG:2 |FG |",,,"100",,,"29.92","0.25","32","000",,"0",,,,,,,,,,,,,,,,,,,,,,,,,,,,,"MET08903/04/24 23:51:03 SPECI KBFI 050751Z 00000KT 1/4SM FG VV002 00/00 A2995 RMK AO2 FIBI (JL)","FM-16","6",,,,,,,,,,,,,,,,,,,,,,,,,,,"2007-05-17"
"72793524234","SEATTLE BOEING FIELD, WA US","47.54554","-122.31475","7.6","2024-03-04T23:53:00","FM-15","7",,,,,,,,,,,,,,,,,,,,,"29.95","32","32","0.00","FG:2 |FG |",,,"100","29.95",,"29.92","0.25","32","000",,"0",,,,,,,,,,,,,,,,,,,,,,,,,,,,,"MET10603/04/24 23:53:02 METAR KBFI 050753Z 00000KT 1/4SM FG VV002 00/00 A2995 RMK AO2 SLP142 T00000000 400780000","FM-15","7",,,,,,,,,,,,,,,,,,,,,,,,,,,"2007-05-17"
"72793524234","SEATTLE BOEING FIELD, WA US","47.54554","-122.31475","7.6","2024-03-04T23:59:00","SOD  ","6",,,,,"39","29.86","6.0","0","-6.0","26","46","32","200","25","0.32","190","15","RA SN FG BR UP",,,,,,,,,,,,,,,,,,,,,,,,,,,,,,,,,,,,,,,,,,,,,,,"SOD73024 HR PRECIPITATION (IN):0.32  24 HR MAX TEMP (F):46 24 HR MAX TEMP TIME (LST):1352 24 HR MIN TEMP (F):32 24 HR MIN TEMP TIME (LST):2359 AVERAGE STATION PRESSURE:29.865 MINIMUM SEA LEVEL PRESSURE:29.76 TIME OF OCCURRENCE:0007 PEAK WIND SPEED (MPH):25  PEAK WIND DIR (DEG):200 PEAK WIND TIME (LST):1303  FASTEST 2MIN SPEED (MPH):15 FASTEST 2MIN DIR (DEG):190 FASTEST 2MIN TIME (LST):1356 AVERAGE WIND SPEED (MPH):6.0  24 HR AVG TEMP (F):39 HEATING DEGREE DAYS:26  COOLING DEGREE DAYS:0   LATEST DAY MAX TEMP (0700-1900 LST):46  LATEST NIGHT MIN TEMP(1900-0800 LST):36 HOURLY INCREMENTAL PRECIPITATION VALUES (IN):    0.01 T    0.00 0.00 0.00 0.00 0.00 0.00 0.00 0.00 0.00 0.00 0.00 0.00 0.00 0.00 0.00 0.00 0.08 0.20 0.03 0.00 0.00","SOD  ","6",,,,,,,,,,,,,,,,,,,,,,,,,"0642","1800","2007-05-17"
"72793524234","SEATTLE BOEING FIELD, WA US","47.54554","-122.31475","7.6","2024-03-05T00:53:00","FM-15","7",,,,,,,,,,,,,,,,,,,,,"29.97","32","33","0.00","FG:2 |FG |","-0.01","3","96","29.97",,"29.94","0.25","33","000",,"0",,,,,,,,,,,,,,,,,,,,,,,,,,,,,"MET10703/05/24 00:53:02 METAR KBFI 050853Z 00000KT 1/4SM FG VV002 01/00 A2997 RMK AO2 SLP148 T00060000 53002 (JL)","FM-15","7",,,,,,,,,,,,,,,,,,,,,,,,,,,"2007-05-17"
"72793524234","SEATTLE BOEING FIELD, WA US","47.54554","-122.31475","7.6","2024-03-05T00:55:00","FM-16","7",,,,,,,,,,,,,,,,,,,,,"29.97","32","33",,"BR:1 ||",,,"96",,"BKN:07 8 OVC:08 13","29.94","3.00","33","000",,"0",,,,,,,,,,,,,,,,,,,,,,,,,,,,,"MET11203/05/24 00:55:02 SPECI KBFI 050855Z 00000KT 3SM BR BKN008 OVC013 01/00 A2997 RMK AO2 CIG 006V011 T00060000 (JL)","FM-16","7",,,,,,,,,,,,,,,,,,,,,,,,,,,"2007-05-17"
"72793524234","SEATTLE BOEING FIELD, WA US","47.54554","-122.31475","7.6","2024-03-05T01:53:00","FM-15","7",,,,,,,,,,,,,,,,,,,,,"29.97","33","34","0.00","BR:1 ||",,,"97","29.96","BKN:07 8","29.94","3.00","34","030",,"3",,,,,,,,,,,,,,,,,,,,,,,,,,,,,"MET11203/05/24 01:53:02 METAR KBFI 050953Z 03003KT 3SM BR BKN008 01/01 A2997 RMK AO2 CIG 007V011 SLP147 T00110006 (JL)","FM-15","7",,,,,,,,,,,,,,,,,,,,,,,,,,,"2007-05-17"
"72793524234","SEATTLE BOEING FIELD, WA US","47.54554","-122.31475","7.6","2024-03-05T02:51:00","FM-16","6",,,,,,,,,,,,,,,,,,,,,"29.97","34","34",,,,,"100",,"FEW:02 15 OVC:08 60","29.94","10.00","34","000",,"0",,,,,,,,,,,,,,,,,,,,,,,,,,,,,"MET09303/05/24 02:51:02 SPECI KBFI 051051Z 00000KT 10SM FEW015 OVC060 01/01 A2997 RMK AO2 FIBI (JL)","FM-16","6",,,,,,,,,,,,,,,,,,,,,,,,,,,"2007-05-17"
"72793524234","SEATTLE BOEING FIELD, WA US","47.54554","-122.31475","7.6","2024-03-05T02:53:00","FM-15","7",,,,,,,,,,,,,,,,,,,,,"29.97","33","35","0.00",,,,"93","29.97","SCT:04 15 OVC:08 60","29.94","10.00","34","000",,"0",,,,,,,,,,,,,,,,,,,,,,,,,,,,,"MET10503/05/24 02:53:02 METAR KBFI 051053Z 00000KT 10SM SCT015 OVC060 02/01 A2997 RMK AO2 SLP148 T00170006 (JL)","FM-15","7",,,,,,,,,,,,,,,,,,,,,,,,,,,"2007-05-17"
"72793524234","SEATTLE BOEING FIELD, WA US","47.54554","-122.31475","7.6","2024-03-05T03:06:00","FM-16","7",,,,,,,,,,,,,,,,,,,,,"29.97","33","35",,,,,"93",,"BKN:07 15 OVC:08 60","29.94","10.00","34","000",,"0",,,,,,,,,,,,,,,,,,,,,,,,,,,,,"MET09803/05/24 03:06:02 SPECI KBFI 051106Z 00000KT 10SM BKN015 OVC060 02/01 A2997 RMK AO2 T00170006 (JL)","FM-16","7",,,,,,,,,,,,,,,,,,,,,,,,,,,"2007-05-17"
"72793524234","SEATTLE BOEING FIELD, WA US","47.54554","-122.31475","7.6","2024-03-05T03:36:00","FM-16","7",,,,,,,,,,,,,,,,,,,,,"29.97","33","35",,,,,"93",,"SCT:04 15 OVC:08 60","29.94","10.00","34","040",,"5",,,,,,,,,,,,,,,,,,,,,,,,,,,,,"MET09803/05/24 03:36:02 SPECI KBFI 051136Z 04004KT 10SM SCT015 OVC060 02/01 A2997 RMK AO2 T00170006 (JL)","FM-16","7",,,,,,,,,,,,,,,,,,,,,,,,,,,"2007-05-17"
"72793524234","SEATTLE BOEING FIELD, WA US","47.54554","-122.31475","7.6","2024-03-05T03:51:00","FM-16","6",,,,,,,,,,,,,,,,,,,,,"29.97","34","36",,,,,"93",,"SCT:04 7 OVC:08 60","29.94","10.00","35","040",,"6",,,,,,,,,,,,,,,,,,,,,,,,,,,,,"MET09303/05/24 03:51:02 SPECI KBFI 051151Z 04005KT 10SM SCT007 OVC060 02/01 A2997 RMK AO2 FIBI (JL)","FM-16","6",,,,,,,,,,,,,,,,,,,,,,,,,,,"2007-05-17"
"72793524234","SEATTLE BOEING FIELD, WA US","47.54554","-122.31475","7.6","2024-03-05T03:53:00","FM-15","7",,,,,,,,,,,,,,,,,,,,,"29.97","33","35","0.00",,"0.00","0","93","29.97","SCT:04 7 OVC:08 60","29.94","10.00","34","040",,"3",,,,,,,,,,,,,,,,,,,,,,,,,,,,,"MET12903/05/24 03:53:02 METAR KBFI 051153Z 04003KT 10SM SCT007 OVC060 02/01 A2997 RMK AO2 SLP148 70031 T00170006 10017 20000 50000 (JL)","FM-15","7",,,,,,,,,,,,,,,,,,,,,,,,,,,"2007-05-17"
"72793524234","SEATTLE BOEING FIELD, WA US","47.54554","-122.31475","7.6","2024-03-05T04:51:00","FM-16","6",,,,,,,,,,,,,,,,,,,,,"29.99","34","36",,,,,"93",,"OVC:08 6","29.96","10.00","35","VRB",,"5",,,,,,,,,,,,,,,,,,,,,,,,,,,,,"MET08603/05/24 04:51:02 SPECI KBFI 051251Z VRB04KT 10SM OVC006 02/01 A2999 RMK AO2 FIBI (JL)","FM-16","6",,,,,,,,,,,,,,,,,,,,,,,,,,,"2007-05-17"
"72793524234","SEATTLE BOEING FIELD, WA US","47.54554","-122.31475","7.6","2024-03-05T04:53:00","FM-15","7",,,,,,,,,,,,,,,,,,,,,"29.99","33","35","0.00",,,,"93","29.98","OVC:08 6","29.96","10.00","34","040",,"3",,,,,,,,,,,,,,,,,,,,,,,,,,,,,"MET09803/05/24 04:53:02 METAR KBFI 051253Z 04003KT 10SM OVC006 02/01 A2999 RMK AO2 SLP154 T00170006 (JL)","FM-15","7",,,,,,,,,,,,,,,,,,,,,,,,,,,"2007-05-17"
"72793524234","SEATTLE BOEING FIELD, WA US","47.54554","-122.31475","7.6","2024-03-05T05:53:00","FM-15","7",,,,,,,,,,,,,,,,,,,,,"30.00","32","34","0.00",,,,"92","29.99","OVC:08 6","29.97","10.00","33","000",,"0",,,,,,,,,,,,,,,,,,,,,,,,,,,,,"MET09803/05/24 05:53:02 METAR KBFI 051353Z 00000KT 10SM OVC006 01/00 A3000 RMK AO2 SLP157 T00110000 (MB)","FM-15","7",,,,,,,,,,,,,,,,,,,,,,,,,,,"2007-05-17"
"72793524234","SEATTLE BOEING FIELD, WA US","47.54554","-122.31475","7.6","2024-03-05T06:53:00","FM-15","7",,,,,,,,,,,,,,,,,,,,,"30.01","32","34","0.00",,"-0.04","1","92","30.01","BKN:07 6 OVC:08 9","29.98","10.00","33","000",,"0",,,,,,,,,,,,,,,,,,,,,,,,,,,,,"MET11103/05/24 06:53:02 METAR KBFI 051453Z 00000KT 10SM BKN006 OVC009 01/00 A3001 RMK AO2 SLP161 T00110000 51014 (MB)","FM-15","7",,,,,,,,,,,,,,,,,,,,,,,,,,,"2007-05-17"
"72793524234","SEATTLE BOEING FIELD, WA US","47.54554","-122.31475","7.6","2024-03-05T07:53:00","FM-15","7",,,,,,,,,,,,,,,,,,,,,"30.03","31","33","0.00",,,,"92","30.02","FEW:02 6 BKN:07 9 BKN:07 12","30.00","9.00","32","000",,"0",,,,,,,,,,,,,,,,,,,,,,,,,,,,,"MET11203/05/24 07:53:02 METAR KBFI 051553Z 00000KT 9SM FEW006 BKN009 BKN012 01/M01 A3003 RMK AO2 SLP167 T00061006 (MB)","FM-15","7",,,,,,,,,,,,,,,,,,,,,,,,,,,"2007-05-17"
"72793524234","SEATTLE BOEING FIELD, WA US","47.54554","-122.31475","7.6","2024-03-05T08:53:00","FM-15","7",,,,,,,,,,,,,,,,,,,,,"30.04","31","35","0.00",,,,"85","30.04","BKN:07 7 BKN:07 9 BKN:07 12","30.01","10.00","33","100",,"3",,,,,,,,,,,,,,,,,,,,,,,,,,,,,"MET11303/05/24 08:53:02 METAR KBFI 051653Z 10003KT 10SM BKN007 BKN009 BKN012 02/M01 A3004 RMK AO2 SLP173 T00171006 (SN)","FM-15","7",,,,,,,,,,,,,,,,,,,,,,,,,,,"2007-05-17"
"72793524234","SEATTLE BOEING FIELD, WA US","47.54554","-122.31475","7.6","2024-03-05T09:51:00","FM-16","6",,,,,,,,,,,,,,,,,,,,,"30.05","32","37",,,,,"81",,"SCT:04 10","30.02","10.00","35","070",,"6",,,,,,,,,,,,,,,,,,,,,,,,,,,,,"MET08603/05/24 09:51:02 SPECI KBFI 051751Z 07005KT 10SM SCT010 03/00 A3005 RMK AO2 FIBI (SN)","FM-16","6",,,,,,,,,,,,,,,,,,,,,,,,,,,"2007-05-17"
"72793524234","SEATTLE BOEING FIELD, WA US","47.54554","-122.31475","7.6","2024-03-05T09:53:00","FM-15","7",,,,,,,,,,,,,,,,,,,,,"30.05","32","37","0.00",,"-0.04","1","82","30.05","SCT:04 10","30.02","10.00","35","060",,"5",,,,,,,,,,,,,,,,,,,,,,,,,,,,,"MET11603/05/24 09:53:02 METAR KBFI 051753Z 06004KT 10SM SCT010 03/00 A3005 RMK AO2 SLP175 T00280000 10028 20006 51014 (SN)","FM-15","7",,,,,,,,,,,,,,,,,,,,,,,,,,,"2007-05-17"
"72793524234","SEATTLE BOEING FIELD, WA US","47.54554","-122.31475","7.6","2024-03-05T10:53:00","FM-15","7",,,,,,,,,,,,,,,,,,,,,"30.05","31","40","0.00",,,,"70","30.05","SCT:04 10","30.02","10.00","36","VRB",,"5",,,,,,,,,,,,,,,,,,,,,,,,,,,,,"MET09903/05/24 10:53:02 METAR KBFI 051853Z VRB04KT 10SM SCT010 04/M01 A3005 RMK AO2 SLP177 T00441006 (SN)","FM-15","7",,,,,,,,,,,,,,,,,,,,,,,,,,,"2007-05-17"
"72793524234","SEATTLE BOEING FIELD, WA US","47.54554","-122.31475","7.6","2024-03-05T11:53:00","FM-15","7",,,,,,,,,,,,,,,,,,,,,"30.05","30","42","0.00",,,,"62","30.05","FEW:02 28","30.02","10.00","37","070",,"5",,,,,,,,,,,,,,,,,,,,,,,,,,,,,"MET09903/05/24 11:53:02 METAR KBFI 051953Z 07004KT 10SM FEW028 06/M01 A3005 RMK AO2 SLP176 T00561011 (SN)","FM-15","7",,,,,,,,,,,,,,,,,,,,,,,,,,,"2007-05-17"
"72793524234","SEATTLE BOEING FIELD, WA US","47.54554","-122.31475","7.6","2024-03-05T12:53:00","FM-15","7",,,,,,,,,,,,,,,,,,,,,"30.05","29","43","0.00",,"0.01","8","58","30.04","BKN:07 33","30.02","10.00","37","000",,"0",,,,,,,,,,,,,,,,,,,,,,,,,,,,,"MET10503/05/24 12:53:02 METAR KBFI 052053Z 00000KT 10SM BKN033 06/M02 A3005 RMK AO2 SLP174 T00611017 58002 (SN)","FM-15","7",,,,,,,,,,,,,,,,,,,,,,,,,,,"2007-05-17"
"72793524234","SEATTLE BOEING FIELD, WA US","47.54554","-122.31475","7.6","2024-03-05T13:53:00","FM-15","7",,,,,,,,,,,,,,,,,,,,,"30.04","27","45","0.00",,,,"49","30.03","SCT:04 40","30.01","10.00","38","VRB",,"5",,,,,,,,,,,,,,,,,,,,,,,,,,,,,"MET09903/05/24 13:53:02 METAR KBFI 052153Z VRB04KT 10SM SCT040 07/M03 A3004 RMK AO2 SLP170 T00721028 (SN)","FM-15","7",,,,,,,,,,,,,,,,,,,,,,,,,,,"2007-05-17"
"72793524234","SEATTLE BOEING FIELD, WA US","47.54554","-122.31475","7.6","2024-03-05T14:53:00","FM-15","7",,,,,,,,,,,,,,,,,,,,,"30.04","27","45","0.00",,,,"49","30.03","BKN:07 43","30.01","10.00","38","VRB","20","7",,,,,,,,,,,,,,,,,,,,,,,,,,,,,"MET10203/05/24 14:53:02 METAR KBFI 052253Z VRB06G17KT 10SM BKN043 07/M03 A3004 RMK AO2 SLP170 T00721028 (IV)","FM-15","7",,,,,,,,,,,,,,,,,,,,,,,,,,,"2007-05-17"
"72793524234","SEATTLE BOEING FIELD, WA US","47.54554","-122.31475","7.6","2024-03-05T15:53:00","FM-15","7",,,,,,,,,,,,,,,,,,,,,"30.03","27","44","0.00",,"0.01","6","51","30.03","FEW:02 43","30.00","10.00","37","310","20","11",,,,,,,,,,,,,,,,,,,,,,,,,,,,,"MET12003/05/24 15:53:02 METAR KBFI 052353Z 31010G17KT 10SM FEW043 07/M03 A3003 RMK AO2 SLP170 T00671028 10078 20028 56004 (IV)","FM-15","7",,,,,,,,,,,,,,,,,,,,,,,,,,,"2007-05-17"
"72793524234","SEATTLE BOEING FIELD, WA US","47.54554","-122.31475","7.6","2024-03-05T16:53:00","FM-15","7",,,,,,,,,,,,,,,,,,,,,"30.04","26","43","0.00",,,,"51","30.03","FEW:02 100","30.01","10.00","36","310","17","8",,,,,,,,,,,,,,,,,,,,,,,,,,,,,"MET09703/05/24 16:53:01 METAR KBFI 060053Z 31007G15KT 10SM FEW100 06/M03 A3004 RMK AO2 SLP171 T00611033","FM-15","7",,,,,,,,,,,,,,,,,,,,,,,,,,,"2007-05-17"
"72793524234","SEATTLE BOEING FIELD, WA US","47.54554","-122.31475","7.6","2024-03-05T17:53:00","FM-15","7",,,,,,,,,,,,,,,,,,,,,"30.04","27","42","0.00",,,,"55","30.03","CLR:00","30.01","10.00","36","340",,"3",,,,,,,,,,,,,,,,,,,,,,,,,,,,,"MET09103/05/24 17:53:01 METAR KBFI 060153Z 34003KT 10SM CLR 06/M03 A3004 RMK AO2 SLP171 T00561028","FM-15","7",,,,,,,,,,,,,,,,,,,,,,,,,,,"2007-05-17"
"72793524234","SEATTLE BOEING FIELD, WA US","47.54554","-122.31475","7.6","2024-03-05T18:53:00","FM-15","7",,,,,,,,,,,,,,,,,,,,,"30.05","28","40","0.00",,"-0.02","3","63","30.05","CLR:00","30.02","10.00","35","000",,"0",,,,,,,,,,,,,,,,,,,,,,,,,,,,,"MET09703/05/24 18:53:01 METAR KBFI 060253Z 00000KT 10SM CLR 04/M02 A3005 RMK AO2 SLP176 T00441022 53006","FM-15","7",,,,,,,,,,,,,,,,,,,,,,,,,,,"2007-05-17"
"72793524234","SEATTLE BOEING FIELD, WA US","47.54554","-122.31475","7.6","2024-03-05T19:53:00","FM-15","7",,,,,,,,,,,,,,,,,,,,,"30.06","28","39","0.00",,,,"65","30.06","CLR:00","30.03","10.00","35","000",,"0",,,,,,,,,,,,,,,,,,,,,,,,,,,,,"MET09103/05/24 19:53:02 METAR KBFI 060353Z 00000KT 10SM CLR 04/M02 A3006 RMK AO2 SLP179 T00391022","FM-15","7",,,,,,,,,,,,,,,,,,,,,,,,,,,"2007-05-17"
"72793524234","SEATTLE BOEING FIELD, WA US","47.54554","-122.31475","7.6","2024-03-05T20:53:00","FM-15","7",,,,,,,,,,,,,,,,,,,,,"30.07","28","37","0.00",,,,"70","30.06","CLR:00","30.04","10.00","34","040",,"3",,,,,,,,,,,,,,,,,,,,,,,,,,,,,"MET09103/05/24 20:53:02 METAR KBFI 060453Z 04003KT 10SM CLR 03/M02 A3007 RMK AO2 SLP181 T00281022","FM-15","7",,,,,,,,,,,,,,,,,,,,,,,,,,,"2007-05-17"
"72793524234","SEATTLE BOEING FIELD, WA US","47.54554","-122.31475","7.6","2024-03-05T21:53:00","FM-15","7",,,,,,,,,,,,,,,,,,,,,"30.08","28","35","0.00",,"-0.02","3","76","30.07","CLR:00","30.05","10.00","32","000",,"0",,,,,,,,,,,,,,,,,,,,,,,,,,,,,"MET10903/05/24 21:53:02 METAR KBFI 060553Z 00000KT 10SM CLR 02/M02 A3008 RMK AO2 SLP184 T00171022 10067 20017 53008","FM-15","7",,,,,,,,,,,,,,,,,,,,,,,,,,,"2007-05-17"
"72793524234","SEATTLE BOEING FIELD, WA US","47.54554","-122.31475","7.6","2024-03-05T22:53:00","FM-15","7",,,,,,,,,,,,,,,,,,,,,"30.08","27","34","0.00",,,,"75","30.08","CLR:00","30.05","10.00","31","000",,"0",,,,,,,,,,,,,,,,,,,,,,,,,,,,,"MET09103/05/24 22:53:02 METAR KBFI 060653Z 00000KT 10SM CLR 01/M03 A3008 RMK AO2 SLP186 T00111028","FM-15","7",,,,,,,,,,,,,,,,,,,,,,,,,,,"2007-05-17"
"72793524234","SEATTLE BOEING FIELD, WA US","47.54554","-122.31475","7.6","2024-03-05T23:53:00","FM-15","7",,,,,,,,,,,,,,,,,,,,,"30.09","27","34","0.00",,,,"75","30.09","SCT:04 48","30.06","10.00","31","000",,"0",,,,,,,,,,,,,,,,,,,,,,,,,,,,,"MET10403/05/24 23:53:02 METAR KBFI 060753Z 00000KT 10SM SCT048 01/M03 A3009 RMK AO2 SLP189 T00111028 400780000","FM-15","7",,,,,,,,,,,,,,,,,,,,,,,,,,,"2007-05-17"
"72793524234","SEATTLE BOEING FIELD, WA US","47.54554","-122.31475","7.6","2024-03-05T23:59:00","SOD  ","6",,,,,"39","29.99","2.7","0","-6.1","26","46","32","310","20","0.00","300","12","FG BR",,,,,,,,,,,,,,,,,,,,,,,,,,,,,,,,,,,,,,,,,,,,,,,"SOD73024 HR PRECIPITATION (IN):0.00  24 HR MAX TEMP (F):46 24 HR MAX TEMP TIME (LST):1436 24 HR MIN TEMP (F):32 24 HR MIN TEMP TIME (LST):0101 AVERAGE STATION PRESSURE:29.995 MINIMUM SEA LEVEL PRESSURE:29.95 TIME OF OCCURRENCE:0029 PEAK WIND SPEED (MPH):20  PEAK WIND DIR (DEG):310 PEAK WIND TIME (LST):1553  FASTEST 2MIN SPEED (MPH):12 FASTEST 2MIN DIR (DEG):300 FASTEST 2MIN TIME (LST):1623 AVERAGE WIND SPEED (MPH):2.7  24 HR AVG TEMP (F):39 HEATING DEGREE DAYS:26  COOLING DEGREE DAYS:0   LATEST DAY MAX TEMP (0700-1900 LST):46  LATEST NIGHT MIN TEMP(1900-0800 LST):32 HOURLY INCREMENTAL PRECIPITATION VALUES (IN):.00 0.00 0.00 0.00 0.00 0.00 0.00 0.00 0.00 0.00 0.00 0.00 0.00 0.00 0.00 0.00 0.00 0.00 0.00 0.00 0.00 0.00 0.00 0.00","SOD  ","6",,,,,,,,,,,,,,,,,,,,,,,,,"0640","1802","2007-05-17"
"72793524234","SEATTLE BOEING FIELD, WA US","47.54554","-122.31475","7.6","2024-03-06T00:53:00","FM-15","7",,,,,,,,,,,,,,,,,,,,,"30.10","27","32","0.00",,"-0.02","3","82","30.10","BKN:07 50","30.07","10.00","30","000",,"0",,,,,,,,,,,,,,,,,,,,,,,,,,,,,"MET10003/06/24 00:53:01 METAR KBFI 060853Z 00000KT 10SM BKN050 00/M03 A3010 RMK AO2 SLP192 T00001028 53007","FM-15","7",,,,,,,,,,,,,,,,,,,,,,,,,,,"2007-05-17"
"72793524234","SEATTLE BOEING FIELD, WA US","47.54554","-122.31475","7.6","2024-03-06T01:53:00","FM-15","7",,,,,,,,,,,,,,,,,,,,,"30.10","26","29","0.00",,,,"89","30.10","CLR:00","30.07","10.00","28","000",,"0",,,,,,,,,,,,,,,,,,,,,,,,,,,,,"MET09203/06/24 01:53:02 METAR KBFI 060953Z 00000KT 10SM CLR M02/M03 A3010 RMK AO2 SLP192 T10171033","FM-15","7",,,,,,,,,,,,,,,,,,,,,,,,,,,"2007-05-17"
"72793524234","SEATTLE BOEING FIELD, WA US","47.54554","-122.31475","7.6","2024-03-06T02:53:00","FM-15","7",,,,,,,,,,,,,,,,,,,,,"30.10","26","30","0.00",,,,"85","30.09","FEW:02 55","30.07","10.00","29","000",,"0",,,,,,,,,,,,,,,,,,,,,,,,,,,,,"MET09503/06/24 02:53:02 METAR KBFI 061053Z 00000KT 10SM FEW055 M01/M03 A3010 RMK AO2 SLP191 T10111033","FM-15","7",,,,,,,,,,,,,,,,,,,,,,,,,,,"2007-05-17"
"72793524234","SEATTLE BOEING FIELD, WA US","47.54554","-122.31475","7.6","2024-03-06T03:53:00","FM-15","7",,,,,,,,,,,,,,,,,,,,,"30.09","26","29","0.00",,"0.01","8","89","30.09","SCT:04 60","30.06","10.00","28","140",,"3",,,,,,,,,,,,,,,,,,,,,,,,,,,,,"MET11303/06/24 03:53:02 METAR KBFI 061153Z 14003KT 10SM SCT060 M02/M03 A3009 RMK AO2 SLP189 T10171033 10017 21022 58003","FM-15","7",,,,,,,,,,,,,,,,,,,,,,,,,,,"2007-05-17"
"72793524234","SEATTLE BOEING FIELD, WA US","47.54554","-122.31475","7.6","2024-03-06T04:53:00","FM-15","7",,,,,,,,,,,,,,,,,,,,,"30.10","25","28","0.00",,,,"88","30.09","BKN:07 60","30.07","10.00","27","150",,"6",,,,,,,,,,,,,,,,,,,,,,,,,,,,,"MET09503/06/24 04:53:02 METAR KBFI 061253Z 15005KT 10SM BKN060 M02/M04 A3010 RMK AO2 SLP191 T10221039","FM-15","7",,,,,,,,,,,,,,,,,,,,,,,,,,,"2007-05-17"
"72793524234","SEATTLE BOEING FIELD, WA US","47.54554","-122.31475","7.6","2024-03-06T05:51:00","FM-16","6",,,,,,,,,,,,,,,,,,,,,"30.10","27","28",,,,,"93",,"FEW:02 3 BKN:07 60","30.07","10.00","28","150",,"5",,,,,,,,,,,,,,,,,,,,,,,,,,,,,"MET09503/06/24 05:51:02 SPECI KBFI 061351Z 15004KT 10SM FEW003 BKN060 M02/M03 A3010 RMK AO2 FIBI (SN)","FM-16","6",,,,,,,,,,,,,,,,,,,,,,,,,,,"2007-05-17"
"72793524234","SEATTLE BOEING FIELD, WA US","47.54554","-122.31475","7.6","2024-03-06T05:53:00","FM-15","7",,,,,,,,,,,,,,,,,,,,,"30.10","25","28","0.00",,,,"88","30.10","FEW:02 30 BKN:07 60","30.07","10.00","27","140",,"5",,,,,,,,,,,,,,,,,,,,,,,,,,,,,"MET10203/06/24 05:53:02 METAR KBFI 061353Z 14004KT 10SM FEW030 BKN060 M02/M04 A3010 RMK AO2 SLP192 T10221039","FM-15","7",,,,,,,,,,,,,,,,,,,,,,,,,,,"2007-05-17"
"72793524234","SEATTLE BOEING FIELD, WA US","47.54554","-122.31475","7.6","2024-03-06T06:53:00","FM-15","7",,,,,,,,,,,,,,,,,,,,,"30.11","26","28","0.00",,"-0.01","1","92","30.10","BKN:07 60","30.08","10.00","27","160",,"5",,,,,,,,,,,,,,,,,,,,,,,,,,,,,"MET10103/06/24 06:53:02 METAR KBFI 061453Z 16004KT 10SM BKN060 M02/M03 A3011 RMK AO2 SLP194 T10221033 51005","FM-15","7",,,,,,,,,,,,,,,,,,,,,,,,,,,"2007-05-17"
"72793524234","SEATTLE BOEING FIELD, WA US","47.54554","-122.31475","7.6","2024-03-06T07:53:00","FM-15","7",,,,,,,,,,,,,,,,,,,,,"30.12","27","31","0.00",,,,"85","30.11","BKN:07 65","30.09","10.00","30","150",,"7",,,,,,,,,,,,,,,,,,,,,,,,,,,,,"MET09503/06/24 07:53:02 METAR KBFI 061553Z 15006KT 10SM BKN065 M01/M03 A3012 RMK AO2 SLP198 T10061028","FM-15","7",,,,,,,,,,,,,,,,,,,,,,,,,,,"2007-05-17"
"72793524234","SEATTLE BOEING FIELD, WA US","47.54554","-122.31475","7.6","2024-03-06T08:53:00","FM-15","7",,,,,,,,,,,,,,,,,,,,,"30.12","27","34","0.00",,,,"75","30.12","BKN:07 65","30.09","10.00","31","140",,"9",,,,,,,,,,,,,,,,,,,,,,,,,,,,,"MET09403/06/24 08:53:02 METAR KBFI 061653Z 14008KT 10SM BKN065 01/M03 A3012 RMK AO2 SLP199 T00111028","FM-15","7",,,,,,,,,,,,,,,,,,,,,,,,,,,"2007-05-17"
"72793524234","SEATTLE BOEING FIELD, WA US","47.54554","-122.31475","7.6","2024-03-06T09:53:00","FM-15","7",,,,,,,,,,,,,,,,,,,,,"30.12","26","37","0.00",,"-0.02","1","65","30.12","BKN:07 65","30.09","10.00","33","130",,"3",,,,,,,,,,,,,,,,,,,,,,,,,,,,,"MET11203/06/24 09:53:02 METAR KBFI 061753Z 13003KT 10SM BKN065 03/M03 A3012 RMK AO2 SLP199 T00281033 10028 21028 51006","FM-15","7",,,,,,,,,,,,,,,,,,,,,,,,,,,"2007-05-17"
"72793524234","SEATTLE BOEING FIELD, WA US","47.54554","-122.31475","7.6","2024-03-06T10:53:00","FM-15","7",,,,,,,,,,,,,,,,,,,,,"30.12","26","40","0.00",,,,"58","30.11","OVC:08 65","30.09","10.00","35","000",,"0",,,,,,,,,,,,,,,,,,,,,,,,,,,,,"MET09403/06/24 10:53:02 METAR KBFI 061853Z 00000KT 10SM OVC065 04/M03 A3012 RMK AO2 SLP197 T00441033","FM-15","7",,,,,,,,,,,,,,,,,,,,,,,,,,,"2007-05-17"
"72793524234","SEATTLE BOEING FIELD, WA US","47.54554","-122.31475","7.6","2024-03-06T11:53:00","FM-15","7",,,,,,,,,,,,,,,,,,,,,"30.11","28","42","0.00",,,,"58","30.11","FEW:02 30 BKN:07 60","30.08","10.00","36","VRB",,"5",,,,,,,,,,,,,,,,,,,,,,,,,,,,,"MET10103/06/24 11:53:02 METAR KBFI 061953Z VRB04KT 10SM FEW030 BKN060 06/M02 A3011 RMK AO2 SLP196 T00561022","FM-15","7",,,,,,,,,,,,,,,,,,,,,,,,,,,"2007-05-17"
"72793524234","SEATTLE BOEING FIELD, WA US","47.54554","-122.31475","7.6","2024-03-06T12:53:00","FM-15","7",,,,,,,,,,,,,,,,,,,,,"30.11","30","44","0.00",,"0.01","6","58","30.10","SCT:04 40 BKN:07 70","30.08","10.00","38","310",,"6",,,,,,,,,,,,,,,,,,,,,,,,,,,,,"MET10703/06/24 12:53:02 METAR KBFI 062053Z 31005KT 10SM SCT040 BKN070 07/M01 A3011 RMK AO2 SLP194 T00671011 56005","FM-15","7",,,,,,,,,,,,,,,,,,,,,,,,,,,"2007-05-17"
"72793524234","SEATTLE BOEING FIELD, WA US","47.54554","-122.31475","7.6","2024-03-06T13:53:00","FM-15","6",,,,,,,,,,,,,,,,,,,,,"30.10","27","43","0.00",,,,"53","30.10","SCT:04 25 OVC:08 70","30.07","10.00","37","VRB",,"3",,,,,,,,,,,,,,,,,,,,,,,,,,,,,"MET10103/06/24 13:53:02 METAR KBFI 062153Z VRB03KT 10SM SCT025 OVC070 06/M03 A3010 RMK AO2 SLP192 T00611028","FM-15","6",,,,,,,,,,,,,,,,,,,,,,,,,,,"2007-05-17"
"72793524234","SEATTLE BOEING FIELD, WA US","47.54554","-122.31475","7.6","2024-03-06T14:53:00","FM-15","7",,,,,,,,,,,,,,,,,,,,,"30.10","27","43","0.00",,,,"53","30.10","OVC:08 70","30.07","10.00","37","340",,"9",,,,,,,,,,,,,,,,,,,,,,,,,,,,,"MET09403/06/24 14:53:02 METAR KBFI 062253Z 34008KT 10SM OVC070 06/M03 A3010 RMK AO2 SLP193 T00611028","FM-15","7",,,,,,,,,,,,,,,,,,,,,,,,,,,"2007-05-17"
"72793524234","SEATTLE BOEING FIELD, WA US","47.54554","-122.31475","7.6","2024-03-06T15:53:00","FM-15","7",,,,,,,,,,,,,,,,,,,,,"30.10","28","44","0.00",,"0.01","6","53","30.10","BKN:07 70","30.07","10.00","38","VRB",,"3",,,,,,,,,,,,,,,,,,,,,,,,,,,,,"MET11203/06/24 15:53:02 METAR KBFI 062353Z VRB03KT 10SM BKN070 07/M02 A3010 RMK AO2 SLP192 T00671022 10072 20028 56003","FM-15","7",,,,,,,,,,,,,,,,,,,,,,,,,,,"2007-05-17"
"72793524234","SEATTLE BOEING FIELD, WA US","47.54554","-122.31475","7.6","2024-03-06T16:53:00","FM-15","7",,,,,,,,,,,,,,,,,,,,,"30.10","28","43","0.00",,,,"56","30.10","OVC:08 75","30.07","10.00","37","320",,"3",,,,,,,,,,,,,,,,,,,,,,,,,,,,,"MET09403/06/24 16:53:01 METAR KBFI 070053Z 32003KT 10SM OVC075 06/M02 A3010 RMK AO2 SLP193 T00611022","FM-15","7",,,,,,,,,,,,,,,,,,,,,,,,,,,"2007-05-17"
"72793524234","SEATTLE BOEING FIELD, WA US","47.54554","-122.31475","7.6","2024-03-06T17:53:00","FM-15","7",,,,,,,,,,,,,,,,,,,,,"30.11","31","42","0.00",,,,"65","30.11","OVC:08 75","30.08","10.00","37","300",,"7",,,,,,,,,,,,,,,,,,,,,,,,,,,,,"MET09403/06/24 17:53:01 METAR KBFI 070153Z 30006KT 10SM OVC075 06/M01 A3011 RMK AO2 SLP195 T00561006","FM-15","7",,,,,,,,,,,,,,,,,,,,,,,,,,,"2007-05-17"
"72793524234","SEATTLE BOEING FIELD, WA US","47.54554","-122.31475","7.6","2024-03-06T18:53:00","FM-15","7",,,,,,,,,,,,,,,,,,,,,"30.12","28","41","0.00",,"-0.02","3","60","30.11","OVC:08 80","30.09","10.00","36","000",,"0",,,,,,,,,,,,,,,,,,,,,,,,,,,,,"MET10003/06/24 18:53:01 METAR KBFI 070253Z 00000KT 10SM OVC080 05/M02 A3012 RMK AO2 SLP198 T00501022 53006","FM-15","7",,,,,,,,,,,,,,,,,,,,,,,,,,,"2007-05-17"
"72793524234","SEATTLE BOEING FIELD, WA US","47.54554","-122.31475","7.6","2024-03-06T19:53:00","FM-15","7",,,,,,,,,,,,,,,,,,,,,"30.12","29","40","0.00",,,,"65","30.12","OVC:08 80","30.09","10.00","36","000",,"0",,,,,,,,,,,,,,,,,,,,,,,,,,,,,"MET09403/06/24 19:53:02 METAR KBFI 070353Z 00000KT 10SM OVC080 04/M02 A3012 RMK AO2 SLP199 T00441017","FM-15","7",,,,,,,,,,,,,,,,,,,,,,,,,,,"2007-05-17"
"72793524234","SEATTLE BOEING FIELD, WA US","47.54554","-122.31475","7.6","2024-03-06T20:53:00","FM-15","7",,,,,,,,,,,,,,,,,,,,,"30.12","28","40","0.00",,,,"63","30.12","OVC:08 75","30.09","10.00","35","000",,"0",,,,,,,,,,,,,,,,,,,,,,,,,,,,,"MET09403/06/24 20:53:02 METAR KBFI 070453Z 00000KT 10SM OVC075 04/M02 A3012 RMK AO2 SLP200 T00441022","FM-15","7",,,,,,,,,,,,,,,,,,,,,,,,,,,"2007-05-17"
"72793524234","SEATTLE BOEING FIELD, WA US","47.54554","-122.31475","7.6","2024-03-06T21:53:00","FM-15","7",,,,,,,,,,,,,,,,,,,,,"30.13","29","38","0.00",,"-0.02","3","70","30.13","OVC:08 75","30.10","10.00","34","000",,"0",,,,,,,,,,,,,,,,,,,,,,,,,,,,,"MET11203/06/24 21:53:02 METAR KBFI 070553Z 00000KT 10SM OVC075 03/M02 A3013 RMK AO2 SLP204 T00331017 10067 20033 53006","FM-15","7",,,,,,,,,,,,,,,,,,,,,,,,,,,"2007-05-17"
"72793524234","SEATTLE BOEING FIELD, WA US","47.54554","-122.31475","7.6","2024-03-06T22:53:00","FM-15","7",,,,,,,,,,,,,,,,,,,,,"30.14","29","36","0.00",,,,"76","30.14","BKN:07 70","30.11","10.00","33","000",,"0",,,,,,,,,,,,,,,,,,,,,,,,,,,,,"MET09403/06/24 22:53:01 METAR KBFI 070653Z 00000KT 10SM BKN070 02/M02 A3014 RMK AO2 SLP206 T00221017","FM-15","7",,,,,,,,,,,,,,,,,,,,,,,,,,,"2007-05-17"
"72793524234","SEATTLE BOEING FIELD, WA US","47.54554","-122.31475","7.6","2024-03-06T23:53:00","FM-15","7",,,,,,,,,,,,,,,,,,,,,"30.14","28","35","0.00",,,,"76","30.14","BKN:07 70","30.11","10.00","32","000",,"0",,,,,,,,,,,,,,,,,,,,,,,,,,,,,"MET10403/06/24 23:53:01 METAR KBFI 070753Z 00000KT 10SM BKN070 02/M02 A3014 RMK AO2 SLP206 T00171022 400721028","FM-15","7",,,,,,,,,,,,,,,,,,,,,,,,,,,"2007-05-17"
"72793524234","SEATTLE BOEING FIELD, WA US","47.54554","-122.31475","7.6","2024-03-06T23:59:00","SOD  ","6",,,,,"36","30.08","3.1","0","-9.3","29","45","27","300","13","0.00","340","9",,,,,,,,,,,,,,,,,,,,,,,,,,,,,,,,,,,,,,,,,,,,,,,,"SOD73024 HR PRECIPITATION (IN):0.00  24 HR MAX TEMP (F):45 24 HR MAX TEMP TIME (LST):1313 24 HR MIN TEMP (F):27 24 HR MIN TEMP TIME (LST):0545 AVERAGE STATION PRESSURE:30.075 MINIMUM SEA LEVEL PRESSURE:30.09 TIME OF OCCURRENCE:1600 PEAK WIND SPEED (MPH):13  PEAK WIND DIR (DEG):300 PEAK WIND TIME (LST):1508  FASTEST 2MIN SPEED (MPH):9  FASTEST 2MIN DIR (DEG):340 FASTEST 2MIN TIME (LST):1449 AVERAGE WIND SPEED (MPH):3.1  24 HR AVG TEMP (F):36 HEATING DEGREE DAYS:29  COOLING DEGREE DAYS:0   LATEST DAY MAX TEMP (0700-1900 LST):45  LATEST NIGHT MIN TEMP(1900-0800 LST):27 HOURLY INCREMENTAL PRECIPITATION VALUES (IN):.00 0.00 0.00 0.00 0.00 0.00 0.00 0.00 0.00 0.00 0.00 0.00 0.00 0.00 0.00 0.00 0.00 0.00 0.00 0.00 0.00 0.00 0.00 0.00","SOD  ","6",,,,,,,,,,,,,,,,,,,,,,,,,"0639","1803","2007-05-17"
"72793524234","SEATTLE BOEING FIELD, WA US","47.54554","-122.31475","7.6","2024-03-07T00:53:00","FM-15","7",,,,,,,,,,,,,,,,,,,,,"30.15","28","33","0.00",,"-0.01","3","82","30.15","SCT:04 70","30.12","10.00","31","000",,"0",,,,,,,,,,,,,,,,,,,,,,,,,,,,,"MET10503/07/24 00:53:02 METAR KBFI 070853Z 00000KT 10SM SCT070 01/M02 A3015 RMK AO2 SLP209 T00061022 53005 (SN)","FM-15","7",,,,,,,,,,,,,,,,,,,,,,,,,,,"2007-05-17"
"72793524234","SEATTLE BOEING FIELD, WA US","47.54554","-122.31475","7.6","2024-03-07T01:53:00","FM-15","7",,,,,,,,,,,,,,,,,,,,,"30.16","28","33","0.00",,,,"82","30.16","BKN:07 70","30.13","10.00","31","110",,"3",,,,,,,,,,,,,,,,,,,,,,,,,,,,,"MET09903/07/24 01:53:02 METAR KBFI 070953Z 11003KT 10SM BKN070 01/M02 A3016 RMK AO2 SLP214 T00061022 (SN)","FM-15","7",,,,,,,,,,,,,,,,,,,,,,,,,,,"2007-05-17"
"72793524234","SEATTLE BOEING FIELD, WA US","47.54554","-122.31475","7.6","2024-03-07T02:53:00","FM-15","7",,,,,,,,,,,,,,,,,,,,,"30.17","28","31","0.00",,,,"89","30.17","OVC:08 70","30.14","10.00","30","150",,"5",,,,,,,,,,,,,,,,,,,,,,,,,,,,,"MET10003/07/24 02:53:02 METAR KBFI 071053Z 15004KT 10SM OVC070 M01/M02 A3017 RMK AO2 SLP216 T10061022 (SN)","FM-15","7",,,,,,,,,,,,,,,,,,,,,,,,,,,"2007-05-17"
"72793524234","SEATTLE BOEING FIELD, WA US","47.54554","-122.31475","7.6","2024-03-07T03:53:00","FM-15","7",,,,,,,,,,,,,,,,,,,,,"30.18","28","31","0.00",,"-0.03","1","89","30.18","BKN:07 65","30.15","10.00","30","130",,"3",,,,,,,,,,,,,,,,,,,,,,,,,,,,,"MET11803/07/24 03:53:02 METAR KBFI 071153Z 13003KT 10SM BKN065 M01/M02 A3018 RMK AO2 SLP219 T10061022 10033 21017 51010 (SN)","FM-15","7",,,,,,,,,,,,,,,,,,,,,,,,,,,"2007-05-17"
"72793524234","SEATTLE BOEING FIELD, WA US","47.54554","-122.31475","7.6","2024-03-07T04:53:00","FM-15","7",,,,,,,,,,,,,,,,,,,,,"30.19","27","30","0.00",,,,"88","30.19","BKN:07 65","30.16","10.00","29","150",,"5",,,,,,,,,,,,,,,,,,,,,,,,,,,,,"MET10003/07/24 04:53:02 METAR KBFI 071253Z 15004KT 10SM BKN065 M01/M03 A3019 RMK AO2 SLP222 T10111028 (SN)","FM-15","7",,,,,,,,,,,,,,,,,,,,,,,,,,,"2007-05-17"
"72793524234","SEATTLE BOEING FIELD, WA US","47.54554","-122.31475","7.6","2024-03-07T05:53:00","FM-15","7",,,,,,,,,,,,,,,,,,,,,"30.20","26","29","0.00",,,,"89","30.20","CLR:00","30.17","10.00","28","150",,"3",,,,,,,,,,,,,,,,,,,,,,,,,,,,,"MET09703/07/24 05:53:02 METAR KBFI 071353Z 15003KT 10SM CLR M02/M03 A3020 RMK AO2 SLP226 T10171033 (SN)","FM-15","7",,,,,,,,,,,,,,,,,,,,,,,,,,,"2007-05-17"
"72793524234","SEATTLE BOEING FIELD, WA US","47.54554","-122.31475","7.6","2024-03-07T06:53:00","FM-15","7",,,,,,,,,,,,,,,,,,,,,"30.22","26","30","0.00",,"-0.04","3","85","30.21","CLR:00","30.19","10.00","29","130",,"3",,,,,,,,,,,,,,,,,,,,,,,,,,,,,"MET10303/07/24 06:53:02 METAR KBFI 071453Z 13003KT 10SM CLR M01/M03 A3022 RMK AO2 SLP231 T10111033 53012 (TA)","FM-15","7",,,,,,,,,,,,,,,,,,,,,,,,,,,"2007-05-17"
"72793524234","SEATTLE BOEING FIELD, WA US","47.54554","-122.31475","7.6","2024-03-07T07:53:00","FM-15","7",,,,,,,,,,,,,,,,,,,,,"30.23","28","32","0.00",,,,"85","30.23","CLR:00","30.20","10.00","31","150",,"6",,,,,,,,,,,,,,,,,,,,,,,,,,,,,"MET09603/07/24 07:53:02 METAR KBFI 071553Z 15005KT 10SM CLR 00/M02 A3023 RMK AO2 SLP237 T00001022 (TA)","FM-15","7",,,,,,,,,,,,,,,,,,,,,,,,,,,"2007-05-17"
"72793524234","SEATTLE BOEING FIELD, WA US","47.54554","-122.31475","7.6","2024-03-07T08:53:00","FM-15","7",,,,,,,,,,,,,,,,,,,,,"30.23","28","35","0.00",,,,"76","30.23","CLR:00","30.20","10.00","32","150",,"8",,,,,,,,,,,,,,,,,,,,,,,,,,,,,"MET09603/07/24 08:53:02 METAR KBFI 071653Z 15007KT 10SM CLR 02/M02 A3023 RMK AO2 SLP238 T00171022 (LG)","FM-15","7",,,,,,,,,,,,,,,,,,,,,,,,,,,"2007-05-17"
"72793524234","SEATTLE BOEING FIELD, WA US","47.54554","-122.31475","7.6","2024-03-07T09:53:00","FM-15","7",,,,,,,,,,,,,,,,,,,,,"30.24","29","39","0.00",,"-0.02","1","67","30.23","CLR:00","30.21","10.00","35","140",,"5",,,,,,,,,,,,,,,,,,,,,,,,,,,,,"MET11403/07/24 09:53:02 METAR KBFI 071753Z 14004KT 10SM CLR 04/M02 A3024 RMK AO2 SLP238 T00391017 10039 21028 51007 (LG)","FM-15","7",,,,,,,,,,,,,,,,,,,,,,,,,,,"2007-05-17"
"72793524234","SEATTLE BOEING FIELD, WA US","47.54554","-122.31475","7.6","2024-03-07T10:53:00","FM-15","7",,,,,,,,,,,,,,,,,,,,,"30.24","31","42","0.00",,,,"65","30.24","CLR:00","30.21","10.00","37","000",,"0",,,,,,,,,,,,,,,,,,,,,,,,,,,,,"MET09603/07/24 10:53:02 METAR KBFI 071853Z 00000KT 10SM CLR 06/M01 A3024 RMK AO2 SLP241 T00561006 (LG)","FM-15","7",,,,,,,,,,,,,,,,,,,,,,,,,,,"2007-05-17"
"72793524234","SEATTLE BOEING FIELD, WA US","47.54554","-122.31475","7.6","2024-03-07T11:53:00","FM-15","7",,,,,,,,,,,,,,,,,,,,,"30.25","32","44","0.00",,,,"63","30.24","BKN:07 34 BKN:07 49","30.22","10.00","39","000",,"0",,,,,,,,,,,,,,,,,,,,,,,,,,,,,"MET10503/07/24 11:53:02 METAR KBFI 071953Z 00000KT 10SM BKN034 BKN049 07/00 A3025 RMK AO2 SLP242 T00670000 (LG)","FM-15","7",,,,,,,,,,,,,,,,,,,,,,,,,,,"2007-05-17"
"72793524234","SEATTLE BOEING FIELD, WA US","47.54554","-122.31475","7.6","2024-03-07T12:53:00","FM-15","6",,,,,,,,,,,,,,,,,,,,,"30.25","31","44","0.00",,"-0.02","2","60","30.25","BKN:07 43","30.22","10.00","39","000",,"0",,,,,,,,,,,,,,,,,,,,,,,,,,,,,"MET10503/07/24 12:53:02 METAR KBFI 072053Z 00000KT 10SM BKN043 07/M01 A3025 RMK AO2 SLP244 T00671006 52006 (LG)","FM-15","6",,,,,,,,,,,,,,,,,,,,,,,,,,,"2007-05-17"
"72793524234","SEATTLE BOEING FIELD, WA US","47.54554","-122.31475","7.6","2024-03-07T13:53:00","FM-15","7",,,,,,,,,,,,,,,,,,,,,"30.24","29","46","0.00",,,,"51","30.24","SCT:04 40","30.21","10.00","39","000",,"0",,,,,,,,,,,,,,,,,,,,,,,,,,,,,"MET09903/07/24 13:53:02 METAR KBFI 072153Z 00000KT 10SM SCT040 08/M02 A3024 RMK AO2 SLP239 T00781017 (MB)","FM-15","7",,,,,,,,,,,,,,,,,,,,,,,,,,,"2007-05-17"
"72793524234","SEATTLE BOEING FIELD, WA US","47.54554","-122.31475","7.6","2024-03-07T14:53:00","FM-15","7",,,,,,,,,,,,,,,,,,,,,"30.24","27","47","0.00",,,,"46","30.24","SCT:04 40","30.21","10.00","39","000",,"0",,,,,,,,,,,,,,,,,,,,,,,,,,,,,"MET09903/07/24 14:53:02 METAR KBFI 072253Z 00000KT 10SM SCT040 08/M03 A3024 RMK AO2 SLP239 T00831028 (MB)","FM-15","7",,,,,,,,,,,,,,,,,,,,,,,,,,,"2007-05-17"
"72793524234","SEATTLE BOEING FIELD, WA US","47.54554","-122.31475","7.6","2024-03-07T15:53:00","FM-15","7",,,,,,,,,,,,,,,,,,,,,"30.23","27","48","0.00",,"0.02","6","44","30.23","CLR:00","30.20","10.00","39","000",,"0",,,,,,,,,,,,,,,,,,,,,,,,,,,,,"MET11403/07/24 15:53:02 METAR KBFI 072353Z 00000KT 10SM CLR 09/M03 A3023 RMK AO2 SLP237 T00891028 10089 20039 56008 (MB)","FM-15","7",,,,,,,,,,,,,,,,,,,,,,,,,,,"2007-05-17"
"72793524234","SEATTLE BOEING FIELD, WA US","47.54554","-122.31475","7.6","2024-03-07T16:53:00","FM-15","7",,,,,,,,,,,,,,,,,,,,,"30.23","26","47","0.00",,,,"44","30.23","CLR:00","30.20","10.00","39","000",,"0",,,,,,,,,,,,,,,,,,,,,,,,,,,,,"MET09103/07/24 16:53:01 METAR KBFI 080053Z 00000KT 10SM CLR 08/M03 A3023 RMK AO2 SLP236 T00831033","FM-15","7",,,,,,,,,,,,,,,,,,,,,,,,,,,"2007-05-17"
"72793524234","SEATTLE BOEING FIELD, WA US","47.54554","-122.31475","7.6","2024-03-07T17:53:00","FM-15","7",,,,,,,,,,,,,,,,,,,,,"30.23","26","45","0.00",,,,"48","30.22","SCT:04 40","30.20","10.00","37","000",,"0",,,,,,,,,,,,,,,,,,,,,,,,,,,,,"MET09403/07/24 17:53:01 METAR KBFI 080153Z 00000KT 10SM SCT040 07/M03 A3023 RMK AO2 SLP235 T00721033","FM-15","7",,,,,,,,,,,,,,,,,,,,,,,,,,,"2007-05-17"
"72793524234","SEATTLE BOEING FIELD, WA US","47.54554","-122.31475","7.6","2024-03-07T18:53:00","FM-15","7",,,,,,,,,,,,,,,,,,,,,"30.24","28","43","0.00",,"-0.01","3","56","30.24","CLR:00","30.21","10.00","37","000",,"0",,,,,,,,,,,,,,,,,,,,,,,,,,,,,"MET09703/07/24 18:53:01 METAR KBFI 080253Z 00000KT 10SM CLR 06/M02 A3024 RMK AO2 SLP240 T00611022 53003","FM-15","7",,,,,,,,,,,,,,,,,,,,,,,,,,,"2007-05-17"
"72793524234","SEATTLE BOEING FIELD, WA US","47.54554","-122.31475","7.6","2024-03-07T19:53:00","FM-15","7",,,,,,,,,,,,,,,,,,,,,"30.25","28","41","0.00",,,,"60","30.25","CLR:00","30.22","8.00","36","000",,"0",,,,,,,,,,,,,,,,,,,,,,,,,,,,,"MET09003/07/24 19:53:02 METAR KBFI 080353Z 00000KT 8SM CLR 05/M02 A3025 RMK AO2 SLP243 T00501022","FM-15","7",,,,,,,,,,,,,,,,,,,,,,,,,,,"2007-05-17"
"72793524234","SEATTLE BOEING FIELD, WA US","47.54554","-122.31475","7.6","2024-03-07T20:53:00","FM-15","7",,,,,,,,,,,,,,,,,,,,,"30.26","28","38","0.00",,,,"68","30.25","CLR:00","30.23","10.00","34","160",,"3",,,,,,,,,,,,,,,,,,,,,,,,,,,,,"MET09103/07/24 20:53:02 METAR KBFI 080453Z 16003KT 10SM CLR 03/M02 A3026 RMK AO2 SLP245 T00331022","FM-15","7",,,,,,,,,,,,,,,,,,,,,,,,,,,"2007-05-17"
"72793524234","SEATTLE BOEING FIELD, WA US","47.54554","-122.31475","7.6","2024-03-07T21:53:00","FM-15","7",,,,,,,,,,,,,,,,,,,,,"30.25","29","37","0.00",,"-0.01","0","73","30.25","CLR:00","30.22","10.00","34","140",,"7",,,,,,,,,,,,,,,,,,,,,,,,,,,,,"MET10903/07/24 21:53:02 METAR KBFI 080553Z 14006KT 10SM CLR 03/M02 A3025 RMK AO2 SLP243 T00281017 10089 20022 50004","FM-15","7",,,,,,,,,,,,,,,,,,,,,,,,,,,"2007-05-17"
"72793524234","SEATTLE BOEING FIELD, WA US","47.54554","-122.31475","7.6","2024-03-07T22:53:00","FM-15","7",,,,,,,,,,,,,,,,,,,,,"30.26","29","38","0.00",,,,"70","30.25","CLR:00","30.23","10.00","34","140",,"3",,,,,,,,,,,,,,,,,,,,,,,,,,,,,"MET09103/07/24 22:53:02 METAR KBFI 080653Z 14003KT 10SM CLR 03/M02 A3026 RMK AO2 SLP245 T00331017","FM-15","7",,,,,,,,,,,,,,,,,,,,,,,,,,,"2007-05-17"
"72793524234","SEATTLE BOEING FIELD, WA US","47.54554","-122.31475","7.6","2024-03-07T23:53:00","FM-15","7",,,,,,,,,,,,,,,,,,,,,"30.26","30","37","0.00",,,,"76","30.26","FEW:02 110","30.23","10.00","34","160",,"6",,,,,,,,,,,,,,,,,,,,,,,,,,,,,"MET10403/07/24 23:53:02 METAR KBFI 080753Z 16005KT 10SM FEW110 03/M01 A3026 RMK AO2 SLP246 T00281011 400891028","FM-15","7",,,,,,,,,,,,,,,,,,,,,,,,,,,"2007-05-17"
"72793524234","SEATTLE BOEING FIELD, WA US","47.54554","-122.31475","7.6","2024-03-07T23:59:00","SOD  ","6",,,,,"38","30.19","2.5","0","-7.5","27","48","27","170","11","0.00","160","8",,,,,,,,,,,,,,,,,,,,,,,,,,,,,,,,,,,,,,,,,,,,,,,,"SOD73024 HR PRECIPITATION (IN):0.00  24 HR MAX TEMP (F):48 24 HR MAX TEMP TIME (LST):1629 24 HR MIN TEMP (F):27 24 HR MIN TEMP TIME (LST):0550 AVERAGE STATION PRESSURE:30.185 MINIMUM SEA LEVEL PRESSURE:30.14 TIME OF OCCURRENCE:0037 PEAK WIND SPEED (MPH):11  PEAK WIND DIR (DEG):170 PEAK WIND TIME (LST):0952  FASTEST 2MIN SPEED (MPH):8  FASTEST 2MIN DIR (DEG):160 FASTEST 2MIN TIME (LST):2336 AVERAGE WIND SPEED (MPH):2.5  24 HR AVG TEMP (F):38 HEATING DEGREE DAYS:27  COOLING DEGREE DAYS:0   LATEST DAY MAX TEMP (0700-1900 LST):48  LATEST NIGHT MIN TEMP(1900-0800 LST):27 HOURLY INCREMENTAL PRECIPITATION VALUES (IN):.00 0.00 0.00 0.00 0.00 0.00 0.00 0.00 0.00 0.00 0.00 0.00 0.00 0.00 0.00 0.00 0.00 0.00 0.00 0.00 0.00 0.00 0.00 0.00","SOD  ","6",,,,,,,,,,,,,,,,,,,,,,,,,"0637","1805","2007-05-17"
"72793524234","SEATTLE BOEING FIELD, WA US","47.54554","-122.31475","7.6","2024-03-08T00:53:00","FM-15","7",,,,,,,,,,,,,,,,,,,,,"30.27","30","38","0.00",,"-0.01","3","73","30.26","OVC:08 100","30.24","10.00","35","140",,"7",,,,,,,,,,,,,,,,,,,,,,,,,,,,,"MET10503/08/24 00:53:02 METAR KBFI 080853Z 14006KT 10SM OVC100 03/M01 A3027 RMK AO2 SLP248 T00331011 53005 (MM)","FM-15","7",,,,,,,,,,,,,,,,,,,,,,,,,,,"2007-05-17"
"72793524234","SEATTLE BOEING FIELD, WA US","47.54554","-122.31475","7.6","2024-03-08T01:53:00","FM-15","7",,,,,,,,,,,,,,,,,,,,,"30.26","30","39","0.00",,,,"70","30.26","OVC:08 85","30.23","10.00","35","150",,"8",,,,,,,,,,,,,,,,,,,,,,,,,,,,,"MET09903/08/24 01:53:02 METAR KBFI 080953Z 15007KT 10SM OVC085 04/M01 A3026 RMK AO2 SLP247 T00391011 (MM)","FM-15","7",,,,,,,,,,,,,,,,,,,,,,,,,,,"2007-05-17"
"72793524234","SEATTLE BOEING FIELD, WA US","47.54554","-122.31475","7.6","2024-03-08T02:53:00","FM-15","7",,,,,,,,,,,,,,,,,,,,,"30.25","30","40","0.00",,,,"68","30.24","OVC:08 75","30.22","10.00","36","120",,"6",,,,,,,,,,,,,,,,,,,,,,,,,,,,,"MET09903/08/24 02:53:02 METAR KBFI 081053Z 12005KT 10SM OVC075 04/M01 A3025 RMK AO2 SLP242 T00441011 (MM)","FM-15","7",,,,,,,,,,,,,,,,,,,,,,,,,,,"2007-05-17"
"72793524234","SEATTLE BOEING FIELD, WA US","47.54554","-122.31475","7.6","2024-03-08T03:53:00","FM-15","7",,,,,,,,,,,,,,,,,,,,,"30.24","30","39","0.00",,"0.03","8","70","30.24","OVC:08 90","30.21","10.00","35","150",,"7",,,,,,,,,,,,,,,,,,,,,,,,,,,,,"MET11703/08/24 03:53:02 METAR KBFI 081153Z 15006KT 10SM OVC090 04/M01 A3024 RMK AO2 SLP239 T00391011 10044 20022 58009 (MM)","FM-15","7",,,,,,,,,,,,,,,,,,,,,,,,,,,"2007-05-17"
"72793524234","SEATTLE BOEING FIELD, WA US","47.54554","-122.31475","7.6","2024-03-08T04:53:00","FM-15","7",,,,,,,,,,,,,,,,,,,,,"30.23","31","40","0.00",,,,"70","30.23","OVC:08 75","30.20","10.00","36","150",,"6",,,,,,,,,,,,,,,,,,,,,,,,,,,,,"MET09903/08/24 04:53:02 METAR KBFI 081253Z 15005KT 10SM OVC075 04/M01 A3023 RMK AO2 SLP237 T00441006 (MM)","FM-15","7",,,,,,,,,,,,,,,,,,,,,,,,,,,"2007-05-17"
"72793524234","SEATTLE BOEING FIELD, WA US","47.54554","-122.31475","7.6","2024-03-08T05:53:00","FM-15","7",,,,,,,,,,,,,,,,,,,,,"30.23","31","40","0.00",,,,"70","30.23","OVC:08 65","30.20","10.00","36","000",,"0",,,,,,,,,,,,,,,,,,,,,,,,,,,,,"MET09903/08/24 05:53:02 METAR KBFI 081353Z 00000KT 10SM OVC065 04/M01 A3023 RMK AO2 SLP237 T00441006 (SN)","FM-15","7",,,,,,,,,,,,,,,,,,,,,,,,,,,"2007-05-17"
"72793524234","SEATTLE BOEING FIELD, WA US","47.54554","-122.31475","7.6","2024-03-08T06:53:00","FM-15","7",,,,,,,,,,,,,,,,,,,,,"30.23","32","39","0.00",,"0.01","5","76","30.23","OVC:08 85","30.20","10.00","36","150",,"3",,,,,,,,,,,,,,,,,,,,,,,,,,,,,"MET10403/08/24 06:53:02 METAR KBFI 081453Z 15003KT 10SM OVC085 04/00 A3023 RMK AO2 SLP237 T00390000 55002 (SN)","FM-15","7",,,,,,,,,,,,,,,,,,,,,,,,,,,"2007-05-17"
"72793524234","SEATTLE BOEING FIELD, WA US","47.54554","-122.31475","7.6","2024-03-08T07:53:00","FM-15","7",,,,,,,,,,,,,,,,,,,,,"30.24","31","42","0.00",,,,"65","30.24","OVC:08 75","30.21","10.00","37","000",,"0",,,,,,,,,,,,,,,,,,,,,,,,,,,,,"MET09903/08/24 07:53:02 METAR KBFI 081553Z 00000KT 10SM OVC075 06/M01 A3024 RMK AO2 SLP239 T00561006 (SN)","FM-15","7",,,,,,,,,,,,,,,,,,,,,,,,,,,"2007-05-17"
"72793524234","SEATTLE BOEING FIELD, WA US","47.54554","-122.31475","7.6","2024-03-08T08:53:00","FM-15","7",,,,,,,,,,,,,,,,,,,,,"30.22","33","43","0.00",,,,"68","30.22","OVC:08 70","30.19","10.00","39","000",,"0",,,,,,,,,,,,,,,,,,,,,,,,,,,,,"MET09803/08/24 08:53:02 METAR KBFI 081653Z 00000KT 10SM OVC070 06/01 A3022 RMK AO2 SLP234 T00610006 (SN)","FM-15","7",,,,,,,,,,,,,,,,,,,,,,,,,,,"2007-05-17"
"72793524234","SEATTLE BOEING FIELD, WA US","47.54554","-122.31475","7.6","2024-03-08T09:53:00","FM-15","7",,,,,,,,,,,,,,,,,,,,,"30.21","35","46","0.00",,"0.02","8","66","30.21","OVC:08 60","30.18","10.00","41","160",,"3",,,,,,,,,,,,,,,,,,,,,,,,,,,,,"MET11803/08/24 09:53:02 METAR KBFI 081753Z 16003KT 10SM OVC060 08/02 A3021 RMK AO2 SLP229 T00780017 10078 20039 58008 $ (SN)","FM-15","7",,,,,,,,,,,,,,,,,,,,,,,,,,,"2007-05-17"
"72793524234","SEATTLE BOEING FIELD, WA US","47.54554","-122.31475","7.6","2024-03-08T10:53:00","FM-15","7",,,,,,,,,,,,,,,,,,,,,"30.19","33","50","0.00",,,,"52","30.19","FEW:02 55 BKN:07 75","30.16","10.00","43","190",,"3",,,,,,,,,,,,,,,,,,,,,,,,,,,,,"MET10503/08/24 10:53:02 METAR KBFI 081853Z 19003KT 10SM FEW055 BKN075 10/01 A3019 RMK AO2 SLP223 T01000006 (DW)","FM-15","7",,,,,,,,,,,,,,,,,,,,,,,,,,,"2007-05-17"
"72793524234","SEATTLE BOEING FIELD, WA US","47.54554","-122.31475","7.6","2024-03-08T11:53:00","FM-15","7",,,,,,,,,,,,,,,,,,,,,"30.17","35","51","0.00",,,,"54","30.17","OVC:08 70","30.14","10.00","44","000",,"0",,,,,,,,,,,,,,,,,,,,,,,,,,,,,"MET09803/08/24 11:53:02 METAR KBFI 081953Z 00000KT 10SM OVC070 11/02 A3017 RMK AO2 SLP216 T01060017 (DW)","FM-15","7",,,,,,,,,,,,,,,,,,,,,,,,,,,"2007-05-17"
"72793524234","SEATTLE BOEING FIELD, WA US","47.54554","-122.31475","7.6","2024-03-08T12:53:00","FM-15","7",,,,,,,,,,,,,,,,,,,,,"30.14","33","52","0.00",,"0.06","8","49","30.14","BKN:07 120","30.11","10.00","44","280",,"6",,,,,,,,,,,,,,,,,,,,,,,,,,,,,"MET10403/08/24 12:53:02 METAR KBFI 082053Z 28005KT 10SM BKN120 11/01 A3014 RMK AO2 SLP207 T01110006 58022 (DW)","FM-15","7",,,,,,,,,,,,,,,,,,,,,,,,,,,"2007-05-17"
"72793524234","SEATTLE BOEING FIELD, WA US","47.54554","-122.31475","7.6","2024-03-08T13:53:00","FM-15","7",,,,,,,,,,,,,,,,,,,,,"30.10","33","53","0.00",,,,"47","30.10","BKN:07 80","30.07","10.00","44","310",,"3",,,,,,,,,,,,,,,,,,,,,,,,,,,,,"MET09803/08/24 13:53:02 METAR KBFI 082153Z 31003KT 10SM BKN080 12/01 A3010 RMK AO2 SLP192 T01170006 (DW)","FM-15","7",,,,,,,,,,,,,,,,,,,,,,,,,,,"2007-05-17"
"72793524234","SEATTLE BOEING FIELD, WA US","47.54554","-122.31475","7.6","2024-03-08T14:53:00","FM-15","7",,,,,,,,,,,,,,,,,,,,,"30.06","34","55","0.00",,,,"45","30.06","SCT:04 110","30.03","10.00","45","280",,"3",,,,,,,,,,,,,,,,,,,,,,,,,,,,,"MET09803/08/24 14:53:02 METAR KBFI 082253Z 28003KT 10SM SCT110 13/01 A3006 RMK AO2 SLP180 T01280011 (DW)","FM-15","7",,,,,,,,,,,,,,,,,,,,,,,,,,,"2007-05-17"
"72793524234","SEATTLE BOEING FIELD, WA US","47.54554","-122.31475","7.6","2024-03-08T15:53:00","FM-15","7",,,,,,,,,,,,,,,,,,,,,"30.02","34","55","0.00",,"0.12","6","45","30.02","SCT:04 110","29.99","10.00","45","300",,"3",,,,,,,,,,,,,,,,,,,,,,,,,,,,,"MET11603/08/24 15:53:02 METAR KBFI 082353Z 30003KT 10SM SCT110 13/01 A3002 RMK AO2 SLP166 T01280011 10128 20000 56041 (DW)","FM-15","7",,,,,,,,,,,,,,,,,,,,,,,,,,,"2007-05-17"
"72793524234","SEATTLE BOEING FIELD, WA US","47.54554","-122.31475","7.6","2024-03-08T16:53:00","FM-15","7",,,,,,,,,,,,,,,,,,,,,"29.99","34","53","0.00",,,,"48","29.99","OVC:08 100","29.96","10.00","44","310",,"3",,,,,,,,,,,,,,,,,,,,,,,,,,,,,"MET09303/08/24 16:53:01 METAR KBFI 090053Z 31003KT 10SM OVC100 12/01 A2999 RMK AO2 SLP156 T01170011","FM-15","7",,,,,,,,,,,,,,,,,,,,,,,,,,,"2007-05-17"
"72793524234","SEATTLE BOEING FIELD, WA US","47.54554","-122.31475","7.6","2024-03-08T17:53:00","FM-15","7",,,,,,,,,,,,,,,,,,,,,"29.98","33","53","0.00",,,,"47","29.98","BKN:07 100","29.95","10.00","44","000",,"0",,,,,,,,,,,,,,,,,,,,,,,,,,,,,"MET09303/08/24 17:53:01 METAR KBFI 090153Z 00000KT 10SM BKN100 12/01 A2998 RMK AO2 SLP153 T01170006","FM-15","7",,,,,,,,,,,,,,,,,,,,,,,,,,,"2007-05-17"
"72793524234","SEATTLE BOEING FIELD, WA US","47.54554","-122.31475","7.6","2024-03-08T18:53:00","FM-15","7",,,,,,,,,,,,,,,,,,,,,"29.97","35","50","0.00",,"0.06","6","57","29.96","BKN:07 80","29.94","10.00","43","000",,"0",,,,,,,,,,,,,,,,,,,,,,,,,,,,,"MET09903/08/24 18:53:01 METAR KBFI 090253Z 00000KT 10SM BKN080 10/02 A2997 RMK AO2 SLP147 T01000017 56019","FM-15","7",,,,,,,,,,,,,,,,,,,,,,,,,,,"2007-05-17"
"72793524234","SEATTLE BOEING FIELD, WA US","47.54554","-122.31475","7.6","2024-03-08T19:53:00","FM-15","7",,,,,,,,,,,,,,,,,,,,,"29.95","35","48","0.00",,,,"61","29.95","BKN:07 80","29.92","10.00","42","000",,"0",,,,,,,,,,,,,,,,,,,,,,,,,,,,,"MET09303/08/24 19:53:02 METAR KBFI 090353Z 00000KT 10SM BKN080 09/02 A2995 RMK AO2 SLP142 T00890017","FM-15","7",,,,,,,,,,,,,,,,,,,,,,,,,,,"2007-05-17"
"72793524234","SEATTLE BOEING FIELD, WA US","47.54554","-122.31475","7.6","2024-03-08T20:53:00","FM-15","7",,,,,,,,,,,,,,,,,,,,,"29.94","35","46","0.00",,,,"66","29.94","CLR:00","29.91","10.00","41","000",,"0",,,,,,,,,,,,,,,,,,,,,,,,,,,,,"MET09003/08/24 20:53:02 METAR KBFI 090453Z 00000KT 10SM CLR 08/02 A2994 RMK AO2 SLP140 T00780017","FM-15","7",,,,,,,,,,,,,,,,,,,,,,,,,,,"2007-05-17"
"72793524234","SEATTLE BOEING FIELD, WA US","47.54554","-122.31475","7.6","2024-03-08T21:53:00","FM-15","7",,,,,,,,,,,,,,,,,,,,,"29.94","35","45","0.00",,"0.03","6","68","29.93","CLR:00","29.91","10.00","41","140",,"3",,,,,,,,,,,,,,,,,,,,,,,,,,,,,"MET10803/08/24 21:53:02 METAR KBFI 090553Z 14003KT 10SM CLR 07/02 A2994 RMK AO2 SLP137 T00720017 10128 20061 56010","FM-15","7",,,,,,,,,,,,,,,,,,,,,,,,,,,"2007-05-17"
"72793524234","SEATTLE BOEING FIELD, WA US","47.54554","-122.31475","7.6","2024-03-08T22:53:00","FM-15","7",,,,,,,,,,,,,,,,,,,,,"29.92","35","45","0.00",,,,"68","29.92","CLR:00","29.89","10.00","41","140",,"6",,,,,,,,,,,,,,,,,,,,,,,,,,,,,"MET09003/08/24 22:53:02 METAR KBFI 090653Z 14005KT 10SM CLR 07/02 A2992 RMK AO2 SLP132 T00720017","FM-15","7",,,,,,,,,,,,,,,,,,,,,,,,,,,"2007-05-17"
"72793524234","SEATTLE BOEING FIELD, WA US","47.54554","-122.31475","7.6","2024-03-08T23:53:00","FM-15","7",,,,,,,,,,,,,,,,,,,,,"29.89","35","45","0.00",,,,"68","29.88","CLR:00","29.86","10.00","41","150",,"5",,,,,,,,,,,,,,,,,,,,,,,,,,,,,"MET10003/08/24 23:53:02 METAR KBFI 090753Z 15004KT 10SM CLR 07/02 A2989 RMK AO2 SLP120 T00720017 401280000","FM-15","7",,,,,,,,,,,,,,,,,,,,,,,,,,,"2007-05-17"
"72793524234","SEATTLE BOEING FIELD, WA US","47.54554","-122.31475","7.6","2024-03-08T23:59:00","SOD  ","6",,,,,"44","30.06","3.2","0s","-1.6s","21s","55","32","190","14","0.00","170","9",,,,,,,,,,,,,,,,,,,,,,,,,,,,,,,,,,,,,,,,,,,,,,,,"SOD73024 HR PRECIPITATION (IN):0.00  24 HR MAX TEMP (F):55 24 HR MAX TEMP TIME (LST):1554 24 HR MIN TEMP (F):32 24 HR MIN TEMP TIME (LST):1028 AVERAGE STATION PRESSURE:30.065 MINIMUM SEA LEVEL PRESSURE:29.88 TIME OF OCCURRENCE:2359 PEAK WIND SPEED (MPH):14  PEAK WIND DIR (DEG):190 PEAK WIND TIME (LST):0442  FASTEST 2MIN SPEED (MPH):9  FASTEST 2MIN DIR (DEG):170 FASTEST 2MIN TIME (LST):0443 AVERAGE WIND SPEED (MPH):3.2  24 HR AVG TEMP (F):44 HEATING DEGREE DAYS:21  COOLING DEGREE DAYS:0   LATEST DAY MAX TEMP (0700-1900 LST):55  LATEST NIGHT MIN TEMP(1900-0800 LST):36 HOURLY INCREMENTAL PRECIPITATION VALUES (IN):.00 0.00 0.00 0.00 0.00 0.00 0.00 0.00 0.00 0.00 0.00 0.00 0.00 0.00 0.00 0.00 0.00 0.00 0.00 0.00 0.00 0.00 0.00 0.00","SOD  ","6",,,,,,,,,,,,,,,,,,,,,,,,,"0635","1806","2007-05-17"
"72793524234","SEATTLE BOEING FIELD, WA US","47.54554","-122.31475","7.6","2024-03-09T00:53:00","FM-15","7",,,,,,,,,,,,,,,,,,,,,"29.86","35","44","0.00",,"0.08","8","71","29.86","CLR:00","29.83","10.00","40","000",,"0",,,,,,,,,,,,,,,,,,,,,,,,,,,,,"MET10103/09/24 00:53:02 METAR KBFI 090853Z 00000KT 10SM CLR 07/02 A2986 RMK AO2 SLP111 T00670017 58026 (CT)","FM-15","7",,,,,,,,,,,,,,,,,,,,,,,,,,,"2007-05-17"
"72793524234","SEATTLE BOEING FIELD, WA US","47.54554","-122.31475","7.6","2024-03-09T01:53:00","FM-15","7",,,,,,,,,,,,,,,,,,,,,"29.85","35","45","0.00",,,,"68","29.84","CLR:00","29.82","10.00","41","000",,"0",,,,,,,,,,,,,,,,,,,,,,,,,,,,,"MET09503/09/24 01:53:02 METAR KBFI 090953Z 00000KT 10SM CLR 07/02 A2985 RMK AO2 SLP106 T00720017 (CT)","FM-15","7",,,,,,,,,,,,,,,,,,,,,,,,,,,"2007-05-17"
"72793524234","SEATTLE BOEING FIELD, WA US","47.54554","-122.31475","7.6","2024-03-09T02:53:00","FM-15","7",,,,,,,,,,,,,,,,,,,,,"29.81","35","44","0.00",,,,"71","29.81","CLR:00","29.78","10.00","40","000",,"0",,,,,,,,,,,,,,,,,,,,,,,,,,,,,"MET09503/09/24 02:53:02 METAR KBFI 091053Z 00000KT 10SM CLR 07/02 A2981 RMK AO2 SLP095 T00670017 (LG)","FM-15","7",,,,,,,,,,,,,,,,,,,,,,,,,,,"2007-05-17"
"72793524234","SEATTLE BOEING FIELD, WA US","47.54554","-122.31475","7.6","2024-03-09T03:53:00","FM-15","7",,,,,,,,,,,,,,,,,,,,,"29.80","35","43","0.00",,"0.06","8","74","29.79","CLR:00","29.77","10.00","40","000",,"0",,,,,,,,,,,,,,,,,,,,,,,,,,,,,"MET11303/09/24 03:53:02 METAR KBFI 091153Z 00000KT 10SM CLR 06/02 A2980 RMK AO2 SLP089 T00610017 10078 20056 58021 (LG)","FM-15","7",,,,,,,,,,,,,,,,,,,,,,,,,,,"2007-05-17"
"72793524234","SEATTLE BOEING FIELD, WA US","47.54554","-122.31475","7.6","2024-03-09T04:53:00","FM-15","7",,,,,,,,,,,,,,,,,,,,,"29.77","35","44","0.00",,,,"71","29.77","BKN:07 100 BKN:07 120","29.74","10.00","40","000",,"0",,,,,,,,,,,,,,,,,,,,,,,,,,,,,"MET10503/09/24 04:53:02 METAR KBFI 091253Z 00000KT 10SM BKN100 BKN120 07/02 A2977 RMK AO2 SLP081 T00670017 (LG)","FM-15","7",,,,,,,,,,,,,,,,,,,,,,,,,,,"2007-05-17"
"72793524234","SEATTLE BOEING FIELD, WA US","47.54554","-122.31475","7.6","2024-03-09T05:53:00","FM-15","7",,,,,,,,,,,,,,,,,,,,,"29.76","35","44","0.00",,,,"71","29.76","FEW:02 100","29.73","10.00","40","140",,"6",,,,,,,,,,,,,,,,,,,,,,,,,,,,,"MET09803/09/24 05:53:02 METAR KBFI 091353Z 14005KT 10SM FEW100 07/02 A2976 RMK AO2 SLP079 T00670017 (LG)","FM-15","7",,,,,,,,,,,,,,,,,,,,,,,,,,,"2007-05-17"
"72793524234","SEATTLE BOEING FIELD, WA US","47.54554","-122.31475","7.6","2024-03-09T06:53:00","FM-15","7",,,,,,,,,,,,,,,,,,,,,"29.75","36","44","0.00",,"0.04","6","73","29.75","BKN:07 85 OVC:08 120","29.72","10.00","40","140",,"5",,,,,,,,,,,,,,,,,,,,,,,,,,,,,"MET11103/09/24 06:53:02 METAR KBFI 091453Z 14004KT 10SM BKN085 OVC120 07/02 A2975 RMK AO2 SLP074 T00670022 56015 (LG)","FM-15","7",,,,,,,,,,,,,,,,,,,,,,,,,,,"2007-05-17"
"72793524234","SEATTLE BOEING FIELD, WA US","47.54554","-122.31475","7.6","2024-03-09T07:53:00","FM-15","7",,,,,,,,,,,,,,,,,,,,,"29.75","34","47","0.00",,,,"61","29.75","OVC:08 80","29.72","10.00","41","120",,"6",,,,,,,,,,,,,,,,,,,,,,,,,,,,,"MET09803/09/24 07:53:02 METAR KBFI 091553Z 12005KT 10SM OVC080 08/01 A2975 RMK AO2 SLP074 T00830011 (LG)","FM-15","7",,,,,,,,,,,,,,,,,,,,,,,,,,,"2007-05-17"
"72793524234","SEATTLE BOEING FIELD, WA US","47.54554","-122.31475","7.6","2024-03-09T08:53:00","FM-15","7",,,,,,,,,,,,,,,,,,,,,"29.75","36","47","0.00",,,,"66","29.75","BKN:07 60 OVC:08 80","29.72","10.00","42","150",,"11",,,,,,,,,,,,,,,,,,,,,,,,,,,,,"MET10503/09/24 08:53:02 METAR KBFI 091653Z 15010KT 10SM BKN060 OVC080 08/02 A2975 RMK AO2 SLP074 T00830022 (LG)","FM-15","7",,,,,,,,,,,,,,,,,,,,,,,,,,,"2007-05-17"
"72793524234","SEATTLE BOEING FIELD, WA US","47.54554","-122.31475","7.6","2024-03-09T09:53:00","FM-15","7",,,,,,,,,,,,,,,,,,,,,"29.76","37","51","T",,"0.00","3","59","29.75","BKN:07 55 OVC:08 75","29.73","10.00","45","180",,"11",,,,,,,,,,,,,,,,,,,,,,,,,,,,,"MET14403/09/24 09:53:02 METAR KBFI 091753Z 18010KT 10SM BKN055 OVC075 11/03 A2976 RMK AO2 RAB01E20 SLP076 P0000 60000 T01060028 10106 20050 53001 (LG)","FM-15","7",,,,,,,,,,,,,,,,,,,,,,,,,,,"2007-05-17"
"72793524234","SEATTLE BOEING FIELD, WA US","47.54554","-122.31475","7.6","2024-03-09T10:53:00","FM-15","7",,,,,,,,,,,,,,,,,,,,,"29.76","38","54","0.00",,,,"55","29.76","SCT:04 70 OVC:08 85","29.73","10.00","46","200","39","21",,,,,,,,,,,,,,,,,,,,,,,,,,,,,"MET12603/09/24 10:53:02 METAR KBFI 091853Z 20018G34KT 10SM SCT070 OVC085 12/03 A2976 RMK AO2 PK WND 21034/1853 SLP077 T01220033 (IV)","FM-15","7",,,,,,,,,,,,,,,,,,,,,,,,,,,"2007-05-17"
"72793524234","SEATTLE BOEING FIELD, WA US","47.54554","-122.31475","7.6","2024-03-09T11:51:00","FM-16","6",,,,,,,,,,,,,,,,,,,,,"29.77","39","52",,"-RA:02 |RA |RA",,,"62",,"BKN:07 28 OVC:08 55","29.74","10.00","46","220","29","13",,,,,,,,,,,,,,,,,,,,,,,,,,,,,"MET13003/09/24 11:51:02 SPECI KBFI 091951Z 22011G25KT 10SM -RA BKN028 OVC055 11/04 A2977 RMK AO2 PK WND 18031/1858 RAB13 P0000 FIBI (IV)","FM-16","6",,,,,,,,,,,,,,,,,,,,,,,,,,,"2007-05-17"
"72793524234","SEATTLE BOEING FIELD, WA US","47.54554","-122.31475","7.6","2024-03-09T11:53:00","FM-15","7",,,,,,,,,,,,,,,,,,,,,"29.77","40","51","T","-RA:02 |RA |RA",,,"66","29.77","BKN:07 28 OVC:08 55","29.74","10.00","46","220","29","14",,,,,,,,,,,,,,,,,,,,,,,,,,,,,"MET14203/09/24 11:53:02 METAR KBFI 091953Z 22012G25KT 10SM -RA BKN028 OVC055 11/04 A2977 RMK AO2 PK WND 18031/1858 RAB13 SLP080 P0000 T01060044 (IV)","FM-15","7",,,,,,,,,,,,,,,,,,,,,,,,,,,"2007-05-17"
"72793524234","SEATTLE BOEING FIELD, WA US","47.54554","-122.31475","7.6","2024-03-09T12:51:00","FM-16","6",,,,,,,,,,,,,,,,,,,,,"29.76","41","52",,"-RA:02 |RA |RA",,,"67",,"BKN:07 35 OVC:08 50","29.73","4.00","47","VRB","32","17",,,,,,,,,,,,,,,,,,,,,,,,,,,,,"MET13203/09/24 12:51:02 SPECI KBFI 092051Z 21015G28KT 4SM -RA BKN035 OVC050 11/05 A2976 RMK AO2 PK WND 22028/2050 RAE27B44 P0002 FIBI (IV)","FM-16","6",,,,,,,,,,,,,,,,,,,,,,,,,,,"2007-05-17"
"72793524234","SEATTLE BOEING FIELD, WA US","47.54554","-122.31475","7.6","2024-03-09T12:53:00","FM-15","7",,,,,,,,,,,,,,,,,,,,,"29.77","42","50","0.02","-RA:02 |RA |RA","-0.01","0","74","29.76","BKN:07 35 OVC:08 50","29.74","8.00","46","200","32","16",,,,,,,,,,,,,,,,,,,,,,,,,,,,,"MET15603/09/24 12:53:02 METAR KBFI 092053Z 20014G28KT 8SM -RA BKN035 OVC050 10/06 A2977 RMK AO2 PK WND 22028/2050 RAE27B44 SLP079 P0002 60002 T01000056 50004 (IV)","FM-15","7",,,,,,,,,,,,,,,,,,,,,,,,,,,"2007-05-17"
"72793524234","SEATTLE BOEING FIELD, WA US","47.54554","-122.31475","7.6","2024-03-09T13:53:00","FM-15","7",,,,,,,,,,,,,,,,,,,,,"29.77","40","52","T",,,,"64","29.77","SCT:04 22 BKN:07 100","29.74","10.00","46","190","25","11",,,,,,,,,,,,,,,,,,,,,,,,,,,,,"MET13803/09/24 13:53:02 METAR KBFI 092153Z 19010G22KT 10SM SCT022 BKN100 11/04 A2977 RMK AO2 PK WND 17031/2112 RAE11 SLP080 P0000 T01110044 (IV)","FM-15","7",,,,,,,,,,,,,,,,,,,,,,,,,,,"2007-05-17"
"72793524234","SEATTLE BOEING FIELD, WA US","47.54554","-122.31475","7.6","2024-03-09T14:49:00","FM-16","7",,,,,,,,,,,,,,,,,,,,,"29.79","39","46","0.01","VCTS:7 -RA:02 |RA |RA",,,"76",,"SCT:04 37 BKN:07 60","29.76","6.00","43","210","25","14",,,,,,,,,,,,,,,,,,,,,,,,,,,,,"MET12903/09/24 14:49:02 SPECI KBFI 092249Z 21012G22KT 6SM VCTS -RA SCT037 BKN060 08/04 A2979 RMK AO2 PK WND 22043/2232 RAB34 P0001 (IV)","FM-16","7",,,,,,,,,,,,,,,,,,,,,,,,,,,"2007-05-17"
"72793524234","SEATTLE BOEING FIELD, WA US","47.54554","-122.31475","7.6","2024-03-09T14:53:00","FM-15","7",,,,,,,,,,,,,,,,,,,,,"29.78","39","47","0.01","VCTS:7 -RA:02 |RA |RA",,,"74","29.78","SCT:04 37 BKN:07 60","29.75","10.00","43","210","25","11",,,,,,,,,,,,,,,,,,,,,,,,,,,,,"MET14703/09/24 14:53:02 METAR KBFI 092253Z 21010G22KT 10SM VCTS -RA SCT037 BKN060 08/04 A2978 RMK AO2 PK WND 22043/2232 RAB34 SLP085 P0001 T00830039 (IV)","FM-15","7",,,,,,,,,,,,,,,,,,,,,,,,,,,"2007-05-17"
"72793524234","SEATTLE BOEING FIELD, WA US","47.54554","-122.31475","7.6","2024-03-09T15:04:00","FM-16","7",,,,,,,,,,,,,,,,,,,,,"29.79","39","48","T",,,,"71",,"FEW:02 35 SCT:04 48 BKN:07 70","29.76","10.00","44","190","26","11",,,,,,,,,,,,,,,,,,,,,,,,,,,,,"MET12203/09/24 15:04:02 SPECI KBFI 092304Z 19010G23KT 10SM FEW035 SCT048 BKN070 09/04 A2979 RMK AO2 RAE2256 P0000 T00890039 (IV)","FM-16","7",,,,,,,,,,,,,,,,,,,,,,,,,,,"2007-05-17"
"72793524234","SEATTLE BOEING FIELD, WA US","47.54554","-122.31475","7.6","2024-03-09T15:53:00","FM-15","7",,,,,,,,,,,,,,,,,,,,,"29.79","38","50","0.00",,"-0.02","1","63","29.79","BKN:07 30","29.76","10.00","44","180","28","16",,,,,,,,,,,,,,,,,,,,,,,,,,,,,"MET15703/09/24 15:53:02 METAR KBFI 092353Z 18014G24KT 10SM BKN030 10/03 A2979 RMK AO2 PK WND 20026/2334 RAE2256 SLP087 P0000 60003 T01000033 10128 20072 51007 (IV)","FM-15","7",,,,,,,,,,,,,,,,,,,,,,,,,,,"2007-05-17"
"72793524234","SEATTLE BOEING FIELD, WA US","47.54554","-122.31475","7.6","2024-03-09T16:53:00","FM-15","7",,,,,,,,,,,,,,,,,,,,,"29.81","36","48","T",,,,"63","29.80","FEW:02 37 SCT:04 50","29.78","10.00","43","190","29","15",,,,,,,,,,,,,,,,,,,,,,,,,,,,,"MET13603/09/24 16:53:01 METAR KBFI 100053Z 19013G25KT 10SM FEW037 SCT050 09/02 A2981 RMK AO2 PK WND 21033/0030 RAB33E43 SLP092 P0000 T00890022","FM-15","7",,,,,,,,,,,,,,,,,,,,,,,,,,,"2007-05-17"
"72793524234","SEATTLE BOEING FIELD, WA US","47.54554","-122.31475","7.6","2024-03-09T17:53:00","FM-15","7",,,,,,,,,,,,,,,,,,,,,"29.81","36","48","0.00",,,,"63","29.81","FEW:02 45 OVC:08 110","29.78","10.00","43","170","21","11",,,,,,,,,,,,,,,,,,,,,,,,,,,,,"MET10303/09/24 17:53:01 METAR KBFI 100153Z 17010G18KT 10SM FEW045 OVC110 09/02 A2981 RMK AO2 SLP094 T00890022","FM-15","7",,,,,,,,,,,,,,,,,,,,,,,,,,,"2007-05-17"
"72793524234","SEATTLE BOEING FIELD, WA US","47.54554","-122.31475","7.6","2024-03-09T18:53:00","FM-15","7",,,,,,,,,,,,,,,,,,,,,"29.80","37","47","0.00",,"-0.01","0","69","29.80","BKN:07 60","29.77","10.00","42","140",,"10",,,,,,,,,,,,,,,,,,,,,,,,,,,,,"MET10503/09/24 18:53:01 METAR KBFI 100253Z 14009KT 10SM BKN060 08/03 A2980 RMK AO2 SLP090 60000 T00830028 50003","FM-15","7",,,,,,,,,,,,,,,,,,,,,,,,,,,"2007-05-17"
"72793524234","SEATTLE BOEING FIELD, WA US","47.54554","-122.31475","7.6","2024-03-09T19:53:00","FM-15","7",,,,,,,,,,,,,,,,,,,,,"29.78","36","47","0.00",,,,"66","29.78","OVC:08 44","29.75","10.00","42","140",,"10",,,,,,,,,,,,,,,,,,,,,,,,,,,,,"MET09303/09/24 19:53:02 METAR KBFI 100353Z 14009KT 10SM OVC044 08/02 A2978 RMK AO2 SLP083 T00830022","FM-15","7",,,,,,,,,,,,,,,,,,,,,,,,,,,"2007-05-17"
"72793524234","SEATTLE BOEING FIELD, WA US","47.54554","-122.31475","7.6","2024-03-09T20:53:00","FM-15","7",,,,,,,,,,,,,,,,,,,,,"29.76","34","48","0.00",,,,"58","29.76","SCT:04 50 OVC:08 70","29.73","10.00","42","170","22","14",,,,,,,,,,,,,,,,,,,,,,,,,,,,,"MET10303/09/24 20:53:02 METAR KBFI 100453Z 17012G19KT 10SM SCT050 OVC070 09/01 A2976 RMK AO2 SLP078 T00890011","FM-15","7",,,,,,,,,,,,,,,,,,,,,,,,,,,"2007-05-17"
"72793524234","SEATTLE BOEING FIELD, WA US","47.54554","-122.31475","7.6","2024-03-09T21:53:00","FM-15","7",,,,,,,,,,,,,,,,,,,,,"29.74","34","49","0.00",,"0.06","8","56","29.74","OVC:08 60","29.71","10.00","42","160","26","16",,,,,,,,,,,,,,,,,,,,,,,,,,,,,"MET12003/09/24 21:53:02 METAR KBFI 100553Z 16014G23KT 10SM OVC060 09/01 A2974 RMK AO2 SLP070 60000 T00940011 10100 20078 58020","FM-15","7",,,,,,,,,,,,,,,,,,,,,,,,,,,"2007-05-17"
"72793524234","SEATTLE BOEING FIELD, WA US","47.54554","-122.31475","7.6","2024-03-09T22:53:00","FM-15","7",,,,,,,,,,,,,,,,,,,,,"29.70","33","50","0.00",,,,"52","29.70","OVC:08 60","29.67","10.00","43","150",,"14",,,,,,,,,,,,,,,,,,,,,,,,,,,,,"MET11103/09/24 22:53:02 METAR KBFI 100653Z 15012KT 10SM OVC060 10/01 A2970 RMK AO2 PK WND 15034/0624 SLP058 T01000006","FM-15","7",,,,,,,,,,,,,,,,,,,,,,,,,,,"2007-05-17"
"72793524234","SEATTLE BOEING FIELD, WA US","47.54554","-122.31475","7.6","2024-03-09T23:53:00","FM-15","7",,,,,,,,,,,,,,,,,,,,,"29.68","33","51","0.00",,,,"50","29.68","OVC:08 65","29.65","10.00","43","160","30","16",,,,,,,,,,,,,,,,,,,,,,,,,,,,,"MET12403/09/24 23:53:02 METAR KBFI 100753Z 16014G26KT 10SM OVC065 11/01 A2968 RMK AO2 PK WND 15027/0728 SLP050 T01060006 401280050","FM-15","7",,,,,,,,,,,,,,,,,,,,,,,,,,,"2007-05-17"
"72793524234","SEATTLE BOEING FIELD, WA US","47.54554","-122.31475","7.6","2024-03-09T23:59:00","SOD  ","6",,,,,"48","29.73","9.8","0","2.2","17","55","41","220","50","0.03","240","29","TS RA",,,,,,,,,,,,,,,,,,,,,,,,,,,,,,,,,,,,,,,,,,,,,,,"SOD73024 HR PRECIPITATION (IN):0.03  24 HR MAX TEMP (F):55 24 HR MAX TEMP TIME (LST):1052 24 HR MIN TEMP (F):41 24 HR MIN TEMP TIME (LST):0541 AVERAGE STATION PRESSURE:29.735 MINIMUM SEA LEVEL PRESSURE:29.67 TIME OF OCCURRENCE:2359 PEAK WIND SPEED (MPH):50  PEAK WIND DIR (DEG):220 PEAK WIND TIME (LST):1432  FASTEST 2MIN SPEED (MPH):29 FASTEST 2MIN DIR (DEG):240 FASTEST 2MIN TIME (LST):1433 AVERAGE WIND SPEED (MPH):9.8  24 HR AVG TEMP (F):48 HEATING DEGREE DAYS:17  COOLING DEGREE DAYS:0   LATEST DAY MAX TEMP (0700-1900 LST):55  LATEST NIGHT MIN TEMP(1900-0800 LST):41 HOURLY INCREMENTAL PRECIPITATION VALUES (IN):.00 0.00 0.00 0.00 0.00 0.00 0.00 0.00 0.00 T    0.00 T    0.02 T    0.01 0.00 T    0.00 0.00 0.00 0.00 0.00 0.00 0.00","SOD  ","6",,,,,,,,,,,,,,,,,,,,,,,,,"0633","1807","2007-05-17"
"72793524234","SEATTLE BOEING FIELD, WA US","47.54554","-122.31475","7.6","2024-03-10T00:53:00","FM-15","7",,,,,,,,,,,,,,,,,,,,,"29.64","32","49","0.00",,"0.09","7","52","29.64","OVC:08 70","29.61","10.00","42","100",,"10",,,,,,,,,,,,,,,,,,,,,,,,,,,,,"MET10403/10/24 00:53:02 METAR KBFI 100853Z 10009KT 10SM OVC070 09/00 A2964 RMK AO2 SLP038 T00940000 57032 (ND)","FM-15","7",,,,,,,,,,,,,,,,,,,,,,,,,,,"2007-05-17"
"72793524234","SEATTLE BOEING FIELD, WA US","47.54554","-122.31475","7.6","2024-03-10T01:53:00","FM-15","7",,,,,,,,,,,,,,,,,,,,,"29.63","33","49","0.00",,,,"55","29.62","OVC:08 65","29.60","10.00","42","120",,"5",,,,,,,,,,,,,,,,,,,,,,,,,,,,,"MET09303/10/24 01:53:02 METAR KBFI 100953Z 12004KT 10SM OVC065 09/01 A2963 RMK AO2 SLP032 T00940006","FM-15","7",,,,,,,,,,,,,,,,,,,,,,,,,,,"2007-05-17"
"72793524234","SEATTLE BOEING FIELD, WA US","47.54554","-122.31475","7.6","2024-03-10T02:53:00","FM-15","7",,,,,,,,,,,,,,,,,,,,,"29.59","33","50","0.00",,,,"52","29.59","FEW:02 55 SCT:04 70","29.56","10.00","42","170","36","22",,,,,,,,,,,,,,,,,,,,,,,,,,,,,"MET12103/10/24 02:53:02 METAR KBFI 101053Z 17019G31KT 10SM FEW055 SCT070 10/01 A2959 RMK AO2 PK WND 17033/1041 SLP021 T01000006","FM-15","7",,,,,,,,,,,,,,,,,,,,,,,,,,,"2007-05-17"
"72793524234","SEATTLE BOEING FIELD, WA US","47.54554","-122.31475","7.6","2024-03-10T03:53:00","FM-15","7",,,,,,,,,,,,,,,,,,,,,"29.59","34","49","0.00",,"0.05","6","56","29.59","BKN:07 70 BKN:07 110","29.56","10.00","42","160",,"11",,,,,,,,,,,,,,,,,,,,,,,,,,,,,"MET14703/10/24 03:53:02 METAR KBFI 101153Z 16010KT 10SM BKN070 BKN110 09/01 A2959 RMK AO2 PK WND 16028/1056 SLP020 70003 T00940011 10106 20089 56018 (KB)","FM-15","7",,,,,,,,,,,,,,,,,,,,,,,,,,,"2007-05-17"
"72793524234","SEATTLE BOEING FIELD, WA US","47.54554","-122.31475","7.6","2024-03-10T04:53:00","FM-15","7",,,,,,,,,,,,,,,,,,,,,"29.62","36","49","T","-RA:02 |RA |RA",,,"61","29.62","BKN:07 43 OVC:08 55","29.59","9.00","43","180","18","13",,,,,,,,,,,,,,,,,,,,,,,,,,,,,"MET12303/10/24 04:53:02 METAR KBFI 101253Z 18011G16KT 9SM -RA BKN043 OVC055 09/02 A2962 RMK AO2 RAB40 SLP031 P0000 T00940022 (KB)","FM-15","7",,,,,,,,,,,,,,,,,,,,,,,,,,,"2007-05-17"
"72793524234","SEATTLE BOEING FIELD, WA US","47.54554","-122.31475","7.6","2024-03-10T05:53:00","FM-15","7",,,,,,,,,,,,,,,,,,,,,"29.64","39","47","T","-RA:02 |RA |RA",,,"74","29.64","FEW:02 18 OVC:08 39","29.61","7.00","43","200",,"8",,,,,,,,,,,,,,,,,,,,,,,,,,,,,"MET12303/10/24 05:53:02 METAR KBFI 101353Z 20007KT 7SM -RA FEW018 OVC039 08/04 A2964 RMK AO2 RAE06B47 SLP036 P0000 T00830039 (KB)","FM-15","7",,,,,,,,,,,,,,,,,,,,,,,,,,,"2007-05-17"
"72793524234","SEATTLE BOEING FIELD, WA US","47.54554","-122.31475","7.6","2024-03-10T06:53:00","FM-15","7",,,,,,,,,,,,,,,,,,,,,"29.65","39","46","T",,"-0.06","1","77","29.65","FEW:02 18 BKN:07 38 OVC:08 55","29.62","10.00","43","160",,"7",,,,,,,,,,,,,,,,,,,,,,,,,,,,,"MET13603/10/24 06:53:02 METAR KBFI 101453Z 16006KT 10SM FEW018 BKN038 OVC055 08/04 A2965 RMK AO2 RAE21 SLP039 P0000 60000 T00780039 51020 (KB)","FM-15","7",,,,,,,,,,,,,,,,,,,,,,,,,,,"2007-05-17"
"72793524234","SEATTLE BOEING FIELD, WA US","47.54554","-122.31475","7.6","2024-03-10T07:53:00","FM-15","7",,,,,,,,,,,,,,,,,,,,,"29.64","37","47","0.00",,,,"69","29.64","FEW:02 15 BKN:07 70","29.61","10.00","42","180","20","13",,,,,,,,,,,,,,,,,,,,,,,,,,,,,"MET10803/10/24 07:53:02 METAR KBFI 101553Z 18011G17KT 10SM FEW015 BKN070 08/03 A2964 RMK AO2 SLP036 T00830028 (KB)","FM-15","7",,,,,,,,,,,,,,,,,,,,,,,,,,,"2007-05-17"
"72793524234","SEATTLE BOEING FIELD, WA US","47.54554","-122.31475","7.6","2024-03-10T08:53:00","FM-15","7",,,,,,,,,,,,,,,,,,,,,"29.65","38","48","0.00",,,,"68","29.65","FEW:02 15 OVC:08 80","29.62","10.00","43","170",,"7",,,,,,,,,,,,,,,,,,,,,,,,,,,,,"MET10503/10/24 08:53:02 METAR KBFI 101653Z 17006KT 10SM FEW015 OVC080 09/03 A2965 RMK AO2 SLP040 T00890033 (KB)","FM-15","7",,,,,,,,,,,,,,,,,,,,,,,,,,,"2007-05-17"
"72793524234","SEATTLE BOEING FIELD, WA US","47.54554","-122.31475","7.6","2024-03-10T09:53:00","FM-15","7",,,,,,,,,,,,,,,,,,,,,"29.67","38","48","T",,"-0.02","3","68","29.67","OVC:08 50","29.64","10.00","43","170",,"6",,,,,,,,,,,,,,,,,,,,,,,,,,,,,"MET13703/10/24 09:53:02 METAR KBFI 101753Z 17005KT 10SM OVC050 09/03 A2967 RMK AO2 RAB36E51 SLP046 P0000 60000 T00890033 10100 20078 53006 (KB)","FM-15","7",,,,,,,,,,,,,,,,,,,,,,,,,,,"2007-05-17"
"72793524234","SEATTLE BOEING FIELD, WA US","47.54554","-122.31475","7.6","2024-03-10T10:53:00","FM-15","7",,,,,,,,,,,,,,,,,,,,,"29.68","39","47","T","-RA:02 |RA |RA",,,"74","29.68","OVC:08 37","29.65","5.00","43","210",,"7",,,,,,,,,,,,,,,,,,,,,,,,,,,,,"MET11503/10/24 10:53:02 METAR KBFI 101853Z 21006KT 5SM -RA OVC037 08/04 A2968 RMK AO2 RAB1759 SLP050 P0000 T00830039 (KB)","FM-15","7",,,,,,,,,,,,,,,,,,,,,,,,,,,"2007-05-17"
"72793524234","SEATTLE BOEING FIELD, WA US","47.54554","-122.31475","7.6","2024-03-10T11:51:00","FM-16","6",,,,,,,,,,,,,,,,,,,,,"29.68","39","46",,"-RA:02 |RA |RA",,,"76",,"FEW:02 20 BKN:07 25 BKN:07 27","29.65","6.00","43","160","21","15",,,,,,,,,,,,,,,,,,,,,,,,,,,,,"MET11203/10/24 11:51:02 SPECI KBFI 101951Z 16013G18KT 6SM -RA FEW020 BKN025 BKN027 08/04 A2968 RMK AO2 P0002 FIBI (HW)","FM-16","6",,,,,,,,,,,,,,,,,,,,,,,,,,,"2007-05-17"
"72793524234","SEATTLE BOEING FIELD, WA US","47.54554","-122.31475","7.6","2024-03-10T11:53:00","FM-15","7",,,,,,,,,,,,,,,,,,,,,"29.67","39","47","0.02","-RA:02 |RA |RA",,,"74","29.67","FEW:02 20 BKN:07 25 BKN:07 27","29.64","6.00","43","170","21","13",,,,,,,,,,,,,,,,,,,,,,,,,,,,,"MET12403/10/24 11:53:02 METAR KBFI 101953Z 17011G18KT 6SM -RA FEW020 BKN025 BKN027 08/04 A2967 RMK AO2 SLP048 P0002 T00830039 (HW)","FM-15","7",,,,,,,,,,,,,,,,,,,,,,,,,,,"2007-05-17"
"72793524234","SEATTLE BOEING FIELD, WA US","47.54554","-122.31475","7.6","2024-03-10T12:53:00","FM-15","7",,,,,,,,,,,,,,,,,,,,,"29.66","39","49","0.02","-RA:02 |RA |RA","0.00","8","69","29.66","FEW:02 20 BKN:07 25 BKN:07 27","29.63","5.00","44","180","17","8",,,,,,,,,,,,,,,,,,,,,,,,,,,,,"MET14503/10/24 12:53:02 METAR KBFI 102053Z 18007G15KT 5SM -RA FEW020 BKN025 BKN027 09/04 A2966 RMK AO2 RAE15B33 SLP045 P0002 60004 T00940039 58001 (HW)","FM-15","7",,,,,,,,,,,,,,,,,,,,,,,,,,,"2007-05-17"
"72793524234","SEATTLE BOEING FIELD, WA US","47.54554","-122.31475","7.6","2024-03-10T13:51:00","FM-16","6",,,,,,,,,,,,,,,,,,,,,"29.66","41","48",,,,,"76",,"FEW:02 32 BKN:07 45 OVC:08 60","29.63","10.00","45","170",,"8",,,,,,,,,,,,,,,,,,,,,,,,,,,,,"MET11203/10/24 13:51:02 SPECI KBFI 102151Z 17007KT 10SM FEW032 BKN045 OVC060 09/05 A2966 RMK AO2 RAE50 P0004 FIBI (HW)","FM-16","6",,,,,,,,,,,,,,,,,,,,,,,,,,,"2007-05-17"
"72793524234","SEATTLE BOEING FIELD, WA US","47.54554","-122.31475","7.6","2024-03-10T13:53:00","FM-15","7",,,,,,,,,,,,,,,,,,,,,"29.66","41","48","0.04",,,,"77","29.66","SCT:04 32 OVC:08 45","29.63","10.00","45","170",,"8",,,,,,,,,,,,,,,,,,,,,,,,,,,,,"MET11703/10/24 13:53:02 METAR KBFI 102153Z 17007KT 10SM SCT032 OVC045 09/05 A2966 RMK AO2 RAE50 SLP044 P0004 T00890050 (HW)","FM-15","7",,,,,,,,,,,,,,,,,,,,,,,,,,,"2007-05-17"
"72793524234","SEATTLE BOEING FIELD, WA US","47.54554","-122.31475","7.6","2024-03-10T14:53:00","FM-15","7",,,,,,,,,,,,,,,,,,,,,"29.67","40","50","T","-RA:02 |RA |RA",,,"68","29.66","SCT:04 45 BKN:07 55 OVC:08 70","29.64","10.00","45","170",,"11",,,,,,,,,,,,,,,,,,,,,,,,,,,,,"MET12803/10/24 14:53:02 METAR KBFI 102253Z 17010KT 10SM -RA SCT045 BKN055 OVC070 10/04 A2967 RMK AO2 RAB47 SLP045 P0000 T01000044 (MB)","FM-15","7",,,,,,,,,,,,,,,,,,,,,,,,,,,"2007-05-17"
"72793524234","SEATTLE BOEING FIELD, WA US","47.54554","-122.31475","7.6","2024-03-10T15:51:00","FM-16","6",,,,,,,,,,,,,,,,,,,,,"29.70","39","46",,"RA:02 |RA |RA",,,"76",,"OVC:08 34","29.67","2.50","43","180","23","15",,,,,,,,,,,,,,,,,,,,,,,,,,,,,"MET10103/10/24 15:51:02 SPECI KBFI 102351Z 18013G20KT 2 1/2SM RA OVC034 08/04 A2970 RMK AO2 P0005 FIBI (SN)","FM-16","6",,,,,,,,,,,,,,,,,,,,,,,,,,,"2007-05-17"
"72793524234","SEATTLE BOEING FIELD, WA US","47.54554","-122.31475","7.6","2024-03-10T15:53:00","FM-15","7",,,,,,,,,,,,,,,,,,,,,"29.70","40","46","0.08","RA:02 |RA |RA","-0.04","3","79","29.70","OVC:08 34","29.67","2.00","43","190","23","11",,,,,,,,,,,,,,,,,,,,,,,,,,,,,"MET13303/10/24 15:53:02 METAR KBFI 102353Z 19010G20KT 2SM RA OVC034 08/04 A2970 RMK AO2 SLP057 P0006 60014 T00780044 10100 20078 53013 (SN)","FM-15","7",,,,,,,,,,,,,,,,,,,,,,,,,,,"2007-05-17"
"72793524234","SEATTLE BOEING FIELD, WA US","47.54554","-122.31475","7.6","2024-03-10T16:00:00","FM-16","7",,,,,,,,,,,,,,,,,,,,,"29.71","40","46","0.03","RA:02 |RA |RA",,,"79",,"OVC:08 22","29.68","2.50","43","220",,"9",,,,,,,,,,,,,,,,,,,,,,,,,,,,,"MET09803/10/24 16:00:01 SPECI KBFI 110000Z 22008KT 2 1/2SM RA OVC022 08/04 A2971 RMK AO2 P0003 T00780044","FM-16","7",,,,,,,,,,,,,,,,,,,,,,,,,,,"2007-05-17"
"72793524234","SEATTLE BOEING FIELD, WA US","47.54554","-122.31475","7.6","2024-03-10T16:51:00","FM-16","6",,,,,,,,,,,,,,,,,,,,,"29.71","41","45",,"-RA:02 |RA |RA",,,"87",,"OVC:08 22","29.68","8.00","43","150",,"6",,,,,,,,,,,,,,,,,,,,,,,,,,,,,"MET09503/10/24 16:51:03 SPECI KBFI 110051Z 15005KT 8SM -RA OVC022 07/05 A2971 RMK AO2 P0010 FIBI (SN)","FM-16","6",,,,,,,,,,,,,,,,,,,,,,,,,,,"2007-05-17"
"72793524234","SEATTLE BOEING FIELD, WA US","47.54554","-122.31475","7.6","2024-03-10T16:53:00","FM-15","7",,,,,,,,,,,,,,,,,,,,,"29.71","41","45","0.08","-RA:02 |RA |RA",,,"86","29.71","OVC:08 22","29.68","8.00","43","160",,"7",,,,,,,,,,,,,,,,,,,,,,,,,,,,,"MET10203/10/24 16:53:01 METAR KBFI 110053Z 16006KT 8SM -RA OVC022 07/05 A2971 RMK AO2 SLP060 P0010 T00720050","FM-15","7",,,,,,,,,,,,,,,,,,,,,,,,,,,"2007-05-17"
"72793524234","SEATTLE BOEING FIELD, WA US","47.54554","-122.31475","7.6","2024-03-10T17:53:00","FM-15","7",,,,,,,,,,,,,,,,,,,,,"29.72","43","46","T","-RA:02 |RA |RA",,,"89","29.72","BKN:07 22 BKN:07 33 OVC:08 43","29.69","7.00","45","160",,"3",,,,,,,,,,,,,,,,,,,,,,,,,,,,,"MET11603/10/24 17:53:01 METAR KBFI 110153Z 16003KT 7SM -RA BKN022 BKN033 OVC043 08/06 A2972 RMK AO2 SLP065 P0000 T00780061","FM-15","7",,,,,,,,,,,,,,,,,,,,,,,,,,,"2007-05-17"
"72793524234","SEATTLE BOEING FIELD, WA US","47.54554","-122.31475","7.6","2024-03-10T18:53:00","FM-15","7",,,,,,,,,,,,,,,,,,,,,"29.74","42","47","T",,"-0.04","3","83","29.73","BKN:07 29 OVC:08 41","29.71","10.00","45","150",,"10",,,,,,,,,,,,,,,,,,,,,,,,,,,,,"MET12403/10/24 18:53:02 METAR KBFI 110253Z 15009KT 10SM BKN029 OVC041 08/06 A2974 RMK AO2 RAE20 SLP069 P0000 60010 T00830056 53012","FM-15","7",,,,,,,,,,,,,,,,,,,,,,,,,,,"2007-05-17"
"72793524234","SEATTLE BOEING FIELD, WA US","47.54554","-122.31475","7.6","2024-03-10T19:53:00","FM-15","7",,,,,,,,,,,,,,,,,,,,,"29.76","41","48","0.00",,,,"77","29.76","BKN:07 25 OVC:08 34","29.73","10.00","45","170",,"14",,,,,,,,,,,,,,,,,,,,,,,,,,,,,"MET10003/10/24 19:53:02 METAR KBFI 110353Z 17012KT 10SM BKN025 OVC034 09/05 A2976 RMK AO2 SLP078 T00890050","FM-15","7",,,,,,,,,,,,,,,,,,,,,,,,,,,"2007-05-17"
"72793524234","SEATTLE BOEING FIELD, WA US","47.54554","-122.31475","7.6","2024-03-10T20:53:00","FM-15","7",,,,,,,,,,,,,,,,,,,,,"29.80","41","48","0.00",,,,"77","29.80","BKN:07 23 OVC:08 34","29.77","10.00","45","180","20","9",,,,,,,,,,,,,,,,,,,,,,,,,,,,,"MET10303/10/24 20:53:02 METAR KBFI 110453Z 18008G17KT 10SM BKN023 OVC034 09/05 A2980 RMK AO2 SLP091 T00890050","FM-15","7",,,,,,,,,,,,,,,,,,,,,,,,,,,"2007-05-17"
"72793524234","SEATTLE BOEING FIELD, WA US","47.54554","-122.31475","7.6","2024-03-10T21:53:00","FM-15","7",,,,,,,,,,,,,,,,,,,,,"29.81","41","48","0.00",,"-0.07","1","77","29.81","BKN:07 23 OVC:08 34","29.78","10.00","45","200","24","13",,,,,,,,,,,,,,,,,,,,,,,,,,,,,"MET12703/10/24 21:53:02 METAR KBFI 110553Z 20011G21KT 10SM BKN023 OVC034 09/05 A2981 RMK AO2 SLP095 60010 T00890050 10089 20072 51025","FM-15","7",,,,,,,,,,,,,,,,,,,,,,,,,,,"2007-05-17"
"72793524234","SEATTLE BOEING FIELD, WA US","47.54554","-122.31475","7.6","2024-03-10T22:53:00","FM-15","7",,,,,,,,,,,,,,,,,,,,,"29.82","41","48","0.00",,,,"77","29.82","BKN:07 23 OVC:08 34","29.79","10.00","45","190","24","13",,,,,,,,,,,,,,,,,,,,,,,,,,,,,"MET10303/10/24 22:53:02 METAR KBFI 110653Z 19011G21KT 10SM BKN023 OVC034 09/05 A2982 RMK AO2 SLP098 T00890050","FM-15","7",,,,,,,,,,,,,,,,,,,,,,,,,,,"2007-05-17"
"72793524234","SEATTLE BOEING FIELD, WA US","47.54554","-122.31475","7.6","2024-03-10T23:53:00","FM-15","7",,,,,,,,,,,,,,,,,,,,,"29.84","41","47","0.00",,,,"80","29.84","OVC:08 19","29.81","10.00","44","190",,"10",,,,,,,,,,,,,,,,,,,,,,,,,,,,,"MET10303/10/24 23:53:02 METAR KBFI 110753Z 19009KT 10SM OVC019 08/05 A2984 RMK AO2 SLP105 T00830050 401060072","FM-15","7",,,,,,,,,,,,,,,,,,,,,,,,,,,"2007-05-17"
"72793524234","SEATTLE BOEING FIELD, WA US","47.54554","-122.31475","7.6","2024-03-10T23:59:00","SOD  ","6",,,,,"48","29.65","10.0","0","2.0","17","51","45","170","37","0.24","160","24","RA",,,,,,,,,,,,,,,,,,,,,,,,,,,,,,,,,,,,,,,,,,,,,,,"SOD73024 HR PRECIPITATION (IN):0.24  24 HR MAX TEMP (F):51 24 HR MAX TEMP TIME (LST):0243 24 HR MIN TEMP (F):45 24 HR MIN TEMP TIME (LST):1720 AVERAGE STATION PRESSURE:29.655 MINIMUM SEA LEVEL PRESSURE:29.59 TIME OF OCCURRENCE:0418 PEAK WIND SPEED (MPH):37  PEAK WIND DIR (DEG):170 PEAK WIND TIME (LST):0241  FASTEST 2MIN SPEED (MPH):24 FASTEST 2MIN DIR (DEG):160 FASTEST 2MIN TIME (LST):0252 AVERAGE WIND SPEED (MPH):10.0 24 HR AVG TEMP (F):48 HEATING DEGREE DAYS:17  COOLING DEGREE DAYS:0   LATEST DAY MAX TEMP (0700-1900 LST):50  LATEST NIGHT MIN TEMP(1900-0800 LST):46 HOURLY INCREMENTAL PRECIPITATION VALUES (IN):.00 0.00 0.00 0.00 T    T    T    0.00 0.00 T    T    0.02 0.02 0.04 T    0.08 0.08 T    T    0.00 0.00 0.00 0.00 0.00","SOD  ","6",,,,,,,,,,,,,,,,,,,,,,,,,"0631","1809","2007-05-17"
"72793524234","SEATTLE BOEING FIELD, WA US","47.54554","-122.31475","7.6","2024-03-11T00:34:00","FM-16","7",,,,,,,,,,,,,,,,,,,,,"29.85","40","46",,,,,"79",,"SCT:04 19","29.82","10.00","43","190","16","8",,,,,,,,,,,,,,,,,,,,,,,,,,,,,"MET09403/11/24 00:34:02 SPECI KBFI 110834Z 19007G14KT 10SM SCT019 08/04 A2985 RMK AO2 T00780044 (MM)","FM-16","7",,,,,,,,,,,,,,,,,,,,,,,,,,,"2007-05-17"
"72793524234","SEATTLE BOEING FIELD, WA US","47.54554","-122.31475","7.6","2024-03-11T00:53:00","FM-15","7",,,,,,,,,,,,,,,,,,,,,"29.85","40","46","0.00",,"-0.04","1","79","29.85","SCT:04 13 BKN:07 19","29.82","10.00","43","180",,"10",,,,,,,,,,,,,,,,,,,,,,,,,,,,,"MET11103/11/24 00:53:02 METAR KBFI 110853Z 18009KT 10SM SCT013 BKN019 08/04 A2985 RMK AO2 SLP108 T00780044 51014 (MM)","FM-15","7",,,,,,,,,,,,,,,,,,,,,,,,,,,"2007-05-17"
"72793524234","SEATTLE BOEING FIELD, WA US","47.54554","-122.31475","7.6","2024-03-11T01:51:00","FM-16","6",,,,,,,,,,,,,,,,,,,,,"29.86","39","45",,,,,"81",,"SCT:04 30 BKN:07 36","29.83","10.00","42","200",,"7",,,,,,,,,,,,,,,,,,,,,,,,,,,,,"MET09303/11/24 01:51:02 SPECI KBFI 110951Z 20006KT 10SM SCT030 BKN036 07/04 A2986 RMK AO2 FIBI (MM)","FM-16","6",,,,,,,,,,,,,,,,,,,,,,,,,,,"2007-05-17"
"72793524234","SEATTLE BOEING FIELD, WA US","47.54554","-122.31475","7.6","2024-03-11T01:53:00","FM-15","7",,,,,,,,,,,,,,,,,,,,,"29.86","39","45","0.00",,,,"80","29.85","SCT:04 30 BKN:07 36","29.83","10.00","42","180",,"6",,,,,,,,,,,,,,,,,,,,,,,,,,,,,"MET10503/11/24 01:53:02 METAR KBFI 110953Z 18005KT 10SM SCT030 BKN036 07/04 A2986 RMK AO2 SLP109 T00720039 (MM)","FM-15","7",,,,,,,,,,,,,,,,,,,,,,,,,,,"2007-05-17"
"72793524234","SEATTLE BOEING FIELD, WA US","47.54554","-122.31475","7.6","2024-03-11T02:53:00","FM-15","7",,,,,,,,,,,,,,,,,,,,,"29.86","40","45","0.00",,,,"83","29.86","BKN:07 30 BKN:07 100","29.83","10.00","43","180",,"8",,,,,,,,,,,,,,,,,,,,,,,,,,,,,"MET10503/11/24 02:53:02 METAR KBFI 111053Z 18007KT 10SM BKN030 BKN100 07/04 A2986 RMK AO2 SLP112 T00720044 (MM)","FM-15","7",,,,,,,,,,,,,,,,,,,,,,,,,,,"2007-05-17"
"72793524234","SEATTLE BOEING FIELD, WA US","47.54554","-122.31475","7.6","2024-03-11T03:53:00","FM-15","7",,,,,,,,,,,,,,,,,,,,,"29.86","39","43","0.00",,"-0.01","0","86","29.86","FEW:02 20 SCT:04 60","29.83","10.00","41","150",,"7",,,,,,,,,,,,,,,,,,,,,,,,,,,,,"MET12903/11/24 03:53:02 METAR KBFI 111153Z 15006KT 10SM FEW020 SCT060 06/04 A2986 RMK AO2 SLP111 70024 T00610039 10089 20061 50003 (MM)","FM-15","7",,,,,,,,,,,,,,,,,,,,,,,,,,,"2007-05-17"
"72793524234","SEATTLE BOEING FIELD, WA US","47.54554","-122.31475","7.6","2024-03-11T04:53:00","FM-15","7",,,,,,,,,,,,,,,,,,,,,"29.86","39","44","0.00",,,,"83","29.85","CLR:00","29.83","10.00","42","170",,"8",,,,,,,,,,,,,,,,,,,,,,,,,,,,,"MET09503/11/24 04:53:02 METAR KBFI 111253Z 17007KT 10SM CLR 07/04 A2986 RMK AO2 SLP109 T00670039 (MM)","FM-15","7",,,,,,,,,,,,,,,,,,,,,,,,,,,"2007-05-17"
"72793524234","SEATTLE BOEING FIELD, WA US","47.54554","-122.31475","7.6","2024-03-11T05:53:00","FM-15","7",,,,,,,,,,,,,,,,,,,,,"29.86","39","43","0.00",,,,"86","29.85","BKN:07 70","29.83","10.00","41","150",,"6",,,,,,,,,,,,,,,,,,,,,,,,,,,,,"MET09803/11/24 05:53:02 METAR KBFI 111353Z 15005KT 10SM BKN070 06/04 A2986 RMK AO2 SLP109 T00610039 (MM)","FM-15","7",,,,,,,,,,,,,,,,,,,,,,,,,,,"2007-05-17"
"72793524234","SEATTLE BOEING FIELD, WA US","47.54554","-122.31475","7.6","2024-03-11T06:53:00","FM-15","7",,,,,,,,,,,,,,,,,,,,,"29.85","38","40","0.00",,"0.01","8","93","29.84","BKN:07 70","29.82","10.00","39","150",,"7",,,,,,,,,,,,,,,,,,,,,,,,,,,,,"MET09903/11/24 06:53:02 METAR KBFI 111453Z 15006KT 10SM BKN070 04/03 A2985 RMK AO2 SLP106 T00440033 58005","FM-15","7",,,,,,,,,,,,,,,,,,,,,,,,,,,"2007-05-17"
"72793524234","SEATTLE BOEING FIELD, WA US","47.54554","-122.31475","7.6","2024-03-11T07:53:00","FM-15","7",,,,,,,,,,,,,,,,,,,,,"29.83","39","45","0.00",,,,"80","29.83","BKN:07 75","29.80","10.00","42","160",,"5",,,,,,,,,,,,,,,,,,,,,,,,,,,,,"MET09303/11/24 07:53:02 METAR KBFI 111553Z 16004KT 10SM BKN075 07/04 A2983 RMK AO2 SLP101 T00720039","FM-15","7",,,,,,,,,,,,,,,,,,,,,,,,,,,"2007-05-17"
"72793524234","SEATTLE BOEING FIELD, WA US","47.54554","-122.31475","7.6","2024-03-11T08:53:00","FM-15","7",,,,,,,,,,,,,,,,,,,,,"29.81","39","46","0.00",,,,"77","29.81","FEW:02 48 OVC:08 80","29.78","10.00","43","150",,"7",,,,,,,,,,,,,,,,,,,,,,,,,,,,,"MET10003/11/24 08:53:02 METAR KBFI 111653Z 15006KT 10SM FEW048 OVC080 08/04 A2981 RMK AO2 SLP095 T00780039","FM-15","7",,,,,,,,,,,,,,,,,,,,,,,,,,,"2007-05-17"
"72793524234","SEATTLE BOEING FIELD, WA US","47.54554","-122.31475","7.6","2024-03-11T09:53:00","FM-15","7",,,,,,,,,,,,,,,,,,,,,"29.80","39","47","0.00",,"0.05","8","74","29.79","OVC:08 90","29.77","10.00","43","140",,"6",,,,,,,,,,,,,,,,,,,,,,,,,,,,,"MET11103/11/24 09:53:02 METAR KBFI 111753Z 14005KT 10SM OVC090 08/04 A2980 RMK AO2 SLP089 T00830039 10083 20044 58017","FM-15","7",,,,,,,,,,,,,,,,,,,,,,,,,,,"2007-05-17"
"72793524234","SEATTLE BOEING FIELD, WA US","47.54554","-122.31475","7.6","2024-03-11T10:53:00","FM-15","7",,,,,,,,,,,,,,,,,,,,,"29.76","38","49","0.00",,,,"66","29.76","FEW:02 100 FEW:02 120","29.73","10.00","44","160",,"6",,,,,,,,,,,,,,,,,,,,,,,,,,,,,"MET10003/11/24 10:53:02 METAR KBFI 111853Z 16005KT 10SM FEW100 FEW120 09/03 A2976 RMK AO2 SLP078 T00940033","FM-15","7",,,,,,,,,,,,,,,,,,,,,,,,,,,"2007-05-17"
"72793524234","SEATTLE BOEING FIELD, WA US","47.54554","-122.31475","7.6","2024-03-11T11:53:00","FM-15","7",,,,,,,,,,,,,,,,,,,,,"29.74","38","50","0.00",,,,"63","29.74","BKN:07 70 OVC:08 85","29.71","10.00","44","160",,"6",,,,,,,,,,,,,,,,,,,,,,,,,,,,,"MET10003/11/24 11:53:02 METAR KBFI 111953Z 16005KT 10SM BKN070 OVC085 10/03 A2974 RMK AO2 SLP071 T01000033","FM-15","7",,,,,,,,,,,,,,,,,,,,,,,,,,,"2007-05-17"
"72793524234","SEATTLE BOEING FIELD, WA US","47.54554","-122.31475","7.6","2024-03-11T12:53:00","FM-15","7",,,,,,,,,,,,,,,,,,,,,"29.71","38","51","T","-RA:02 |RA |RA","0.09","7","61","29.71","OVC:08 55","29.68","10.00","45","180",,"9",,,,,,,,,,,,,,,,,,,,,,,,,,,,,"MET12103/11/24 12:53:02 METAR KBFI 112053Z 18008KT 10SM -RA OVC055 11/03 A2971 RMK AO2 RAB46 SLP060 P0000 60000 T01060033 57029","FM-15","7",,,,,,,,,,,,,,,,,,,,,,,,,,,"2007-05-17"
"72793524234","SEATTLE BOEING FIELD, WA US","47.54554","-122.31475","7.6","2024-03-11T13:53:00","FM-15","7",,,,,,,,,,,,,,,,,,,,,"29.68","40","51","T","-RA:02 |RA |RA",,,"66","29.68","BKN:07 47 OVC:08 60","29.65","10.00","46","170",,"9",,,,,,,,,,,,,,,,,,,,,,,,,,,,,"MET12803/11/24 13:53:02 METAR KBFI 112153Z 17008KT 10SM -RA BKN047 OVC060 11/04 A2968 RMK AO2 PK WND 15026/2056 SLP052 P0000 T01060044","FM-15","7",,,,,,,,,,,,,,,,,,,,,,,,,,,"2007-05-17"
"72793524234","SEATTLE BOEING FIELD, WA US","47.54554","-122.31475","7.6","2024-03-11T14:53:00","FM-15","7",,,,,,,,,,,,,,,,,,,,,"29.66","41","50","0.01","-RA:02 |RA |RA",,,"71","29.66","BKN:07 40 OVC:08 55","29.63","7.00","46","160","22","15",,,,,,,,,,,,,,,,,,,,,,,,,,,,,"MET11203/11/24 14:53:02 METAR KBFI 112253Z 16013G19KT 7SM -RA BKN040 OVC055 10/05 A2966 RMK AO2 SLP044 P0001 T01000050","FM-15","7",,,,,,,,,,,,,,,,,,,,,,,,,,,"2007-05-17"
"72793524234","SEATTLE BOEING FIELD, WA US","47.54554","-122.31475","7.6","2024-03-11T15:53:00","FM-15","7",,,,,,,,,,,,,,,,,,,,,"29.64","41","49","T","-RA:02 |RA |RA","0.07","7","74","29.63","BKN:07 43 OVC:08 50","29.61","7.00","45","150",,"9",,,,,,,,,,,,,,,,,,,,,,,,,,,,,"MET13303/11/24 15:53:02 METAR KBFI 112353Z 15008KT 7SM -RA BKN043 OVC050 09/05 A2964 RMK AO2 SLP035 P0000 60001 T00940050 10106 20083 57025","FM-15","7",,,,,,,,,,,,,,,,,,,,,,,,,,,"2007-05-17"
"72793524234","SEATTLE BOEING FIELD, WA US","47.54554","-122.31475","7.6","2024-03-11T16:53:00","FM-15","7",,,,,,,,,,,,,,,,,,,,,"29.61","41","48","T","-RA:02 |RA |RA",,,"77","29.61","OVC:08 41","29.58","6.00","45","100",,"9",,,,,,,,,,,,,,,,,,,,,,,,,,,,,"MET10203/11/24 16:53:01 METAR KBFI 120053Z 10008KT 6SM -RA OVC041 09/05 A2961 RMK AO2 SLP026 P0000 T00890050","FM-15","7",,,,,,,,,,,,,,,,,,,,,,,,,,,"2007-05-17"
"72793524234","SEATTLE BOEING FIELD, WA US","47.54554","-122.31475","7.6","2024-03-11T17:53:00","FM-15","7",,,,,,,,,,,,,,,,,,,,,"29.61","42","47","0.03","-RA:02 |RA |RA",,,"83","29.60","BKN:07 25 OVC:08 40","29.58","6.00","45","110",,"8",,,,,,,,,,,,,,,,,,,,,,,,,,,,,"MET10903/11/24 17:53:01 METAR KBFI 120153Z 11007KT 6SM -RA BKN025 OVC040 08/06 A2961 RMK AO2 SLP025 P0003 T00830056","FM-15","7",,,,,,,,,,,,,,,,,,,,,,,,,,,"2007-05-17"
"72793524234","SEATTLE BOEING FIELD, WA US","47.54554","-122.31475","7.6","2024-03-11T18:53:00","FM-15","7",,,,,,,,,,,,,,,,,,,,,"29.60","42","46","0.04","-RA:02 BR:1 |RA |RA","0.04","6","86","29.60","BKN:07 25 OVC:08 40","29.57","6.00","44","140",,"7",,,,,,,,,,,,,,,,,,,,,,,,,,,,,"MET12403/11/24 18:53:01 METAR KBFI 120253Z 14006KT 6SM -RA BR BKN025 OVC040 08/06 A2960 RMK AO2 SLP023 P0004 60007 T00780056 56012","FM-15","7",,,,,,,,,,,,,,,,,,,,,,,,,,,"2007-05-17"
"72793524234","SEATTLE BOEING FIELD, WA US","47.54554","-122.31475","7.6","2024-03-11T19:51:00","FM-16","6",,,,,,,,,,,,,,,,,,,,,"29.59","43","46",,,,,"87",,"OVC:08 43","29.56","10.00","45","160",,"11",,,,,,,,,,,,,,,,,,,,,,,,,,,,,"MET09803/11/24 19:51:03 SPECI KBFI 120351Z 16010KT 10SM OVC043 08/06 A2959 RMK AO2 RAE03 P0000 FIBI (SN)","FM-16","6",,,,,,,,,,,,,,,,,,,,,,,,,,,"2007-05-17"
"72793524234","SEATTLE BOEING FIELD, WA US","47.54554","-122.31475","7.6","2024-03-11T19:53:00","FM-15","7",,,,,,,,,,,,,,,,,,,,,"29.59","41","47","T",,,,"80","29.59","OVC:08 43","29.56","10.00","44","160",,"10",,,,,,,,,,,,,,,,,,,,,,,,,,,,,"MET10503/11/24 19:53:01 METAR KBFI 120353Z 16009KT 10SM OVC043 08/05 A2959 RMK AO2 RAE03 SLP020 P0000 T00830050","FM-15","7",,,,,,,,,,,,,,,,,,,,,,,,,,,"2007-05-17"
"72793524234","SEATTLE BOEING FIELD, WA US","47.54554","-122.31475","7.6","2024-03-11T20:53:00","FM-15","7",,,,,,,,,,,,,,,,,,,,,"29.60","39","49","0.00",,,,"69","29.60","SCT:04 44 BKN:07 60 OVC:08 75","29.57","10.00","44","170",,"15",,,,,,,,,,,,,,,,,,,,,,,,,,,,,"MET10703/11/24 20:53:01 METAR KBFI 120453Z 17013KT 10SM SCT044 BKN060 OVC075 09/04 A2960 RMK AO2 SLP023 T00940039","FM-15","7",,,,,,,,,,,,,,,,,,,,,,,,,,,"2007-05-17"
"72793524234","SEATTLE BOEING FIELD, WA US","47.54554","-122.31475","7.6","2024-03-11T21:53:00","FM-15","7",,,,,,,,,,,,,,,,,,,,,"29.64","41","48","T","-RA:02 |RA |RA","-0.04","3","77","29.63","FEW:02 30 OVC:08 40","29.61","8.00","45","170",,"14",,,,,,,,,,,,,,,,,,,,,,,,,,,,,"MET14503/11/24 21:53:01 METAR KBFI 120553Z 17012KT 8SM -RA FEW030 OVC040 09/05 A2964 RMK AO2 RAB01E24B42 SLP035 P0000 60007 T00890050 10094 20078 53012","FM-15","7",,,,,,,,,,,,,,,,,,,,,,,,,,,"2007-05-17"
"72793524234","SEATTLE BOEING FIELD, WA US","47.54554","-122.31475","7.6","2024-03-11T22:53:00","FM-15","7",,,,,,,,,,,,,,,,,,,,,"29.66","42","48","0.01","-RA:02 |RA |RA",,,"80","29.65","SCT:04 34 OVC:08 41","29.63","7.00","45","170","24","15",,,,,,,,,,,,,,,,,,,,,,,,,,,,,"MET11203/11/24 22:53:01 METAR KBFI 120653Z 17013G21KT 7SM -RA SCT034 OVC041 09/06 A2966 RMK AO2 SLP042 P0001 T00890056","FM-15","7",,,,,,,,,,,,,,,,,,,,,,,,,,,"2007-05-17"
"72793524234","SEATTLE BOEING FIELD, WA US","47.54554","-122.31475","7.6","2024-03-11T23:53:00","FM-15","7",,,,,,,,,,,,,,,,,,,,,"29.66","41","49","T","-RA:02 |RA |RA",,,"74","29.66","BKN:07 36","29.63","10.00","45","180","22","14",,,,,,,,,,,,,,,,,,,,,,,,,,,,,"MET12503/11/24 23:53:01 METAR KBFI 120753Z 18012G19KT 10SM -RA BKN036 09/05 A2966 RMK AO2 RAE07B45 SLP044 P0000 T00940050 401060044","FM-15","7",,,,,,,,,,,,,,,,,,,,,,,,,,,"2007-05-17"
"72793524234","SEATTLE BOEING FIELD, WA US","47.54554","-122.31475","7.6","2024-03-11T23:59:00","SOD  ","6",,,,,"46","29.70","9.0","0","-0.2","19","51","40","150","30","0.09","160","20","RA BR",,,,,,,,,,,,,,,,,,,,,,,,,,,,,,,,,,,,,,,,,,,,,,,"SOD74924 HR PRECIPITATION (IN): 0.09 WEATHER(CODE):1,8  24 HR MAX TEMP (F):51 24 HR MAX TEMP TIME (LST):1356 24 HR MIN TEMP (F):40 24 HR MIN TEMP TIME (LST):0704 AVERAGE STATION PRESSURE(D):29.706 MINIMUM SEA LEVEL PRESSURE:29.59 TIME OF OCCURRENCE:2038 PEAK WIND SPEED (MPH):30  PEAK WIND DIR (DEG):150 PEAK WIND TIME (LST):1256  FASTEST 2MIN SPEED (MPH):20 FASTEST 2MIN DIR (DEG):160 FASTEST 2MIN TIME (LST):2103 AVERAGE WIND SPEED (MPH): 9.0 24 HR AVG TEMP (F):46 HEATING DEGREE DAYS: 19 COOLING DEGREE DAYS:  0 LATEST DAY MAX TEMP (0700-1900 LST): 51 LATEST NIGHT MIN TEMP(1900-0800 LST):40 HOURLY INCREMENTAL PRECIPITATION VALUES (IN):0.00 0.00 0.00 0.00 0.00 0.00 0.00 0.00 0.00 0.00 0.00 0.00T    T     0.01T    T     0.03 0.04T     0.00T     0.01T","SOD  ","6",,,,,,,,,,,,,,,,,,,,,,,,,"0629","1810","2007-05-17"
"72793524234","SEATTLE BOEING FIELD, WA US","47.54554","-122.31475","7.6","2024-03-12T00:53:00","FM-15","7",,,,,,,,,,,,,,,,,,,,,"29.68","41","48","T","-RA:02 |RA |RA","-0.04","1","77","29.67","FEW:02 48 BKN:07 90","29.65","6.00","45","180","22","9",,,,,,,,,,,,,,,,,,,,,,,,,,,,,"MET13803/12/24 00:53:02 METAR KBFI 120853Z 18008G19KT 6SM -RA FEW048 BKN090 09/05 A2968 RMK AO2 RAE13B50 SLP049 P0000 60001 T00890050 51013 (KT)","FM-15","7",,,,,,,,,,,,,,,,,,,,,,,,,,,"2007-05-17"
"72793524234","SEATTLE BOEING FIELD, WA US","47.54554","-122.31475","7.6","2024-03-12T01:53:00","FM-15","7",,,,,,,,,,,,,,,,,,,,,"29.69","42","47","0.04","-RA:02 |RA |RA",,,"83","29.69","FEW:02 31 BKN:07 47 OVC:08 80","29.66","10.00","45","180",,"10",,,,,,,,,,,,,,,,,,,,,,,,,,,,,"MET12203/12/24 01:53:02 METAR KBFI 120953Z 18009KT 10SM -RA FEW031 BKN047 OVC080 08/06 A2969 RMK AO2 SLP054 P0004 T00830056 (KT)","FM-15","7",,,,,,,,,,,,,,,,,,,,,,,,,,,"2007-05-17"
"72793524234","SEATTLE BOEING FIELD, WA US","47.54554","-122.31475","7.6","2024-03-12T02:51:00","FM-16","6",,,,,,,,,,,,,,,,,,,,,"29.70","41","46",,,,,"82",,"BKN:07 20 OVC:08 49","29.67","10.00","44","170",,"11",,,,,,,,,,,,,,,,,,,,,,,,,,,,,"MET10503/12/24 02:51:02 SPECI KBFI 121051Z 17010KT 10SM BKN020 OVC049 08/05 A2970 RMK AO2 RAE39 P0000 FIBI (KT)","FM-16","6",,,,,,,,,,,,,,,,,,,,,,,,,,,"2007-05-17"
"72793524234","SEATTLE BOEING FIELD, WA US","47.54554","-122.31475","7.6","2024-03-12T02:53:00","FM-15","7",,,,,,,,,,,,,,,,,,,,,"29.70","41","47","T",,,,"80","29.70","BKN:07 20 OVC:08 49","29.67","10.00","44","160",,"8",,,,,,,,,,,,,,,,,,,,,,,,,,,,,"MET11703/12/24 02:53:02 METAR KBFI 121053Z 16007KT 10SM BKN020 OVC049 08/05 A2970 RMK AO2 RAE39 SLP056 P0000 T00830050 (KT)","FM-15","7",,,,,,,,,,,,,,,,,,,,,,,,,,,"2007-05-17"
"72793524234","SEATTLE BOEING FIELD, WA US","47.54554","-122.31475","7.6","2024-03-12T03:51:00","FM-16","6",,,,,,,,,,,,,,,,,,,,,"29.70","43","46",,"-RA:02 |RA |RA",,,"87",,"FEW:02 31 BKN:07 49 OVC:08 100","29.67","9.00","45","160",,"8",,,,,,,,,,,,,,,,,,,,,,,,,,,,,"MET11503/12/24 03:51:02 SPECI KBFI 121151Z 16007KT 9SM -RA FEW031 BKN049 OVC100 08/06 A2970 RMK AO2 RAB36 P0000 FIBI (KT)","FM-16","6",,,,,,,,,,,,,,,,,,,,,,,,,,,"2007-05-17"
"72793524234","SEATTLE BOEING FIELD, WA US","47.54554","-122.31475","7.6","2024-03-12T03:53:00","FM-15","7",,,,,,,,,,,,,,,,,,,,,"29.70","42","46","T","-RA:02 |RA |RA","-0.03","1","86","29.70","SCT:04 31 BKN:07 49","29.67","9.00","44","170",,"8",,,,,,,,,,,,,,,,,,,,,,,,,,,,,"MET15003/12/24 03:53:02 METAR KBFI 121153Z 17007KT 9SM -RA SCT031 BKN049 08/06 A2970 RMK AO2 RAB36 SLP058 P0000 60005 70013 T00780056 10094 20078 51009 (KT)","FM-15","7",,,,,,,,,,,,,,,,,,,,,,,,,,,"2007-05-17"
"72793524234","SEATTLE BOEING FIELD, WA US","47.54554","-122.31475","7.6","2024-03-12T04:53:00","FM-15","7",,,,,,,,,,,,,,,,,,,,,"29.73","42","47","0.07","RA:02 |RA |RA",,,"83","29.73","FEW:02 16 BKN:07 29 OVC:08 34","29.70","4.00","45","190","23","9",,,,,,,,,,,,,,,,,,,,,,,,,,,,,"MET12303/12/24 04:53:02 METAR KBFI 121253Z 19008G20KT 4SM RA FEW016 BKN029 OVC034 08/06 A2973 RMK AO2 SLP067 P0005 T00830056 (MB)","FM-15","7",,,,,,,,,,,,,,,,,,,,,,,,,,,"2007-05-17"
"72793524234","SEATTLE BOEING FIELD, WA US","47.54554","-122.31475","7.6","2024-03-12T05:51:00","FM-16","6",,,,,,,,,,,,,,,,,,,,,"29.74","41","46",,,,,"82",,"FEW:02 15 SCT:04 30 BKN:07 90","29.71","10.00","44","180",,"13",,,,,,,,,,,,,,,,,,,,,,,,,,,,,"MET11203/12/24 05:51:02 SPECI KBFI 121351Z 18011KT 10SM FEW015 SCT030 BKN090 08/05 A2974 RMK AO2 RAE19 P0003 FIBI (MB)","FM-16","6",,,,,,,,,,,,,,,,,,,,,,,,,,,"2007-05-17"
"72793524234","SEATTLE BOEING FIELD, WA US","47.54554","-122.31475","7.6","2024-03-12T05:53:00","FM-15","7",,,,,,,,,,,,,,,,,,,,,"29.75","41","46","0.01",,,,"83","29.74","FEW:02 15 SCT:04 30 BKN:07 90","29.72","10.00","44","180",,"11",,,,,,,,,,,,,,,,,,,,,,,,,,,,,"MET12403/12/24 05:53:02 METAR KBFI 121353Z 18010KT 10SM FEW015 SCT030 BKN090 08/05 A2975 RMK AO2 RAE19 SLP072 P0003 T00780050 (MB)","FM-15","7",,,,,,,,,,,,,,,,,,,,,,,,,,,"2007-05-17"
"72793524234","SEATTLE BOEING FIELD, WA US","47.54554","-122.31475","7.6","2024-03-12T06:53:00","FM-15","7",,,,,,,,,,,,,,,,,,,,,"29.77","41","46","0.01","-RA:02 |RA |RA","-0.07","3","83","29.77","FEW:02 15 SCT:04 30 BKN:07 90","29.74","6.00","44","200","22","14",,,,,,,,,,,,,,,,,,,,,,,,,,,,,"MET14203/12/24 06:53:02 METAR KBFI 121453Z 20012G19KT 6SM -RA FEW015 SCT030 BKN090 08/05 A2977 RMK AO2 RAB42 SLP082 P0000 60008 T00780050 53024 (MB)","FM-15","7",,,,,,,,,,,,,,,,,,,,,,,,,,,"2007-05-17"
"72793524234","SEATTLE BOEING FIELD, WA US","47.54554","-122.31475","7.6","2024-03-12T07:15:00","FM-16","7",,,,,,,,,,,,,,,,,,,,,"29.78","42","46","0.02","-RA:02 BR:1 |RA |RA",,,"86",,"SCT:04 15 BKN:07 26 BKN:07 35","29.75","4.00","44","170",,"9",,,,,,,,,,,,,,,,,,,,,,,,,,,,,"MET11703/12/24 07:15:02 SPECI KBFI 121515Z 17008KT 4SM -RA BR SCT015 BKN026 BKN035 08/06 A2978 RMK AO2 P0002 T00780056 (MB)","FM-16","7",,,,,,,,,,,,,,,,,,,,,,,,,,,"2007-05-17"
"72793524234","SEATTLE BOEING FIELD, WA US","47.54554","-122.31475","7.6","2024-03-12T07:51:00","FM-16","6",,,,,,,,,,,,,,,,,,,,,"29.80","41","46",,,,,"82",,"SCT:04 15 BKN:07 30","29.77","10.00","44","170",,"13",,,,,,,,,,,,,,,,,,,,,,,,,,,,,"MET10503/12/24 07:51:02 SPECI KBFI 121551Z 17011KT 10SM SCT015 BKN030 08/05 A2980 RMK AO2 RAE25 P0002 FIBI (MB)","FM-16","6",,,,,,,,,,,,,,,,,,,,,,,,,,,"2007-05-17"
"72793524234","SEATTLE BOEING FIELD, WA US","47.54554","-122.31475","7.6","2024-03-12T07:53:00","FM-15","7",,,,,,,,,,,,,,,,,,,,,"29.80","41","46","0.01",,,,"83","29.80","SCT:04 15 BKN:07 30","29.77","10.00","44","180",,"10",,,,,,,,,,,,,,,,,,,,,,,,,,,,,"MET11703/12/24 07:53:02 METAR KBFI 121553Z 18009KT 10SM SCT015 BKN030 08/05 A2980 RMK AO2 RAE25 SLP091 P0002 T00780050 (MB)","FM-15","7",,,,,,,,,,,,,,,,,,,,,,,,,,,"2007-05-17"
"72793524234","SEATTLE BOEING FIELD, WA US","47.54554","-122.31475","7.6","2024-03-12T08:53:00","FM-15","7",,,,,,,,,,,,,,,,,,,,,"29.84","40","47","0.00",,,,"77","29.84","SCT:04 15 BKN:07 30","29.81","10.00","44","170","22","14",,,,,,,,,,,,,,,,,,,,,,,,,,,,,"MET10803/12/24 08:53:02 METAR KBFI 121653Z 17012G19KT 10SM SCT015 BKN030 08/04 A2984 RMK AO2 SLP104 T00830044 (MB)","FM-15","7",,,,,,,,,,,,,,,,,,,,,,,,,,,"2007-05-17"
"72793524234","SEATTLE BOEING FIELD, WA US","47.54554","-122.31475","7.6","2024-03-12T09:53:00","FM-15","7",,,,,,,,,,,,,,,,,,,,,"29.88","38","46","T",,"-0.10","3","73","29.87","SCT:04 15 BKN:07 30","29.85","10.00","42","190","24","14",,,,,,,,,,,,,,,,,,,,,,,,,,,,,"MET16503/12/24 09:53:02 METAR KBFI 121753Z 19012G21KT 10SM SCT015 BKN030 08/03 A2988 RMK AO2 PK WND 17026/1730 RAB02E15 SLP116 P0000 60010 T00780033 10083 20072 53034 (MB)","FM-15","7",,,,,,,,,,,,,,,,,,,,,,,,,,,"2007-05-17"
"72793524234","SEATTLE BOEING FIELD, WA US","47.54554","-122.31475","7.6","2024-03-12T10:53:00","FM-15","7",,,,,,,,,,,,,,,,,,,,,"29.90","38","48","0.00",,,,"68","29.90","SCT:04 85 BKN:07 120","29.87","10.00","43","190","30","17",,,,,,,,,,,,,,,,,,,,,,,,,,,,,"MET12603/12/24 10:53:02 METAR KBFI 121853Z 19015G26KT 10SM SCT085 BKN120 09/03 A2990 RMK AO2 PK WND 19030/1841 SLP124 T00890033 (MB)","FM-15","7",,,,,,,,,,,,,,,,,,,,,,,,,,,"2007-05-17"
"72793524234","SEATTLE BOEING FIELD, WA US","47.54554","-122.31475","7.6","2024-03-12T11:53:00","FM-15","7",,,,,,,,,,,,,,,,,,,,,"29.93","38","49","0.00",,,,"66","29.93","BKN:07 32 BKN:07 90","29.90","10.00","44","200","23","13",,,,,,,,,,,,,,,,,,,,,,,,,,,,,"MET12603/12/24 11:53:02 METAR KBFI 121953Z 20011G20KT 10SM BKN032 BKN090 09/03 A2993 RMK AO2 PK WND 20026/1927 SLP135 T00940033 (SN)","FM-15","7",,,,,,,,,,,,,,,,,,,,,,,,,,,"2007-05-17"
"72793524234","SEATTLE BOEING FIELD, WA US","47.54554","-122.31475","7.6","2024-03-12T12:53:00","FM-15","6",,,,,,,,,,,,,,,,,,,,,"29.94","37","49","T",,"-0.07","1","64","29.94","FEW:02 30 SCT:04 65 BKN:07 100","29.91","10.00","44","190","25","15",,,,,,,,,,,,,,,,,,,,,,,,,,,,,"MET17203/12/24 12:53:02 METAR KBFI 122053Z 19013G22KT 10SM FEW030 SCT065 BKN100 09/03 A2994 RMK AO2 PK WND 19027/2010 LTG DSNT SE RAB12E23 SLP140 P0000 60000 T00940028 51023 (JP)","FM-15","6",,,,,,,,,,,,,,,,,,,,,,,,,,,"2007-05-17"
"72793524234","SEATTLE BOEING FIELD, WA US","47.54554","-122.31475","7.6","2024-03-12T13:53:00","FM-15","7",,,,,,,,,,,,,,,,,,,,,"29.96","37","50","0.00",,,,"61","29.96","SCT:04 50 BKN:07 100","29.93","10.00","44","240","22","10",,,,,,,,,,,,,,,,,,,,,,,,,,,,,"MET12603/12/24 13:53:02 METAR KBFI 122153Z 24009G19KT 10SM SCT050 BKN100 10/03 A2996 RMK AO2 PK WND 22033/2110 SLP144 T01000028 (JP)","FM-15","7",,,,,,,,,,,,,,,,,,,,,,,,,,,"2007-05-17"
"72793524234","SEATTLE BOEING FIELD, WA US","47.54554","-122.31475","7.6","2024-03-12T14:53:00","FM-15","7",,,,,,,,,,,,,,,,,,,,,"29.99","37","51","0.00",,,,"59","29.98","BKN:07 41","29.96","10.00","45","210","20","11",,,,,,,,,,,,,,,,,,,,,,,,,,,,,"MET10103/12/24 14:53:02 METAR KBFI 122253Z 21010G17KT 10SM BKN041 11/03 A2999 RMK AO2 SLP154 T01060028 (JP)","FM-15","7",,,,,,,,,,,,,,,,,,,,,,,,,,,"2007-05-17"
"72793524234","SEATTLE BOEING FIELD, WA US","47.54554","-122.31475","7.6","2024-03-12T15:53:00","FM-15","7",,,,,,,,,,,,,,,,,,,,,"30.02","36","50","0.00",,"-0.08","3","59","30.02","BKN:07 32","29.99","10.00","44","VRB","18","10",,,,,,,,,,,,,,,,,,,,,,,,,,,,,"MET12503/12/24 15:53:02 METAR KBFI 122353Z 23009G16KT 10SM BKN032 10/02 A3002 RMK AO2 SLP166 60000 T01000022 10106 20078 53026 (JP)","FM-15","7",,,,,,,,,,,,,,,,,,,,,,,,,,,"2007-05-17"
"72793524234","SEATTLE BOEING FIELD, WA US","47.54554","-122.31475","7.6","2024-03-12T16:53:00","FM-15","7",,,,,,,,,,,,,,,,,,,,,"30.05","36","50","0.00",,,,"59","30.05","BKN:07 32 OVC:08 46","30.02","10.00","44","000",,"0",,,,,,,,,,,,,,,,,,,,,,,,,,,,,"MET10003/12/24 16:53:01 METAR KBFI 130053Z 00000KT 10SM BKN032 OVC046 10/02 A3005 RMK AO2 SLP176 T01000022","FM-15","7",,,,,,,,,,,,,,,,,,,,,,,,,,,"2007-05-17"
"72793524234","SEATTLE BOEING FIELD, WA US","47.54554","-122.31475","7.6","2024-03-12T17:40:00","FM-16","7",,,,,,,,,,,,,,,,,,,,,"30.08","38","47",,,,,"71",,"OVC:08 28","30.05","10.00","43","070",,"9",,,,,,,,,,,,,,,,,,,,,,,,,,,,,"MET08603/12/24 17:40:01 SPECI KBFI 130140Z 07008KT 10SM OVC028 08/03 A3008 RMK AO2 T00830033","FM-16","7",,,,,,,,,,,,,,,,,,,,,,,,,,,"2007-05-17"
"72793524234","SEATTLE BOEING FIELD, WA US","47.54554","-122.31475","7.6","2024-03-12T17:51:00","FM-16","6",,,,,,,,,,,,,,,,,,,,,"30.09","37","46",,,,,"71",,"OVC:08 30","30.06","10.00","42","060",,"7",,,,,,,,,,,,,,,,,,,,,,,,,,,,,"MET08603/12/24 17:51:03 SPECI KBFI 130151Z 06006KT 10SM OVC030 08/03 A3009 RMK AO2 FIBI (JP)","FM-16","6",,,,,,,,,,,,,,,,,,,,,,,,,,,"2007-05-17"
"72793524234","SEATTLE BOEING FIELD, WA US","47.54554","-122.31475","7.6","2024-03-12T17:53:00","FM-15","7",,,,,,,,,,,,,,,,,,,,,"30.09","38","47","0.00",,,,"71","30.09","OVC:08 30","30.06","10.00","43","060",,"6",,,,,,,,,,,,,,,,,,,,,,,,,,,,,"MET09303/12/24 17:53:01 METAR KBFI 130153Z 06005KT 10SM OVC030 08/03 A3009 RMK AO2 SLP189 T00830033","FM-15","7",,,,,,,,,,,,,,,,,,,,,,,,,,,"2007-05-17"
"72793524234","SEATTLE BOEING FIELD, WA US","47.54554","-122.31475","7.6","2024-03-12T18:53:00","FM-15","7",,,,,,,,,,,,,,,,,,,,,"30.12","36","46","0.00",,"-0.09","1","68","30.11","BKN:07 30 OVC:08 42","30.09","10.00","42","240",,"6",,,,,,,,,,,,,,,,,,,,,,,,,,,,,"MET10603/12/24 18:53:01 METAR KBFI 130253Z 24005KT 10SM BKN030 OVC042 08/02 A3012 RMK AO2 SLP198 T00780022 51032","FM-15","7",,,,,,,,,,,,,,,,,,,,,,,,,,,"2007-05-17"
"72793524234","SEATTLE BOEING FIELD, WA US","47.54554","-122.31475","7.6","2024-03-12T19:53:00","FM-15","7",,,,,,,,,,,,,,,,,,,,,"30.15","36","45","0.00",,,,"71","30.15","SCT:04 42 OVC:08 95","30.12","10.00","41","190",,"7",,,,,,,,,,,,,,,,,,,,,,,,,,,,,"MET10003/12/24 19:53:01 METAR KBFI 130353Z 19006KT 10SM SCT042 OVC095 07/02 A3015 RMK AO2 SLP209 T00720022","FM-15","7",,,,,,,,,,,,,,,,,,,,,,,,,,,"2007-05-17"
"72793524234","SEATTLE BOEING FIELD, WA US","47.54554","-122.31475","7.6","2024-03-12T20:53:00","FM-15","7",,,,,,,,,,,,,,,,,,,,,"30.18","36","44","0.00",,,,"73","30.17","SCT:04 95","30.15","10.00","41","140",,"8",,,,,,,,,,,,,,,,,,,,,,,,,,,,,"MET09303/12/24 20:53:01 METAR KBFI 130453Z 14007KT 10SM SCT095 07/02 A3018 RMK AO2 SLP218 T00670022","FM-15","7",,,,,,,,,,,,,,,,,,,,,,,,,,,"2007-05-17"
"72793524234","SEATTLE BOEING FIELD, WA US","47.54554","-122.31475","7.6","2024-03-12T21:53:00","FM-15","7",,,,,,,,,,,,,,,,,,,,,"30.20","36","44","0.00",,"-0.09","1","73","30.20","SCT:04 23 BKN:07 100","30.17","10.00","41","170",,"9",,,,,,,,,,,,,,,,,,,,,,,,,,,,,"MET11803/12/24 21:53:01 METAR KBFI 130553Z 17008KT 10SM SCT023 BKN100 07/02 A3020 RMK AO2 SLP227 T00670022 10100 20061 51029","FM-15","7",,,,,,,,,,,,,,,,,,,,,,,,,,,"2007-05-17"
"72793524234","SEATTLE BOEING FIELD, WA US","47.54554","-122.31475","7.6","2024-03-12T22:15:00","FM-16","7",,,,,,,,,,,,,,,,,,,,,"30.22","35","42",,,,,"76",,"BKN:07 21","30.19","10.00","39","130",,"8",,,,,,,,,,,,,,,,,,,,,,,,,,,,,"MET08603/12/24 22:15:01 SPECI KBFI 130615Z 13007KT 10SM BKN021 06/02 A3022 RMK AO2 T00560017","FM-16","7",,,,,,,,,,,,,,,,,,,,,,,,,,,"2007-05-17"
"72793524234","SEATTLE BOEING FIELD, WA US","47.54554","-122.31475","7.6","2024-03-12T22:53:00","FM-15","7",,,,,,,,,,,,,,,,,,,,,"30.23","36","42","0.00",,,,"79","30.23","OVC:08 20","30.20","10.00","39","150",,"9",,,,,,,,,,,,,,,,,,,,,,,,,,,,,"MET09303/12/24 22:53:01 METAR KBFI 130653Z 15008KT 10SM OVC020 06/02 A3023 RMK AO2 SLP237 T00560022","FM-15","7",,,,,,,,,,,,,,,,,,,,,,,,,,,"2007-05-17"
"72793524234","SEATTLE BOEING FIELD, WA US","47.54554","-122.31475","7.6","2024-03-12T23:53:00","FM-15","7",,,,,,,,,,,,,,,,,,,,,"30.25","35","43","0.00",,,,"74","30.25","OVC:08 21","30.22","10.00","40","160",,"8",,,,,,,,,,,,,,,,,,,,,,,,,,,,,"MET10303/12/24 23:53:01 METAR KBFI 130753Z 16007KT 10SM OVC021 06/02 A3025 RMK AO2 SLP243 T00610017 401060056","FM-15","7",,,,,,,,,,,,,,,,,,,,,,,,,,,"2007-05-17"
"72793524234","SEATTLE BOEING FIELD, WA US","47.54554","-122.31475","7.6","2024-03-12T23:59:00","SOD  ","6",,,,,"47","29.91","9.9","0","0.7","18","51","42","220","37","0.14","200","21","RA BR",,,,,,,,,,,,,,,,,,,,,,,,,,,,,,,,,,,,,,,,,,,,,,,"SOD73024 HR PRECIPITATION (IN):0.14  24 HR MAX TEMP (F):51 24 HR MAX TEMP TIME (LST):1501 24 HR MIN TEMP (F):42 24 HR MIN TEMP TIME (LST):2356 AVERAGE STATION PRESSURE:29.915 MINIMUM SEA LEVEL PRESSURE:29.66 TIME OF OCCURRENCE:0036 PEAK WIND SPEED (MPH):37  PEAK WIND DIR (DEG):220 PEAK WIND TIME (LST):1310  FASTEST 2MIN SPEED (MPH):21 FASTEST 2MIN DIR (DEG):200 FASTEST 2MIN TIME (LST):1019 AVERAGE WIND SPEED (MPH):9.9  24 HR AVG TEMP (F):47 HEATING DEGREE DAYS:18  COOLING DEGREE DAYS:0   LATEST DAY MAX TEMP (0700-1900 LST):51  LATEST NIGHT MIN TEMP(1900-0800 LST):46 HOURLY INCREMENTAL PRECIPITATION VALUES (IN):    0.04 T    T    0.07 0.01 0.01 0.01 0.00 T    0.00 0.00 T    0.00 0.00 0.00 0.00 0.00 0.00 0.00 0.00 0.00 0.00 0.00","SOD  ","6",,,,,,,,,,,,,,,,,,,,,,,,,"0627","1812","2007-05-17"
"72793524234","SEATTLE BOEING FIELD, WA US","47.54554","-122.31475","7.6","2024-03-13T00:53:00","FM-15","7",,,,,,,,,,,,,,,,,,,,,"30.28","36","43","0.00",,"-0.07","1","76","30.27","OVC:08 19","30.25","10.00","40","170",,"8",,,,,,,,,,,,,,,,,,,,,,,,,,,,,"MET10403/13/24 00:53:02 METAR KBFI 130853Z 17007KT 10SM OVC019 06/02 A3028 RMK AO2 SLP252 T00610022 51025 (MB)","FM-15","7",,,,,,,,,,,,,,,,,,,,,,,,,,,"2007-05-17"
"72793524234","SEATTLE BOEING FIELD, WA US","47.54554","-122.31475","7.6","2024-03-13T01:53:00","FM-15","7",,,,,,,,,,,,,,,,,,,,,"30.29","36","42","0.00",,,,"79","30.29","OVC:08 16","30.26","10.00","39","190",,"5",,,,,,,,,,,,,,,,,,,,,,,,,,,,,"MET09803/13/24 01:53:02 METAR KBFI 130953Z 19004KT 10SM OVC016 06/02 A3029 RMK AO2 SLP257 T00560022 (MB)","FM-15","7",,,,,,,,,,,,,,,,,,,,,,,,,,,"2007-05-17"
"72793524234","SEATTLE BOEING FIELD, WA US","47.54554","-122.31475","7.6","2024-03-13T02:53:00","FM-15","7",,,,,,,,,,,,,,,,,,,,,"30.30","36","42","0.00",,,,"79","30.30","OVC:08 15","30.27","10.00","39","150",,"5",,,,,,,,,,,,,,,,,,,,,,,,,,,,,"MET09803/13/24 02:53:02 METAR KBFI 131053Z 15004KT 10SM OVC015 06/02 A3030 RMK AO2 SLP261 T00560022 (MB)","FM-15","7",,,,,,,,,,,,,,,,,,,,,,,,,,,"2007-05-17"
"72793524234","SEATTLE BOEING FIELD, WA US","47.54554","-122.31475","7.6","2024-03-13T03:53:00","FM-15","7",,,,,,,,,,,,,,,,,,,,,"30.32","35","42","0.00",,"-0.04","3","76","30.32","OVC:08 15","30.29","10.00","39","160",,"8",,,,,,,,,,,,,,,,,,,,,,,,,,,,,"MET12203/13/24 03:53:02 METAR KBFI 131153Z 16007KT 10SM OVC015 06/02 A3032 RMK AO2 SLP267 70010 T00560017 10067 20056 53015 (HW)","FM-15","7",,,,,,,,,,,,,,,,,,,,,,,,,,,"2007-05-17"
"72793524234","SEATTLE BOEING FIELD, WA US","47.54554","-122.31475","7.6","2024-03-13T04:53:00","FM-15","7",,,,,,,,,,,,,,,,,,,,,"30.35","36","42","0.00",,,,"79","30.34","OVC:08 15","30.32","10.00","39","180",,"3",,,,,,,,,,,,,,,,,,,,,,,,,,,,,"MET09803/13/24 04:53:02 METAR KBFI 131253Z 18003KT 10SM OVC015 06/02 A3035 RMK AO2 SLP275 T00560022 (HW)","FM-15","7",,,,,,,,,,,,,,,,,,,,,,,,,,,"2007-05-17"
"72793524234","SEATTLE BOEING FIELD, WA US","47.54554","-122.31475","7.6","2024-03-13T05:53:00","FM-15","7",,,,,,,,,,,,,,,,,,,,,"30.37","36","42","0.00",,,,"79","30.37","OVC:08 15","30.34","10.00","39","VRB",,"3",,,,,,,,,,,,,,,,,,,,,,,,,,,,,"MET09803/13/24 05:53:02 METAR KBFI 131353Z VRB03KT 10SM OVC015 06/02 A3037 RMK AO2 SLP283 T00560022 (HW)","FM-15","7",,,,,,,,,,,,,,,,,,,,,,,,,,,"2007-05-17"
"72793524234","SEATTLE BOEING FIELD, WA US","47.54554","-122.31475","7.6","2024-03-13T06:53:00","FM-15","7",,,,,,,,,,,,,,,,,,,,,"30.39","36","42","0.00",,"-0.07","2","79","30.39","OVC:08 15","30.36","10.00","39","180",,"3",,,,,,,,,,,,,,,,,,,,,,,,,,,,,"MET10403/13/24 06:53:02 METAR KBFI 131453Z 18003KT 10SM OVC015 06/02 A3039 RMK AO2 SLP291 T00560022 52025 (HW)","FM-15","7",,,,,,,,,,,,,,,,,,,,,,,,,,,"2007-05-17"
"72793524234","SEATTLE BOEING FIELD, WA US","47.54554","-122.31475","7.6","2024-03-13T07:51:00","FM-16","6",,,,,,,,,,,,,,,,,,,,,"30.41","36","43",,,,,"76",,"OVC:08 13","30.38","10.00","40","180",,"5",,,,,,,,,,,,,,,,,,,,,,,,,,,,,"MET08603/13/24 07:51:02 SPECI KBFI 131551Z 18004KT 10SM OVC013 06/02 A3041 RMK AO2 FIBI (HW)","FM-16","6",,,,,,,,,,,,,,,,,,,,,,,,,,,"2007-05-17"
"72793524234","SEATTLE BOEING FIELD, WA US","47.54554","-122.31475","7.6","2024-03-13T07:53:00","FM-15","7",,,,,,,,,,,,,,,,,,,,,"30.41","36","42","0.00",,,,"79","30.40","OVC:08 13","30.38","10.00","39","VRB",,"3",,,,,,,,,,,,,,,,,,,,,,,,,,,,,"MET09803/13/24 07:53:02 METAR KBFI 131553Z VRB03KT 10SM OVC013 06/02 A3041 RMK AO2 SLP295 T00560022 (HW)","FM-15","7",,,,,,,,,,,,,,,,,,,,,,,,,,,"2007-05-17"
"72793524234","SEATTLE BOEING FIELD, WA US","47.54554","-122.31475","7.6","2024-03-13T08:51:00","FM-16","6",,,,,,,,,,,,,,,,,,,,,"30.43","37","43",,,,,"81",,"OVC:08 15","30.40","10.00","40","000",,"0",,,,,,,,,,,,,,,,,,,,,,,,,,,,,"MET08603/13/24 08:51:02 SPECI KBFI 131651Z 00000KT 10SM OVC015 06/03 A3043 RMK AO2 FIBI (HW)","FM-16","6",,,,,,,,,,,,,,,,,,,,,,,,,,,"2007-05-17"
"72793524234","SEATTLE BOEING FIELD, WA US","47.54554","-122.31475","7.6","2024-03-13T08:53:00","FM-15","7",,,,,,,,,,,,,,,,,,,,,"30.43","37","43","0.00",,,,"80","30.43","OVC:08 15","30.40","10.00","40","000",,"0",,,,,,,,,,,,,,,,,,,,,,,,,,,,,"MET09803/13/24 08:53:02 METAR KBFI 131653Z 00000KT 10SM OVC015 06/03 A3043 RMK AO2 SLP304 T00610028 (HW)","FM-15","7",,,,,,,,,,,,,,,,,,,,,,,,,,,"2007-05-17"
"72793524234","SEATTLE BOEING FIELD, WA US","47.54554","-122.31475","7.6","2024-03-13T09:53:00","FM-15","7",,,,,,,,,,,,,,,,,,,,,"30.44","36","45","0.00",,"-0.05","1","71","30.44","BKN:07 22","30.41","10.00","41","120",,"3",,,,,,,,,,,,,,,,,,,,,,,,,,,,,"MET11603/13/24 09:53:02 METAR KBFI 131753Z 12003KT 10SM BKN022 07/02 A3044 RMK AO2 SLP307 T00720022 10072 20056 51016 (HW)","FM-15","7",,,,,,,,,,,,,,,,,,,,,,,,,,,"2007-05-17"
"72793524234","SEATTLE BOEING FIELD, WA US","47.54554","-122.31475","7.6","2024-03-13T10:53:00","FM-15","7",,,,,,,,,,,,,,,,,,,,,"30.44","36","47","0.00",,,,"66","30.44","BKN:07 22","30.41","10.00","42","170",,"5",,,,,,,,,,,,,,,,,,,,,,,,,,,,,"MET09803/13/24 10:53:02 METAR KBFI 131853Z 17004KT 10SM BKN022 08/02 A3044 RMK AO2 SLP308 T00830022 (HW)","FM-15","7",,,,,,,,,,,,,,,,,,,,,,,,,,,"2007-05-17"
"72793524234","SEATTLE BOEING FIELD, WA US","47.54554","-122.31475","7.6","2024-03-13T11:53:00","FM-15","7",,,,,,,,,,,,,,,,,,,,,"30.45","35","49","0.00",,,,"59","30.45","BKN:07 22","30.42","10.00","43","000",,"0",,,,,,,,,,,,,,,,,,,,,,,,,,,,,"MET09803/13/24 11:53:02 METAR KBFI 131953Z 00000KT 10SM BKN022 09/02 A3045 RMK AO2 SLP311 T00940017 (HW)","FM-15","7",,,,,,,,,,,,,,,,,,,,,,,,,,,"2007-05-17"
"72793524234","SEATTLE BOEING FIELD, WA US","47.54554","-122.31475","7.6","2024-03-13T12:45:00","FM-16","7",,,,,,,,,,,,,,,,,,,,,"30.44","36","50",,,,,"59",,"SCT:04 36","30.41","10.00","44","VRB",,"6",,,,,,,,,,,,,,,,,,,,,,,,,,,,,"MET09103/13/24 12:45:02 SPECI KBFI 132045Z VRB05KT 10SM SCT036 10/02 A3044 RMK AO2 T01000022 (HW)","FM-16","7",,,,,,,,,,,,,,,,,,,,,,,,,,,"2007-05-17"
"72793524234","SEATTLE BOEING FIELD, WA US","47.54554","-122.31475","7.6","2024-03-13T12:53:00","FM-15","7",,,,,,,,,,,,,,,,,,,,,"30.44","35","49","0.00",,"0.00","0","59","30.44","SCT:04 36","30.41","10.00","43","VRB",,"5",,,,,,,,,,,,,,,,,,,,,,,,,,,,,"MET09903/13/24 12:53:02 METAR KBFI 132053Z VRB04KT 10SM SCT036 09/02 A3044 RMK AO2 SLP308 T00940017 50001","FM-15","7",,,,,,,,,,,,,,,,,,,,,,,,,,,"2007-05-17"
"72793524234","SEATTLE BOEING FIELD, WA US","47.54554","-122.31475","7.6","2024-03-13T13:53:00","FM-15","7",,,,,,,,,,,,,,,,,,,,,"30.45","29","51","0.00",,,,"43","30.45","FEW:02 42 SCT:04 50","30.42","10.00","42","VRB",,"5",,,,,,,,,,,,,,,,,,,,,,,,,,,,,"MET10603/13/24 13:53:02 METAR KBFI 132153Z VRB04KT 10SM FEW042 SCT050 11/M02 A3045 RMK AO2 SLP310 T01061017 (KT)","FM-15","7",,,,,,,,,,,,,,,,,,,,,,,,,,,"2007-05-17"
"72793524234","SEATTLE BOEING FIELD, WA US","47.54554","-122.31475","7.6","2024-03-13T14:53:00","FM-15","7",,,,,,,,,,,,,,,,,,,,,"30.46","31","53","0.00",,,,"43","30.46","CLR:00","30.43","10.00","43","VRB",,"5",,,,,,,,,,,,,,,,,,,,,,,,,,,,,"MET09603/13/24 14:53:02 METAR KBFI 132253Z VRB04KT 10SM CLR 12/M01 A3046 RMK AO2 SLP314 T01171006 (KT)","FM-15","7",,,,,,,,,,,,,,,,,,,,,,,,,,,"2007-05-17"
"72793524234","SEATTLE BOEING FIELD, WA US","47.54554","-122.31475","7.6","2024-03-13T15:53:00","FM-15","7",,,,,,,,,,,,,,,,,,,,,"30.46","35","52","0.00",,"-0.01","0","53","30.45","FEW:02 60","30.43","10.00","44","310",,"8",,,,,,,,,,,,,,,,,,,,,,,,,,,,,"MET11603/13/24 15:53:02 METAR KBFI 132353Z 31007KT 10SM FEW060 11/02 A3046 RMK AO2 SLP313 T01110017 10122 20072 50004 (KT)","FM-15","7",,,,,,,,,,,,,,,,,,,,,,,,,,,"2007-05-17"
"72793524234","SEATTLE BOEING FIELD, WA US","47.54554","-122.31475","7.6","2024-03-13T16:53:00","FM-15","7",,,,,,,,,,,,,,,,,,,,,"30.46","31","53","0.00",,,,"43","30.46","CLR:00","30.43","10.00","43","310",,"7",,,,,,,,,,,,,,,,,,,,,,,,,,,,,"MET09103/13/24 16:53:01 METAR KBFI 140053Z 31006KT 10SM CLR 12/M01 A3046 RMK AO2 SLP314 T01171006","FM-15","7",,,,,,,,,,,,,,,,,,,,,,,,,,,"2007-05-17"
"72793524234","SEATTLE BOEING FIELD, WA US","47.54554","-122.31475","7.6","2024-03-13T17:53:00","FM-15","7",,,,,,,,,,,,,,,,,,,,,"30.47","32","51","0.00",,,,"48","30.47","FEW:02 35","30.44","10.00","43","000",,"0",,,,,,,,,,,,,,,,,,,,,,,,,,,,,"MET09303/13/24 17:53:01 METAR KBFI 140153Z 00000KT 10SM FEW035 11/00 A3047 RMK AO2 SLP317 T01060000","FM-15","7",,,,,,,,,,,,,,,,,,,,,,,,,,,"2007-05-17"
"72793524234","SEATTLE BOEING FIELD, WA US","47.54554","-122.31475","7.6","2024-03-13T18:53:00","FM-15","7",,,,,,,,,,,,,,,,,,,,,"30.48","33","49","0.00",,"-0.02","3","55","30.47","CLR:00","30.45","10.00","42","000",,"0",,,,,,,,,,,,,,,,,,,,,,,,,,,,,"MET09603/13/24 18:53:01 METAR KBFI 140253Z 00000KT 10SM CLR 09/01 A3048 RMK AO2 SLP319 T00940006 53006","FM-15","7",,,,,,,,,,,,,,,,,,,,,,,,,,,"2007-05-17"
"72793524234","SEATTLE BOEING FIELD, WA US","47.54554","-122.31475","7.6","2024-03-13T19:53:00","FM-15","7",,,,,,,,,,,,,,,,,,,,,"30.49","33","47","0.00",,,,"59","30.48","CLR:00","30.46","10.00","41","000",,"0",,,,,,,,,,,,,,,,,,,,,,,,,,,,,"MET09003/13/24 19:53:01 METAR KBFI 140353Z 00000KT 10SM CLR 08/01 A3049 RMK AO2 SLP323 T00830006","FM-15","7",,,,,,,,,,,,,,,,,,,,,,,,,,,"2007-05-17"
"72793524234","SEATTLE BOEING FIELD, WA US","47.54554","-122.31475","7.6","2024-03-13T20:53:00","FM-15","7",,,,,,,,,,,,,,,,,,,,,"30.50","33","44","0.00",,,,"65","30.50","CLR:00","30.47","10.00","39","000",,"0",,,,,,,,,,,,,,,,,,,,,,,,,,,,,"MET09003/13/24 20:53:01 METAR KBFI 140453Z 00000KT 10SM CLR 07/01 A3050 RMK AO2 SLP327 T00670006","FM-15","7",,,,,,,,,,,,,,,,,,,,,,,,,,,"2007-05-17"
"72793524234","SEATTLE BOEING FIELD, WA US","47.54554","-122.31475","7.6","2024-03-13T21:53:00","FM-15","7",,,,,,,,,,,,,,,,,,,,,"30.51","34","44","0.00",,"-0.03","3","68","30.51","CLR:00","30.48","10.00","40","000",,"0",,,,,,,,,,,,,,,,,,,,,,,,,,,,,"MET10803/13/24 21:53:01 METAR KBFI 140553Z 00000KT 10SM CLR 07/01 A3051 RMK AO2 SLP331 T00670011 10117 20061 53011","FM-15","7",,,,,,,,,,,,,,,,,,,,,,,,,,,"2007-05-17"
"72793524234","SEATTLE BOEING FIELD, WA US","47.54554","-122.31475","7.6","2024-03-13T22:53:00","FM-15","7",,,,,,,,,,,,,,,,,,,,,"30.52","35","43","0.00",,,,"74","30.52","CLR:00","30.49","10.00","40","000",,"0",,,,,,,,,,,,,,,,,,,,,,,,,,,,,"MET09003/13/24 22:53:01 METAR KBFI 140653Z 00000KT 10SM CLR 06/02 A3052 RMK AO2 SLP335 T00610017","FM-15","7",,,,,,,,,,,,,,,,,,,,,,,,,,,"2007-05-17"
"72793524234","SEATTLE BOEING FIELD, WA US","47.54554","-122.31475","7.6","2024-03-13T23:53:00","FM-15","7",,,,,,,,,,,,,,,,,,,,,"30.52","34","41","0.00",,,,"76","30.52","CLR:00","30.49","10.00","38","000",,"0",,,,,,,,,,,,,,,,,,,,,,,,,,,,,"MET10003/13/24 23:53:01 METAR KBFI 140753Z 00000KT 10SM CLR 05/01 A3052 RMK AO2 SLP336 T00500011 401220050","FM-15","7",,,,,,,,,,,,,,,,,,,,,,,,,,,"2007-05-17"
"72793524234","SEATTLE BOEING FIELD, WA US","47.54554","-122.31475","7.6","2024-03-13T23:59:00","SOD  ","6",,,,,"48","30.40","3.2","0","1.5","17","54","41","190","17","0.00","160","10",,,,,,,,,,,,,,,,,,,,,,,,,,,,,,,,,,,,,,,,,,,,,,,,"SOD73024 HR PRECIPITATION (IN):0.00  24 HR MAX TEMP (F):54 24 HR MAX TEMP TIME (LST):1450 24 HR MIN TEMP (F):41 24 HR MIN TEMP TIME (LST):2356 AVERAGE STATION PRESSURE:30.395 MINIMUM SEA LEVEL PRESSURE:30.25 TIME OF OCCURRENCE:0020 PEAK WIND SPEED (MPH):17  PEAK WIND DIR (DEG):190 PEAK WIND TIME (LST):0343  FASTEST 2MIN SPEED (MPH):10 FASTEST 2MIN DIR (DEG):160 FASTEST 2MIN TIME (LST):0343 AVERAGE WIND SPEED (MPH):3.2  24 HR AVG TEMP (F):48 HEATING DEGREE DAYS:17  COOLING DEGREE DAYS:0   LATEST DAY MAX TEMP (0700-1900 LST):54  LATEST NIGHT MIN TEMP(1900-0800 LST):42 HOURLY INCREMENTAL PRECIPITATION VALUES (IN):.00 0.00 0.00 0.00 0.00 0.00 0.00 0.00 0.00 0.00 0.00 0.00 0.00 0.00 0.00 0.00 0.00 0.00 0.00 0.00 0.00 0.00 0.00 0.00","SOD  ","6",,,,,,,,,,,,,,,,,,,,,,,,,"0625","1813","2007-05-17"
"72793524234","SEATTLE BOEING FIELD, WA US","47.54554","-122.31475","7.6","2024-03-14T00:53:00","FM-15","7",,,,,,,,,,,,,,,,,,,,,"30.53","33","39","0.00",,"-0.02","1","79","30.53","CLR:00","30.50","10.00","37","000",,"0",,,,,,,,,,,,,,,,,,,,,,,,,,,,,"MET10103/14/24 00:53:02 METAR KBFI 140853Z 00000KT 10SM CLR 04/01 A3053 RMK AO2 SLP339 T00390006 51008 (RC)","FM-15","7",,,,,,,,,,,,,,,,,,,,,,,,,,,"2007-05-17"
"72793524234","SEATTLE BOEING FIELD, WA US","47.54554","-122.31475","7.6","2024-03-14T01:53:00","FM-15","7",,,,,,,,,,,,,,,,,,,,,"30.54","33","40","0.00",,,,"77","30.54","CLR:00","30.51","10.00","37","000",,"0",,,,,,,,,,,,,,,,,,,,,,,,,,,,,"MET09503/14/24 01:53:02 METAR KBFI 140953Z 00000KT 10SM CLR 04/01 A3054 RMK AO2 SLP342 T00440006 (RC)","FM-15","7",,,,,,,,,,,,,,,,,,,,,,,,,,,"2007-05-17"
"72793524234","SEATTLE BOEING FIELD, WA US","47.54554","-122.31475","7.6","2024-03-14T02:53:00","FM-15","7",,,,,,,,,,,,,,,,,,,,,"30.54","33","38","0.00",,,,"83","30.54","CLR:00","30.51","10.00","36","000",,"0",,,,,,,,,,,,,,,,,,,,,,,,,,,,,"MET09503/14/24 02:53:02 METAR KBFI 141053Z 00000KT 10SM CLR 03/01 A3054 RMK AO2 SLP341 T00330006 (RC)","FM-15","7",,,,,,,,,,,,,,,,,,,,,,,,,,,"2007-05-17"
"72793524234","SEATTLE BOEING FIELD, WA US","47.54554","-122.31475","7.6","2024-03-14T03:53:00","FM-15","7",,,,,,,,,,,,,,,,,,,,,"30.54","33","37","0.00",,"-0.01","1","86","30.54","CLR:00","30.51","10.00","35","000",,"0",,,,,,,,,,,,,,,,,,,,,,,,,,,,,"MET11303/14/24 03:53:02 METAR KBFI 141153Z 00000KT 10SM CLR 03/01 A3054 RMK AO2 SLP342 T00280006 10067 20022 51003 (RC)","FM-15","7",,,,,,,,,,,,,,,,,,,,,,,,,,,"2007-05-17"
"72793524234","SEATTLE BOEING FIELD, WA US","47.54554","-122.31475","7.6","2024-03-14T04:53:00","FM-15","7",,,,,,,,,,,,,,,,,,,,,"30.54","33","37","0.00",,,,"86","30.54","CLR:00","30.51","10.00","35","000",,"0",,,,,,,,,,,,,,,,,,,,,,,,,,,,,"MET09503/14/24 04:53:02 METAR KBFI 141253Z 00000KT 10SM CLR 03/01 A3054 RMK AO2 SLP341 T00280006 (RC)","FM-15","7",,,,,,,,,,,,,,,,,,,,,,,,,,,"2007-05-17"
"72793524234","SEATTLE BOEING FIELD, WA US","47.54554","-122.31475","7.6","2024-03-14T05:53:00","FM-15","7",,,,,,,,,,,,,,,,,,,,,"30.55","33","37","0.00",,,,"86","30.55","CLR:00","30.52","10.00","35","000",,"0",,,,,,,,,,,,,,,,,,,,,,,,,,,,,"MET09503/14/24 05:53:02 METAR KBFI 141353Z 00000KT 10SM CLR 03/01 A3055 RMK AO2 SLP344 T00280006 (RC)","FM-15","7",,,,,,,,,,,,,,,,,,,,,,,,,,,"2007-05-17"
"72793524234","SEATTLE BOEING FIELD, WA US","47.54554","-122.31475","7.6","2024-03-14T06:53:00","FM-15","7",,,,,,,,,,,,,,,,,,,,,"30.55","33","37","0.00",,"0.00","3","86","30.54","SCT:04 200","30.52","10.00","35","150",,"3",,,,,,,,,,,,,,,,,,,,,,,,,,,,,"MET10403/14/24 06:53:02 METAR KBFI 141453Z 15003KT 10SM SCT200 03/01 A3055 RMK AO2 SLP343 T00280006 53001 (RC)","FM-15","7",,,,,,,,,,,,,,,,,,,,,,,,,,,"2007-05-17"
"72793524234","SEATTLE BOEING FIELD, WA US","47.54554","-122.31475","7.6","2024-03-14T07:53:00","FM-15","7",,,,,,,,,,,,,,,,,,,,,"30.54","34","39","0.00",,,,"82","30.54","CLR:00","30.51","10.00","37","000",,"0",,,,,,,,,,,,,,,,,,,,,,,,,,,,,"MET09503/14/24 07:53:02 METAR KBFI 141553Z 00000KT 10SM CLR 04/01 A3054 RMK AO2 SLP342 T00390011 (TA)","FM-15","7",,,,,,,,,,,,,,,,,,,,,,,,,,,"2007-05-17"
"72793524234","SEATTLE BOEING FIELD, WA US","47.54554","-122.31475","7.6","2024-03-14T08:53:00","FM-15","7",,,,,,,,,,,,,,,,,,,,,"30.54","35","43","0.00",,,,"74","30.53","CLR:00","30.51","10.00","40","000",,"0",,,,,,,,,,,,,,,,,,,,,,,,,,,,,"MET09503/14/24 08:53:02 METAR KBFI 141653Z 00000KT 10SM CLR 06/02 A3054 RMK AO2 SLP340 T00610017 (TA)","FM-15","7",,,,,,,,,,,,,,,,,,,,,,,,,,,"2007-05-17"
"72793524234","SEATTLE BOEING FIELD, WA US","47.54554","-122.31475","7.6","2024-03-14T09:53:00","FM-15","7",,,,,,,,,,,,,,,,,,,,,"30.52","35","47","0.00",,"0.02","8","63","30.52","CLR:00","30.49","10.00","42","000",,"0",,,,,,,,,,,,,,,,,,,,,,,,,,,,,"MET11303/14/24 09:53:02 METAR KBFI 141753Z 00000KT 10SM CLR 08/02 A3052 RMK AO2 SLP335 T00830017 10083 20017 58008 (TA)","FM-15","7",,,,,,,,,,,,,,,,,,,,,,,,,,,"2007-05-17"
"72793524234","SEATTLE BOEING FIELD, WA US","47.54554","-122.31475","7.6","2024-03-14T10:53:00","FM-15","7",,,,,,,,,,,,,,,,,,,,,"30.52","36","51","0.00",,,,"56","30.51","SCT:04 200","30.49","10.00","44","VRB",,"6",,,,,,,,,,,,,,,,,,,,,,,,,,,,,"MET09803/14/24 10:53:02 METAR KBFI 141853Z VRB05KT 10SM SCT200 11/02 A3052 RMK AO2 SLP333 T01060022 (TA)","FM-15","7",,,,,,,,,,,,,,,,,,,,,,,,,,,"2007-05-17"
"72793524234","SEATTLE BOEING FIELD, WA US","47.54554","-122.31475","7.6","2024-03-14T11:53:00","FM-15","7",,,,,,,,,,,,,,,,,,,,,"30.49","37","52","0.00",,,,"57","30.49","CLR:00","30.46","10.00","45","310",,"5",,,,,,,,,,,,,,,,,,,,,,,,,,,,,"MET09503/14/24 11:53:02 METAR KBFI 141953Z 31004KT 10SM CLR 11/03 A3049 RMK AO2 SLP325 T01110028 (TA)","FM-15","7",,,,,,,,,,,,,,,,,,,,,,,,,,,"2007-05-17"
"72793524234","SEATTLE BOEING FIELD, WA US","47.54554","-122.31475","7.6","2024-03-14T12:53:00","FM-15","6",,,,,,,,,,,,,,,,,,,,,"30.47","37","54","0.00",,"0.05","8","53","30.47","CLR:00","30.44","10.00","46","VRB",,"5",,,,,,,,,,,,,,,,,,,,,,,,,,,,,"MET10103/14/24 12:53:02 METAR KBFI 142053Z VRB04KT 10SM CLR 12/03 A3047 RMK AO2 SLP317 T01220028 58018 (TA)","FM-15","6",,,,,,,,,,,,,,,,,,,,,,,,,,,"2007-05-17"
"72793524234","SEATTLE BOEING FIELD, WA US","47.54554","-122.31475","7.6","2024-03-14T13:53:00","FM-15","7",,,,,,,,,,,,,,,,,,,,,"30.44","38","54","0.00",,,,"55","30.44","CLR:00","30.41","10.00","47","300",,"9",,,,,,,,,,,,,,,,,,,,,,,,,,,,,"MET09503/14/24 13:53:02 METAR KBFI 142153Z 30008KT 10SM CLR 12/03 A3044 RMK AO2 SLP307 T01220033 (TA)","FM-15","7",,,,,,,,,,,,,,,,,,,,,,,,,,,"2007-05-17"
"72793524234","SEATTLE BOEING FIELD, WA US","47.54554","-122.31475","7.6","2024-03-14T14:53:00","FM-15","7",,,,,,,,,,,,,,,,,,,,,"30.42","36","55","0.00",,,,"49","30.42","CLR:00","30.39","10.00","46","300",,"9",,,,,,,,,,,,,,,,,,,,,,,,,,,,,"MET09503/14/24 14:53:02 METAR KBFI 142253Z 30008KT 10SM CLR 13/02 A3042 RMK AO2 SLP300 T01280022 (TA)","FM-15","7",,,,,,,,,,,,,,,,,,,,,,,,,,,"2007-05-17"
"72793524234","SEATTLE BOEING FIELD, WA US","47.54554","-122.31475","7.6","2024-03-14T15:53:00","FM-15","7",,,,,,,,,,,,,,,,,,,,,"30.40","34","55","0.00",,"0.06","6","45","30.40","CLR:00","30.37","10.00","45","300","17","9",,,,,,,,,,,,,,,,,,,,,,,,,,,,,"MET11603/14/24 15:53:02 METAR KBFI 142353Z 30008G15KT 10SM CLR 13/01 A3040 RMK AO2 SLP295 T01280011 10133 20083 56022 (TA)","FM-15","7",,,,,,,,,,,,,,,,,,,,,,,,,,,"2007-05-17"
"72793524234","SEATTLE BOEING FIELD, WA US","47.54554","-122.31475","7.6","2024-03-14T16:53:00","FM-15","7",,,,,,,,,,,,,,,,,,,,,"30.39","36","54","0.00",,,,"51","30.39","CLR:00","30.36","10.00","46","310","17","8",,,,,,,,,,,,,,,,,,,,,,,,,,,,,"MET09303/14/24 16:53:01 METAR KBFI 150053Z 31007G15KT 10SM CLR 12/02 A3039 RMK AO2 SLP292 T01220022","FM-15","7",,,,,,,,,,,,,,,,,,,,,,,,,,,"2007-05-17"
"72793524234","SEATTLE BOEING FIELD, WA US","47.54554","-122.31475","7.6","2024-03-14T17:53:00","FM-15","7",,,,,,,,,,,,,,,,,,,,,"30.39","38","52","0.00",,,,"59","30.39","CLR:00","30.36","10.00","46","320",,"7",,,,,,,,,,,,,,,,,,,,,,,,,,,,,"MET09003/14/24 17:53:01 METAR KBFI 150153Z 32006KT 10SM CLR 11/03 A3039 RMK AO2 SLP290 T01110033","FM-15","7",,,,,,,,,,,,,,,,,,,,,,,,,,,"2007-05-17"
"72793524234","SEATTLE BOEING FIELD, WA US","47.54554","-122.31475","7.6","2024-03-14T18:53:00","FM-15","7",,,,,,,,,,,,,,,,,,,,,"30.38","39","50","0.00",,"0.02","6","66","30.38","CLR:00","30.35","10.00","45","330",,"6",,,,,,,,,,,,,,,,,,,,,,,,,,,,,"MET09603/14/24 18:53:01 METAR KBFI 150253Z 33005KT 10SM CLR 10/04 A3038 RMK AO2 SLP287 T01000039 56008","FM-15","7",,,,,,,,,,,,,,,,,,,,,,,,,,,"2007-05-17"
"72793524234","SEATTLE BOEING FIELD, WA US","47.54554","-122.31475","7.6","2024-03-14T19:53:00","FM-15","7",,,,,,,,,,,,,,,,,,,,,"30.38","39","49","0.00",,,,"69","30.38","CLR:00","30.35","10.00","44","310",,"3",,,,,,,,,,,,,,,,,,,,,,,,,,,,,"MET09003/14/24 19:53:02 METAR KBFI 150353Z 31003KT 10SM CLR 09/04 A3038 RMK AO2 SLP287 T00940039","FM-15","7",,,,,,,,,,,,,,,,,,,,,,,,,,,"2007-05-17"
"72793524234","SEATTLE BOEING FIELD, WA US","47.54554","-122.31475","7.6","2024-03-14T20:53:00","FM-15","7",,,,,,,,,,,,,,,,,,,,,"30.38","39","49","0.00",,,,"69","30.38","CLR:00","30.35","10.00","44","000",,"0",,,,,,,,,,,,,,,,,,,,,,,,,,,,,"MET09003/14/24 20:53:02 METAR KBFI 150453Z 00000KT 10SM CLR 09/04 A3038 RMK AO2 SLP288 T00940039","FM-15","7",,,,,,,,,,,,,,,,,,,,,,,,,,,"2007-05-17"
"72793524234","SEATTLE BOEING FIELD, WA US","47.54554","-122.31475","7.6","2024-03-14T21:53:00","FM-15","7",,,,,,,,,,,,,,,,,,,,,"30.38","38","48","0.00",,"0.01","8","68","30.37","CLR:00","30.35","10.00","43","350",,"3",,,,,,,,,,,,,,,,,,,,,,,,,,,,,"MET10803/14/24 21:53:02 METAR KBFI 150553Z 35003KT 10SM CLR 09/03 A3038 RMK AO2 SLP286 T00890033 10133 20083 58002","FM-15","7",,,,,,,,,,,,,,,,,,,,,,,,,,,"2007-05-17"
"72793524234","SEATTLE BOEING FIELD, WA US","47.54554","-122.31475","7.6","2024-03-14T22:53:00","FM-15","7",,,,,,,,,,,,,,,,,,,,,"30.36","37","47","0.00",,,,"69","30.36","CLR:00","30.33","10.00","43","000",,"0",,,,,,,,,,,,,,,,,,,,,,,,,,,,,"MET09003/14/24 22:53:02 METAR KBFI 150653Z 00000KT 10SM CLR 08/03 A3036 RMK AO2 SLP281 T00830028","FM-15","7",,,,,,,,,,,,,,,,,,,,,,,,,,,"2007-05-17"
"72793524234","SEATTLE BOEING FIELD, WA US","47.54554","-122.31475","7.6","2024-03-14T23:53:00","FM-15","7",,,,,,,,,,,,,,,,,,,,,"30.35","37","46","0.00",,,,"71","30.35","CLR:00","30.32","10.00","42","340",,"5",,,,,,,,,,,,,,,,,,,,,,,,,,,,,"MET10003/14/24 23:53:02 METAR KBFI 150753Z 34004KT 10SM CLR 08/03 A3035 RMK AO2 SLP278 T00780028 401330017","FM-15","7",,,,,,,,,,,,,,,,,,,,,,,,,,,"2007-05-17"
"72793524234","SEATTLE BOEING FIELD, WA US","47.54554","-122.31475","7.6","2024-03-14T23:59:00","SOD  ","6",,,,,"46","30.42","3.3","0","-0.7","19","56","35","300","18","0.00","300","12",,,,,,,,,,,,,,,,,,,,,,,,,,,,,,,,,,,,,,,,,,,,,,,,"SOD73024 HR PRECIPITATION (IN):0.00  24 HR MAX TEMP (F):56 24 HR MAX TEMP TIME (LST):1622 24 HR MIN TEMP (F):35 24 HR MIN TEMP TIME (LST):0703 AVERAGE STATION PRESSURE:30.425 MINIMUM SEA LEVEL PRESSURE:30.35 TIME OF OCCURRENCE:2359 PEAK WIND SPEED (MPH):18  PEAK WIND DIR (DEG):300 PEAK WIND TIME (LST):1619  FASTEST 2MIN SPEED (MPH):12 FASTEST 2MIN DIR (DEG):300 FASTEST 2MIN TIME (LST):1418 AVERAGE WIND SPEED (MPH):3.3  24 HR AVG TEMP (F):46 HEATING DEGREE DAYS:19  COOLING DEGREE DAYS:0   LATEST DAY MAX TEMP (0700-1900 LST):56  LATEST NIGHT MIN TEMP(1900-0800 LST):35 HOURLY INCREMENTAL PRECIPITATION VALUES (IN):.00 0.00 0.00 0.00 0.00 0.00 0.00 0.00 0.00 0.00 0.00 0.00 0.00 0.00 0.00 0.00 0.00 0.00 0.00 0.00 0.00 0.00 0.00 0.00","SOD  ","6",,,,,,,,,,,,,,,,,,,,,,,,,"0623","1815","2007-05-17"
"72793524234","SEATTLE BOEING FIELD, WA US","47.54554","-122.31475","7.6","2024-03-15T00:53:00","FM-15","7",,,,,,,,,,,,,,,,,,,,,"30.34","37","45","0.00",,"0.04","8","74","30.34","CLR:00","30.31","10.00","41","000",,"0",,,,,,,,,,,,,,,,,,,,,,,,,,,,,"MET10103/15/24 00:53:02 METAR KBFI 150853Z 00000KT 10SM CLR 07/03 A3034 RMK AO2 SLP273 T00720028 58013 (MB)","FM-15","7",,,,,,,,,,,,,,,,,,,,,,,,,,,"2007-05-17"
"72793524234","SEATTLE BOEING FIELD, WA US","47.54554","-122.31475","7.6","2024-03-15T01:53:00","FM-15","7",,,,,,,,,,,,,,,,,,,,,"30.32","37","44","0.00",,,,"76","30.32","CLR:00","30.29","10.00","41","350",,"3",,,,,,,,,,,,,,,,,,,,,,,,,,,,,"MET09503/15/24 01:53:02 METAR KBFI 150953Z 35003KT 10SM CLR 07/03 A3032 RMK AO2 SLP267 T00670028 (MB)","FM-15","7",,,,,,,,,,,,,,,,,,,,,,,,,,,"2007-05-17"
"72793524234","SEATTLE BOEING FIELD, WA US","47.54554","-122.31475","7.6","2024-03-15T02:53:00","FM-15","7",,,,,,,,,,,,,,,,,,,,,"30.32","38","44","0.00",,,,"79","30.32","CLR:00","30.29","10.00","41","000",,"0",,,,,,,,,,,,,,,,,,,,,,,,,,,,,"MET09503/15/24 02:53:02 METAR KBFI 151053Z 00000KT 10SM CLR 07/03 A3032 RMK AO2 SLP266 T00670033 (MB)","FM-15","7",,,,,,,,,,,,,,,,,,,,,,,,,,,"2007-05-17"
"72793524234","SEATTLE BOEING FIELD, WA US","47.54554","-122.31475","7.6","2024-03-15T03:53:00","FM-15","7",,,,,,,,,,,,,,,,,,,,,"30.31","38","44","0.00",,"0.02","6","79","30.31","CLR:00","30.28","10.00","41","330",,"3",,,,,,,,,,,,,,,,,,,,,,,,,,,,,"MET11303/15/24 03:53:02 METAR KBFI 151153Z 33003KT 10SM CLR 07/03 A3031 RMK AO2 SLP265 T00670033 10089 20067 56008 (MB)","FM-15","7",,,,,,,,,,,,,,,,,,,,,,,,,,,"2007-05-17"
"72793524234","SEATTLE BOEING FIELD, WA US","47.54554","-122.31475","7.6","2024-03-15T04:53:00","FM-15","7",,,,,,,,,,,,,,,,,,,,,"30.31","38","44","0.00",,,,"79","30.30","CLR:00","30.28","10.00","41","VRB",,"3",,,,,,,,,,,,,,,,,,,,,,,,,,,,,"MET09503/15/24 04:53:02 METAR KBFI 151253Z VRB03KT 10SM CLR 07/03 A3031 RMK AO2 SLP262 T00670033 (MB)","FM-15","7",,,,,,,,,,,,,,,,,,,,,,,,,,,"2007-05-17"
"72793524234","SEATTLE BOEING FIELD, WA US","47.54554","-122.31475","7.6","2024-03-15T05:53:00","FM-15","7",,,,,,,,,,,,,,,,,,,,,"30.30","38","44","0.00",,,,"79","30.29","CLR:00","30.27","10.00","41","330",,"3",,,,,,,,,,,,,,,,,,,,,,,,,,,,,"MET09503/15/24 05:53:02 METAR KBFI 151353Z 33003KT 10SM CLR 07/03 A3030 RMK AO2 SLP259 T00670033 (SN)","FM-15","7",,,,,,,,,,,,,,,,,,,,,,,,,,,"2007-05-17"
"72793524234","SEATTLE BOEING FIELD, WA US","47.54554","-122.31475","7.6","2024-03-15T06:53:00","FM-15","7",,,,,,,,,,,,,,,,,,,,,"30.29","39","43","0.00",,"0.02","6","86","30.29","CLR:00","30.26","10.00","41","310",,"3",,,,,,,,,,,,,,,,,,,,,,,,,,,,,"MET10103/15/24 06:53:02 METAR KBFI 151453Z 31003KT 10SM CLR 06/04 A3029 RMK AO2 SLP257 T00610039 56007 (SN)","FM-15","7",,,,,,,,,,,,,,,,,,,,,,,,,,,"2007-05-17"
"72793524234","SEATTLE BOEING FIELD, WA US","47.54554","-122.31475","7.6","2024-03-15T07:53:00","FM-15","7",,,,,,,,,,,,,,,,,,,,,"30.29","40","47","0.00",,,,"77","30.29","CLR:00","30.26","10.00","44","VRB",,"6",,,,,,,,,,,,,,,,,,,,,,,,,,,,,"MET09503/15/24 07:53:02 METAR KBFI 151553Z VRB05KT 10SM CLR 08/04 A3029 RMK AO2 SLP256 T00830044 (SN)","FM-15","7",,,,,,,,,,,,,,,,,,,,,,,,,,,"2007-05-17"
"72793524234","SEATTLE BOEING FIELD, WA US","47.54554","-122.31475","7.6","2024-03-15T08:53:00","FM-15","7",,,,,,,,,,,,,,,,,,,,,"30.27","41","52","0.00",,,,"66","30.27","CLR:00","30.24","9.00","47","030",,"5",,,,,,,,,,,,,,,,,,,,,,,,,,,,,"MET09403/15/24 08:53:02 METAR KBFI 151653Z 03004KT 9SM CLR 11/05 A3027 RMK AO2 SLP249 T01110050 (SN)","FM-15","7",,,,,,,,,,,,,,,,,,,,,,,,,,,"2007-05-17"
"72793524234","SEATTLE BOEING FIELD, WA US","47.54554","-122.31475","7.6","2024-03-15T09:53:00","FM-15","7",,,,,,,,,,,,,,,,,,,,,"30.26","41","53","0.00",,"0.04","8","64","30.25","CLR:00","30.23","10.00","47","330",,"8",,,,,,,,,,,,,,,,,,,,,,,,,,,,,"MET11303/15/24 09:53:02 METAR KBFI 151753Z 33007KT 10SM CLR 12/05 A3026 RMK AO2 SLP245 T01170050 10122 20061 58012 (SN)","FM-15","7",,,,,,,,,,,,,,,,,,,,,,,,,,,"2007-05-17"
"72793524234","SEATTLE BOEING FIELD, WA US","47.54554","-122.31475","7.6","2024-03-15T10:53:00","FM-15","7",,,,,,,,,,,,,,,,,,,,,"30.24","42","55","0.00",,,,"62","30.24","CLR:00","30.21","10.00","49","320",,"6",,,,,,,,,,,,,,,,,,,,,,,,,,,,,"MET09503/15/24 10:53:02 METAR KBFI 151853Z 32005KT 10SM CLR 13/06 A3024 RMK AO2 SLP239 T01280056 (SN)","FM-15","7",,,,,,,,,,,,,,,,,,,,,,,,,,,"2007-05-17"
"72793524234","SEATTLE BOEING FIELD, WA US","47.54554","-122.31475","7.6","2024-03-15T11:53:00","FM-15","7",,,,,,,,,,,,,,,,,,,,,"30.21","42","56","0.00",,,,"60","30.21","FEW:02 200","30.18","10.00","49","VRB",,"6",,,,,,,,,,,,,,,,,,,,,,,,,,,,,"MET09803/15/24 11:53:02 METAR KBFI 151953Z VRB05KT 10SM FEW200 13/06 A3021 RMK AO2 SLP230 T01330056 (SN)","FM-15","7",,,,,,,,,,,,,,,,,,,,,,,,,,,"2007-05-17"
"72793524234","SEATTLE BOEING FIELD, WA US","47.54554","-122.31475","7.6","2024-03-15T12:53:00","FM-15","7",,,,,,,,,,,,,,,,,,,,,"30.19","42","57","0.00",,"0.07","8","58","30.18","CLR:00","30.16","10.00","50","310","18","10",,,,,,,,,,,,,,,,,,,,,,,,,,,,,"MET10403/15/24 12:53:02 METAR KBFI 152053Z 31009G16KT 10SM CLR 14/06 A3019 RMK AO2 SLP221 T01390056 58024 (SN)","FM-15","7",,,,,,,,,,,,,,,,,,,,,,,,,,,"2007-05-17"
"72793524234","SEATTLE BOEING FIELD, WA US","47.54554","-122.31475","7.6","2024-03-15T13:53:00","FM-15","7",,,,,,,,,,,,,,,,,,,,,"30.15","43","59","0.00",,,,"56","30.15","CLR:00","30.12","10.00","51","310","18","8",,,,,,,,,,,,,,,,,,,,,,,,,,,,,"MET09803/15/24 13:53:02 METAR KBFI 152153Z 31007G16KT 10SM CLR 15/06 A3015 RMK AO2 SLP210 T01500061 (SN)","FM-15","7",,,,,,,,,,,,,,,,,,,,,,,,,,,"2007-05-17"
"72793524234","SEATTLE BOEING FIELD, WA US","47.54554","-122.31475","7.6","2024-03-15T14:53:00","FM-15","7",,,,,,,,,,,,,,,,,,,,,"30.13","42","59","0.00",,,,"54","30.13","SCT:04 200","30.10","10.00","51","320","17","10",,,,,,,,,,,,,,,,,,,,,,,,,,,,,"MET10103/15/24 14:53:02 METAR KBFI 152253Z 32009G15KT 10SM SCT200 15/06 A3013 RMK AO2 SLP203 T01500056 (SN)","FM-15","7",,,,,,,,,,,,,,,,,,,,,,,,,,,"2007-05-17"
"72793524234","SEATTLE BOEING FIELD, WA US","47.54554","-122.31475","7.6","2024-03-15T15:53:00","FM-15","7",,,,,,,,,,,,,,,,,,,,,"30.11","42","60","0.00",,"0.08","6","52","30.11","SCT:04 200","30.08","10.00","51","310",,"11",,,,,,,,,,,,,,,,,,,,,,,,,,,,,"MET11603/15/24 15:53:02 METAR KBFI 152353Z 31010KT 10SM SCT200 16/06 A3011 RMK AO2 SLP195 T01560056 10156 20111 56026 (SN)","FM-15","7",,,,,,,,,,,,,,,,,,,,,,,,,,,"2007-05-17"
"72793524234","SEATTLE BOEING FIELD, WA US","47.54554","-122.31475","7.6","2024-03-15T16:53:00","FM-15","7",,,,,,,,,,,,,,,,,,,,,"30.10","43","58","0.00",,,,"58","30.10","SCT:04 200","30.07","10.00","50","320",,"7",,,,,,,,,,,,,,,,,,,,,,,,,,,,,"MET09303/15/24 16:53:01 METAR KBFI 160053Z 32006KT 10SM SCT200 14/06 A3010 RMK AO2 SLP192 T01440061","FM-15","7",,,,,,,,,,,,,,,,,,,,,,,,,,,"2007-05-17"
"72793524234","SEATTLE BOEING FIELD, WA US","47.54554","-122.31475","7.6","2024-03-15T17:53:00","FM-15","7",,,,,,,,,,,,,,,,,,,,,"30.09","42","55","0.00",,,,"62","30.09","CLR:00","30.06","10.00","49","310",,"7",,,,,,,,,,,,,,,,,,,,,,,,,,,,,"MET09003/15/24 17:53:01 METAR KBFI 160153Z 31006KT 10SM CLR 13/06 A3009 RMK AO2 SLP189 T01280056","FM-15","7",,,,,,,,,,,,,,,,,,,,,,,,,,,"2007-05-17"
"72793524234","SEATTLE BOEING FIELD, WA US","47.54554","-122.31475","7.6","2024-03-15T18:53:00","FM-15","7",,,,,,,,,,,,,,,,,,,,,"30.09","42","53","0.00",,"0.02","6","66","30.09","CLR:00","30.06","10.00","48","310",,"8",,,,,,,,,,,,,,,,,,,,,,,,,,,,,"MET09603/15/24 18:53:01 METAR KBFI 160253Z 31007KT 10SM CLR 12/06 A3009 RMK AO2 SLP189 T01170056 56006","FM-15","7",,,,,,,,,,,,,,,,,,,,,,,,,,,"2007-05-17"
"72793524234","SEATTLE BOEING FIELD, WA US","47.54554","-122.31475","7.6","2024-03-15T19:53:00","FM-15","7",,,,,,,,,,,,,,,,,,,,,"30.09","42","52","0.00",,,,"69","30.09","CLR:00","30.06","10.00","47","310",,"3",,,,,,,,,,,,,,,,,,,,,,,,,,,,,"MET09003/15/24 19:53:02 METAR KBFI 160353Z 31003KT 10SM CLR 11/06 A3009 RMK AO2 SLP190 T01110056","FM-15","7",,,,,,,,,,,,,,,,,,,,,,,,,,,"2007-05-17"
"72793524234","SEATTLE BOEING FIELD, WA US","47.54554","-122.31475","7.6","2024-03-15T20:53:00","FM-15","7",,,,,,,,,,,,,,,,,,,,,"30.09","42","53","0.00",,,,"66","30.09","CLR:00","30.06","10.00","48","VRB",,"3",,,,,,,,,,,,,,,,,,,,,,,,,,,,,"MET09003/15/24 20:53:01 METAR KBFI 160453Z VRB03KT 10SM CLR 12/06 A3009 RMK AO2 SLP190 T01170056","FM-15","7",,,,,,,,,,,,,,,,,,,,,,,,,,,"2007-05-17"
"72793524234","SEATTLE BOEING FIELD, WA US","47.54554","-122.31475","7.6","2024-03-15T21:53:00","FM-15","7",,,,,,,,,,,,,,,,,,,,,"30.09","41","50","0.00",,"0.00","0","71","30.09","CLR:00","30.06","10.00","46","000",,"0",,,,,,,,,,,,,,,,,,,,,,,,,,,,,"MET10803/15/24 21:53:01 METAR KBFI 160553Z 00000KT 10SM CLR 10/05 A3009 RMK AO2 SLP190 T01000050 10156 20100 50001","FM-15","7",,,,,,,,,,,,,,,,,,,,,,,,,,,"2007-05-17"
"72793524234","SEATTLE BOEING FIELD, WA US","47.54554","-122.31475","7.6","2024-03-15T22:53:00","FM-15","7",,,,,,,,,,,,,,,,,,,,,"30.09","41","48","0.00",,,,"77","30.09","CLR:00","30.06","10.00","45","000",,"0",,,,,,,,,,,,,,,,,,,,,,,,,,,,,"MET09003/15/24 22:53:02 METAR KBFI 160653Z 00000KT 10SM CLR 09/05 A3009 RMK AO2 SLP188 T00890050","FM-15","7",,,,,,,,,,,,,,,,,,,,,,,,,,,"2007-05-17"
"72793524234","SEATTLE BOEING FIELD, WA US","47.54554","-122.31475","7.6","2024-03-15T23:53:00","FM-15","7",,,,,,,,,,,,,,,,,,,,,"30.09","40","50","0.00",,,,"68","30.09","CLR:00","30.06","10.00","45","330",,"3",,,,,,,,,,,,,,,,,,,,,,,,,,,,,"MET10003/15/24 23:53:02 METAR KBFI 160753Z 33003KT 10SM CLR 10/04 A3009 RMK AO2 SLP188 T01000044 401560061","FM-15","7",,,,,,,,,,,,,,,,,,,,,,,,,,,"2007-05-17"
"72793524234","SEATTLE BOEING FIELD, WA US","47.54554","-122.31475","7.6","2024-03-15T23:59:00","SOD  ","6",,,,,"52","30.16","5.0","0","5.1","13","60","43","310","20","0.00","310","13",,,,,,,,,,,,,,,,,,,,,,,,,,,,,,,,,,,,,,,,,,,,,,,,"SOD73024 HR PRECIPITATION (IN):0.00  24 HR MAX TEMP (F):60 24 HR MAX TEMP TIME (LST):1615 24 HR MIN TEMP (F):43 24 HR MIN TEMP TIME (LST):0700 AVERAGE STATION PRESSURE:30.155 MINIMUM SEA LEVEL PRESSURE:30.08 TIME OF OCCURRENCE:2359 PEAK WIND SPEED (MPH):20  PEAK WIND DIR (DEG):310 PEAK WIND TIME (LST):1329  FASTEST 2MIN SPEED (MPH):13 FASTEST 2MIN DIR (DEG):310 FASTEST 2MIN TIME (LST):1321 AVERAGE WIND SPEED (MPH):5.0  24 HR AVG TEMP (F):52 HEATING DEGREE DAYS:13  COOLING DEGREE DAYS:0   LATEST DAY MAX TEMP (0700-1900 LST):60  LATEST NIGHT MIN TEMP(1900-0800 LST):43 HOURLY INCREMENTAL PRECIPITATION VALUES (IN):.00 0.00 0.00 0.00 0.00 0.00 0.00 0.00 0.00 0.00 0.00 0.00 0.00 0.00 0.00 0.00 0.00 0.00 0.00 0.00 0.00 0.00 0.00 0.00","SOD  ","6",,,,,,,,,,,,,,,,,,,,,,,,,"0621","1816","2007-05-17"
"72793524234","SEATTLE BOEING FIELD, WA US","47.54554","-122.31475","7.6","2024-03-16T00:53:00","FM-15","7",,,,,,,,,,,,,,,,,,,,,"30.08","40","48","0.00",,"0.02","8","74","30.07","CLR:00","30.05","10.00","44","000",,"0",,,,,,,,,,,,,,,,,,,,,,,,,,,,,"MET10103/16/24 00:53:02 METAR KBFI 160853Z 00000KT 10SM CLR 09/04 A3008 RMK AO2 SLP184 T00890044 58006 (PV)","FM-15","7",,,,,,,,,,,,,,,,,,,,,,,,,,,"2007-05-17"
"72793524234","SEATTLE BOEING FIELD, WA US","47.54554","-122.31475","7.6","2024-03-16T01:53:00","FM-15","7",,,,,,,,,,,,,,,,,,,,,"30.07","40","46","0.00",,,,"79","30.06","CLR:00","30.04","9.00","43","000",,"0",,,,,,,,,,,,,,,,,,,,,,,,,,,,,"MET09403/16/24 01:53:02 METAR KBFI 160953Z 00000KT 9SM CLR 08/04 A3007 RMK AO2 SLP181 T00780044 (PV)","FM-15","7",,,,,,,,,,,,,,,,,,,,,,,,,,,"2007-05-17"
"72793524234","SEATTLE BOEING FIELD, WA US","47.54554","-122.31475","7.6","2024-03-16T02:53:00","FM-15","7",,,,,,,,,,,,,,,,,,,,,"30.05","39","45","0.00",,,,"80","30.05","CLR:00","30.02","10.00","42","000",,"0",,,,,,,,,,,,,,,,,,,,,,,,,,,,,"MET09503/16/24 02:53:02 METAR KBFI 161053Z 00000KT 10SM CLR 07/04 A3005 RMK AO2 SLP176 T00720039 (PV)","FM-15","7",,,,,,,,,,,,,,,,,,,,,,,,,,,"2007-05-17"
"72793524234","SEATTLE BOEING FIELD, WA US","47.54554","-122.31475","7.6","2024-03-16T03:53:00","FM-15","7",,,,,,,,,,,,,,,,,,,,,"30.05","39","44","0.00",,"0.03","6","83","30.04","CLR:00","30.02","10.00","42","000",,"0",,,,,,,,,,,,,,,,,,,,,,,,,,,,,"MET11303/16/24 03:53:02 METAR KBFI 161153Z 00000KT 10SM CLR 07/04 A3005 RMK AO2 SLP174 T00670039 10106 20067 56010 (PV)","FM-15","7",,,,,,,,,,,,,,,,,,,,,,,,,,,"2007-05-17"
"72793524234","SEATTLE BOEING FIELD, WA US","47.54554","-122.31475","7.6","2024-03-16T04:53:00","FM-15","7",,,,,,,,,,,,,,,,,,,,,"30.05","39","43","0.00",,,,"86","30.05","CLR:00","30.02","10.00","41","000",,"0",,,,,,,,,,,,,,,,,,,,,,,,,,,,,"MET09503/16/24 04:53:02 METAR KBFI 161253Z 00000KT 10SM CLR 06/04 A3005 RMK AO2 SLP176 T00610039 (PV)","FM-15","7",,,,,,,,,,,,,,,,,,,,,,,,,,,"2007-05-17"
"72793524234","SEATTLE BOEING FIELD, WA US","47.54554","-122.31475","7.6","2024-03-16T05:53:00","FM-15","7",,,,,,,,,,,,,,,,,,,,,"30.06","39","44","0.00",,,,"83","30.06","CLR:00","30.03","10.00","42","000",,"0",,,,,,,,,,,,,,,,,,,,,,,,,,,,,"MET09503/16/24 05:53:02 METAR KBFI 161353Z 00000KT 10SM CLR 07/04 A3006 RMK AO2 SLP178 T00670039 (PV)","FM-15","7",,,,,,,,,,,,,,,,,,,,,,,,,,,"2007-05-17"
"72793524234","SEATTLE BOEING FIELD, WA US","47.54554","-122.31475","7.6","2024-03-16T06:53:00","FM-15","7",,,,,,,,,,,,,,,,,,,,,"30.06","41","45","0.00",,"-0.01","1","86","30.06","CLR:00","30.03","10.00","43","VRB",,"5",,,,,,,,,,,,,,,,,,,,,,,,,,,,,"MET10103/16/24 06:53:02 METAR KBFI 161453Z VRB04KT 10SM CLR 07/05 A3006 RMK AO2 SLP178 T00720050 51003 (PV)","FM-15","7",,,,,,,,,,,,,,,,,,,,,,,,,,,"2007-05-17"
"72793524234","SEATTLE BOEING FIELD, WA US","47.54554","-122.31475","7.6","2024-03-16T07:53:00","FM-15","7",,,,,,,,,,,,,,,,,,,,,"30.06","42","50","0.00",,,,"74","30.06","CLR:00","30.03","10.00","46","000",,"0",,,,,,,,,,,,,,,,,,,,,,,,,,,,,"MET09503/16/24 07:53:02 METAR KBFI 161553Z 00000KT 10SM CLR 10/06 A3006 RMK AO2 SLP179 T01000056 (PV)","FM-15","7",,,,,,,,,,,,,,,,,,,,,,,,,,,"2007-05-17"
"72793524234","SEATTLE BOEING FIELD, WA US","47.54554","-122.31475","7.6","2024-03-16T08:53:00","FM-15","7",,,,,,,,,,,,,,,,,,,,,"30.06","43","52","0.00",,,,"72","30.06","CLR:00","30.03","10.00","48","300",,"7",,,,,,,,,,,,,,,,,,,,,,,,,,,,,"MET09503/16/24 08:53:02 METAR KBFI 161653Z 30006KT 10SM CLR 11/06 A3006 RMK AO2 SLP178 T01110061 (PV)","FM-15","7",,,,,,,,,,,,,,,,,,,,,,,,,,,"2007-05-17"
"72793524234","SEATTLE BOEING FIELD, WA US","47.54554","-122.31475","7.6","2024-03-16T09:53:00","FM-15","7",,,,,,,,,,,,,,,,,,,,,"30.05","43","56","0.00",,"0.01","8","62","30.05","FEW:02 200","30.02","10.00","50","VRB",,"3",,,,,,,,,,,,,,,,,,,,,,,,,,,,,"MET11103/16/24 09:53:02 METAR KBFI 161753Z VRB03KT 10SM FEW200 13/06 A3005 RMK AO2 SLP176 T01330061 10133 20056 58002","FM-15","7",,,,,,,,,,,,,,,,,,,,,,,,,,,"2007-05-17"
"72793524234","SEATTLE BOEING FIELD, WA US","47.54554","-122.31475","7.6","2024-03-16T10:53:00","FM-15","7",,,,,,,,,,,,,,,,,,,,,"30.05","43","60","0.00",,,,"53","30.05","FEW:02 200","30.02","10.00","51","350",,"5",,,,,,,,,,,,,,,,,,,,,,,,,,,,,"MET09803/16/24 10:53:02 METAR KBFI 161853Z 35004KT 10SM FEW200 16/06 A3005 RMK AO2 SLP176 T01560061 (ND)","FM-15","7",,,,,,,,,,,,,,,,,,,,,,,,,,,"2007-05-17"
"72793524234","SEATTLE BOEING FIELD, WA US","47.54554","-122.31475","7.6","2024-03-16T11:53:00","FM-15","7",,,,,,,,,,,,,,,,,,,,,"30.04","43","62","0.00",,,,"50","30.04","CLR:00","30.01","10.00","52","VRB",,"5",,,,,,,,,,,,,,,,,,,,,,,,,,,,,"MET09503/16/24 11:53:02 METAR KBFI 161953Z VRB04KT 10SM CLR 17/06 A3004 RMK AO2 SLP173 T01670061 (ND)","FM-15","7",,,,,,,,,,,,,,,,,,,,,,,,,,,"2007-05-17"
"72793524234","SEATTLE BOEING FIELD, WA US","47.54554","-122.31475","7.6","2024-03-16T12:53:00","FM-15","7",,,,,,,,,,,,,,,,,,,,,"30.03","42","65","0.00",,"0.02","8","43","30.03","CLR:00","30.00","10.00","53","290",,"6",,,,,,,,,,,,,,,,,,,,,,,,,,,,,"MET10103/16/24 12:53:02 METAR KBFI 162053Z 29005KT 10SM CLR 18/06 A3003 RMK AO2 SLP170 T01830056 58006 (ND)","FM-15","7",,,,,,,,,,,,,,,,,,,,,,,,,,,"2007-05-17"
"72793524234","SEATTLE BOEING FIELD, WA US","47.54554","-122.31475","7.6","2024-03-16T13:53:00","FM-15","7",,,,,,,,,,,,,,,,,,,,,"30.02","40","71","0.00",,,,"32","30.02","CLR:00","29.99","10.00","55","000",,"0",,,,,,,,,,,,,,,,,,,,,,,,,,,,,"MET09503/16/24 13:53:02 METAR KBFI 162153Z 00000KT 10SM CLR 22/04 A3002 RMK AO2 SLP165 T02170044 (ND)","FM-15","7",,,,,,,,,,,,,,,,,,,,,,,,,,,"2007-05-17"
"72793524234","SEATTLE BOEING FIELD, WA US","47.54554","-122.31475","7.6","2024-03-16T14:53:00","FM-15","7",,,,,,,,,,,,,,,,,,,,,"30.02","43","70","0.00",,,,"38","30.01","CLR:00","29.99","10.00","56","320",,"6",,,,,,,,,,,,,,,,,,,,,,,,,,,,,"MET09503/16/24 14:53:02 METAR KBFI 162253Z 32005KT 10SM CLR 21/06 A3002 RMK AO2 SLP164 T02110061 (ND)","FM-15","7",,,,,,,,,,,,,,,,,,,,,,,,,,,"2007-05-17"
"72793524234","SEATTLE BOEING FIELD, WA US","47.54554","-122.31475","7.6","2024-03-16T15:53:00","FM-15","7",,,,,,,,,,,,,,,,,,,,,"30.01","42","73","0.00",,"0.03","6","33","30.00","CLR:00","29.98","10.00","57","000",,"0",,,,,,,,,,,,,,,,,,,,,,,,,,,,,"MET11303/16/24 15:53:02 METAR KBFI 162353Z 00000KT 10SM CLR 23/06 A3001 RMK AO2 SLP160 T02280056 10233 20133 56009 (ND)","FM-15","7",,,,,,,,,,,,,,,,,,,,,,,,,,,"2007-05-17"
"72793524234","SEATTLE BOEING FIELD, WA US","47.54554","-122.31475","7.6","2024-03-16T16:53:00","FM-15","7",,,,,,,,,,,,,,,,,,,,,"30.00","38","73","0.00",,,,"28","30.00","CLR:00","29.97","10.00","55","000",,"0",,,,,,,,,,,,,,,,,,,,,,,,,,,,,"MET09003/16/24 16:53:01 METAR KBFI 170053Z 00000KT 10SM CLR 23/03 A3000 RMK AO2 SLP159 T02280033","FM-15","7",,,,,,,,,,,,,,,,,,,,,,,,,,,"2007-05-17"
"72793524234","SEATTLE BOEING FIELD, WA US","47.54554","-122.31475","7.6","2024-03-16T17:53:00","FM-15","7",,,,,,,,,,,,,,,,,,,,,"30.01","40","71","0.00",,,,"32","30.01","CLR:00","29.98","10.00","55","000",,"0",,,,,,,,,,,,,,,,,,,,,,,,,,,,,"MET09003/16/24 17:53:01 METAR KBFI 170153Z 00000KT 10SM CLR 22/04 A3001 RMK AO2 SLP161 T02170044","FM-15","7",,,,,,,,,,,,,,,,,,,,,,,,,,,"2007-05-17"
"72793524234","SEATTLE BOEING FIELD, WA US","47.54554","-122.31475","7.6","2024-03-16T18:53:00","FM-15","7",,,,,,,,,,,,,,,,,,,,,"30.02","44","65","0.00",,"-0.01","3","47","30.02","CLR:00","29.99","10.00","54","000",,"0",,,,,,,,,,,,,,,,,,,,,,,,,,,,,"MET09603/16/24 18:53:01 METAR KBFI 170253Z 00000KT 10SM CLR 18/07 A3002 RMK AO2 SLP166 T01830067 53005","FM-15","7",,,,,,,,,,,,,,,,,,,,,,,,,,,"2007-05-17"
"72793524234","SEATTLE BOEING FIELD, WA US","47.54554","-122.31475","7.6","2024-03-16T19:53:00","FM-15","7",,,,,,,,,,,,,,,,,,,,,"30.05","43","59","0.00",,,,"56","30.04","CLR:00","30.02","10.00","51","000",,"0",,,,,,,,,,,,,,,,,,,,,,,,,,,,,"MET09003/16/24 19:53:02 METAR KBFI 170353Z 00000KT 10SM CLR 15/06 A3005 RMK AO2 SLP174 T01500061","FM-15","7",,,,,,,,,,,,,,,,,,,,,,,,,,,"2007-05-17"
"72793524234","SEATTLE BOEING FIELD, WA US","47.54554","-122.31475","7.6","2024-03-16T20:53:00","FM-15","7",,,,,,,,,,,,,,,,,,,,,"30.06","43","58","0.00",,,,"58","30.06","CLR:00","30.03","10.00","50","000",,"0",,,,,,,,,,,,,,,,,,,,,,,,,,,,,"MET09003/16/24 20:53:02 METAR KBFI 170453Z 00000KT 10SM CLR 14/06 A3006 RMK AO2 SLP179 T01440061","FM-15","7",,,,,,,,,,,,,,,,,,,,,,,,,,,"2007-05-17"
"72793524234","SEATTLE BOEING FIELD, WA US","47.54554","-122.31475","7.6","2024-03-16T21:53:00","FM-15","7",,,,,,,,,,,,,,,,,,,,,"30.08","44","56","0.00",,"-0.06","1","65","30.08","CLR:00","30.05","10.00","50","000",,"0",,,,,,,,,,,,,,,,,,,,,,,,,,,,,"MET10803/16/24 21:53:02 METAR KBFI 170553Z 00000KT 10SM CLR 13/07 A3008 RMK AO2 SLP186 T01330067 10233 20133 51020","FM-15","7",,,,,,,,,,,,,,,,,,,,,,,,,,,"2007-05-17"
"72793524234","SEATTLE BOEING FIELD, WA US","47.54554","-122.31475","7.6","2024-03-16T22:53:00","FM-15","7",,,,,,,,,,,,,,,,,,,,,"30.09","43","54","0.00",,,,"67","30.09","CLR:00","30.06","10.00","49","000",,"0",,,,,,,,,,,,,,,,,,,,,,,,,,,,,"MET09003/16/24 22:53:02 METAR KBFI 170653Z 00000KT 10SM CLR 12/06 A3009 RMK AO2 SLP190 T01220061","FM-15","7",,,,,,,,,,,,,,,,,,,,,,,,,,,"2007-05-17"
"72793524234","SEATTLE BOEING FIELD, WA US","47.54554","-122.31475","7.6","2024-03-16T23:53:00","FM-15","7",,,,,,,,,,,,,,,,,,,,,"30.12","42","52","0.00",,,,"69","30.11","CLR:00","30.09","10.00","47","140",,"3",,,,,,,,,,,,,,,,,,,,,,,,,,,,,"MET10003/16/24 23:53:02 METAR KBFI 170753Z 14003KT 10SM CLR 11/06 A3012 RMK AO2 SLP198 T01110056 402330056","FM-15","7",,,,,,,,,,,,,,,,,,,,,,,,,,,"2007-05-17"
"72793524234","SEATTLE BOEING FIELD, WA US","47.54554","-122.31475","7.6","2024-03-16T23:59:00","SOD  ","6",,,,,"58","30.01","1.6","0","11.0","7","74","42","310","13","0.00","310","9",,,,,,,,,,,,,,,,,,,,,,,,,,,,,,,,,,,,,,,,,,,,,,,,"SOD73024 HR PRECIPITATION (IN):0.00  24 HR MAX TEMP (F):74 24 HR MAX TEMP TIME (LST):1728 24 HR MIN TEMP (F):42 24 HR MIN TEMP TIME (LST):0620 AVERAGE STATION PRESSURE:30.010 MINIMUM SEA LEVEL PRESSURE:30.00 TIME OF OCCURRENCE:1752 PEAK WIND SPEED (MPH):13  PEAK WIND DIR (DEG):310 PEAK WIND TIME (LST):1431  FASTEST 2MIN SPEED (MPH):9  FASTEST 2MIN DIR (DEG):310 FASTEST 2MIN TIME (LST):1432 AVERAGE WIND SPEED (MPH):1.6  24 HR AVG TEMP (F):58 HEATING DEGREE DAYS:7   COOLING DEGREE DAYS:0   LATEST DAY MAX TEMP (0700-1900 LST):74  LATEST NIGHT MIN TEMP(1900-0800 LST):42 HOURLY INCREMENTAL PRECIPITATION VALUES (IN):.00 0.00 0.00 0.00 0.00 0.00 0.00 0.00 0.00 0.00 0.00 0.00 0.00 0.00 0.00 0.00 0.00 0.00 0.00 0.00 0.00 0.00 0.00 0.00","SOD  ","6",,,,,,,,,,,,,,,,,,,,,,,,,"0619","1818","2007-05-17"
"72793524234","SEATTLE BOEING FIELD, WA US","47.54554","-122.31475","7.6","2024-03-17T00:53:00","FM-15","7",,,,,,,,,,,,,,,,,,,,,"30.13","42","53","0.00",,"-0.05","3","66","30.13","CLR:00","30.10","10.00","48","160",,"5",,,,,,,,,,,,,,,,,,,,,,,,,,,,,"MET10103/17/24 00:53:02 METAR KBFI 170853Z 16004KT 10SM CLR 12/06 A3013 RMK AO2 SLP203 T01170056 53016 (HW)","FM-15","7",,,,,,,,,,,,,,,,,,,,,,,,,,,"2007-05-17"
"72793524234","SEATTLE BOEING FIELD, WA US","47.54554","-122.31475","7.6","2024-03-17T01:53:00","FM-15","7",,,,,,,,,,,,,,,,,,,,,"30.15","42","52","0.00",,,,"69","30.15","CLR:00","30.12","10.00","47","160",,"6",,,,,,,,,,,,,,,,,,,,,,,,,,,,,"MET09503/17/24 01:53:02 METAR KBFI 170953Z 16005KT 10SM CLR 11/06 A3015 RMK AO2 SLP209 T01110056 (NC)","FM-15","7",,,,,,,,,,,,,,,,,,,,,,,,,,,"2007-05-17"
"72793524234","SEATTLE BOEING FIELD, WA US","47.54554","-122.31475","7.6","2024-03-17T02:53:00","FM-15","7",,,,,,,,,,,,,,,,,,,,,"30.16","41","50","0.00",,,,"71","30.16","CLR:00","30.13","10.00","46","000",,"0",,,,,,,,,,,,,,,,,,,,,,,,,,,,,"MET09503/17/24 02:53:02 METAR KBFI 171053Z 00000KT 10SM CLR 10/05 A3016 RMK AO2 SLP213 T01000050 (NC)","FM-15","7",,,,,,,,,,,,,,,,,,,,,,,,,,,"2007-05-17"
"72793524234","SEATTLE BOEING FIELD, WA US","47.54554","-122.31475","7.6","2024-03-17T03:53:00","FM-15","7",,,,,,,,,,,,,,,,,,,,,"30.17","41","48","0.00",,"-0.04","1","77","30.17","CLR:00","30.14","10.00","45","000",,"0",,,,,,,,,,,,,,,,,,,,,,,,,,,,,"MET11303/17/24 03:53:02 METAR KBFI 171153Z 00000KT 10SM CLR 09/05 A3017 RMK AO2 SLP216 T00890050 10133 20089 51014 (NC)","FM-15","7",,,,,,,,,,,,,,,,,,,,,,,,,,,"2007-05-17"
"72793524234","SEATTLE BOEING FIELD, WA US","47.54554","-122.31475","7.6","2024-03-17T04:53:00","FM-15","7",,,,,,,,,,,,,,,,,,,,,"30.18","40","47","0.00",,,,"77","30.18","CLR:00","30.15","10.00","44","000",,"0",,,,,,,,,,,,,,,,,,,,,,,,,,,,,"MET09503/17/24 04:53:02 METAR KBFI 171253Z 00000KT 10SM CLR 08/04 A3018 RMK AO2 SLP220 T00830044 (NC)","FM-15","7",,,,,,,,,,,,,,,,,,,,,,,,,,,"2007-05-17"
"72793524234","SEATTLE BOEING FIELD, WA US","47.54554","-122.31475","7.6","2024-03-17T05:53:00","FM-15","7",,,,,,,,,,,,,,,,,,,,,"30.20","39","44","0.00",,,,"83","30.19","CLR:00","30.17","10.00","42","150",,"5",,,,,,,,,,,,,,,,,,,,,,,,,,,,,"MET09503/17/24 05:53:02 METAR KBFI 171353Z 15004KT 10SM CLR 07/04 A3020 RMK AO2 SLP224 T00670039 (NC)","FM-15","7",,,,,,,,,,,,,,,,,,,,,,,,,,,"2007-05-17"
"72793524234","SEATTLE BOEING FIELD, WA US","47.54554","-122.31475","7.6","2024-03-17T06:53:00","FM-15","7",,,,,,,,,,,,,,,,,,,,,"30.21","40","45","0.00",,"-0.04","3","83","30.21","CLR:00","30.18","10.00","43","000",,"0",,,,,,,,,,,,,,,,,,,,,,,,,,,,,"MET10103/17/24 06:53:02 METAR KBFI 171453Z 00000KT 10SM CLR 07/04 A3021 RMK AO2 SLP229 T00720044 53013 (NC)","FM-15","7",,,,,,,,,,,,,,,,,,,,,,,,,,,"2007-05-17"
"72793524234","SEATTLE BOEING FIELD, WA US","47.54554","-122.31475","7.6","2024-03-17T07:53:00","FM-15","7",,,,,,,,,,,,,,,,,,,,,"30.22","42","50","0.00",,,,"74","30.22","CLR:00","30.19","10.00","46","000",,"0",,,,,,,,,,,,,,,,,,,,,,,,,,,,,"MET09503/17/24 07:53:02 METAR KBFI 171553Z 00000KT 10SM CLR 10/06 A3022 RMK AO2 SLP232 T01000056 (NC)","FM-15","7",,,,,,,,,,,,,,,,,,,,,,,,,,,"2007-05-17"
"72793524234","SEATTLE BOEING FIELD, WA US","47.54554","-122.31475","7.6","2024-03-17T08:53:00","FM-15","7",,,,,,,,,,,,,,,,,,,,,"30.23","43","54","0.00",,,,"67","30.22","CLR:00","30.20","10.00","49","160",,"3",,,,,,,,,,,,,,,,,,,,,,,,,,,,,"MET09503/17/24 08:53:02 METAR KBFI 171653Z 16003KT 10SM CLR 12/06 A3023 RMK AO2 SLP235 T01220061 (NC)","FM-15","7",,,,,,,,,,,,,,,,,,,,,,,,,,,"2007-05-17"
"72793524234","SEATTLE BOEING FIELD, WA US","47.54554","-122.31475","7.6","2024-03-17T09:53:00","FM-15","7",,,,,,,,,,,,,,,,,,,,,"30.23","43","59","0.00",,"-0.02","1","56","30.23","CLR:00","30.20","10.00","51","000",,"0",,,,,,,,,,,,,,,,,,,,,,,,,,,,,"MET11303/17/24 09:53:02 METAR KBFI 171753Z 00000KT 10SM CLR 15/06 A3023 RMK AO2 SLP236 T01500061 10150 20061 51007 (NC)","FM-15","7",,,,,,,,,,,,,,,,,,,,,,,,,,,"2007-05-17"
"72793524234","SEATTLE BOEING FIELD, WA US","47.54554","-122.31475","7.6","2024-03-17T10:53:00","FM-15","7",,,,,,,,,,,,,,,,,,,,,"30.22","43","62","0.00",,,,"50","30.22","CLR:00","30.19","10.00","52","000",,"0",,,,,,,,,,,,,,,,,,,,,,,,,,,,,"MET09503/17/24 10:53:02 METAR KBFI 171853Z 00000KT 10SM CLR 17/06 A3022 RMK AO2 SLP233 T01670061 (KT)","FM-15","7",,,,,,,,,,,,,,,,,,,,,,,,,,,"2007-05-17"
"72793524234","SEATTLE BOEING FIELD, WA US","47.54554","-122.31475","7.6","2024-03-17T11:53:00","FM-15","7",,,,,,,,,,,,,,,,,,,,,"30.20","41","65","0.00",,,,"42","30.20","FEW:02 350","30.17","10.00","53","140",,"3",,,,,,,,,,,,,,,,,,,,,,,,,,,,,"MET09803/17/24 11:53:02 METAR KBFI 171953Z 14003KT 10SM FEW350 18/05 A3020 RMK AO2 SLP228 T01830050 (KT)","FM-15","7",,,,,,,,,,,,,,,,,,,,,,,,,,,"2007-05-17"
"72793524234","SEATTLE BOEING FIELD, WA US","47.54554","-122.31475","7.6","2024-03-17T12:53:00","FM-15","7",,,,,,,,,,,,,,,,,,,,,"30.20","44","67","0.00",,"0.04","7","44","30.19","CLR:00","30.17","10.00","55","340",,"6",,,,,,,,,,,,,,,,,,,,,,,,,,,,,"MET10103/17/24 12:53:02 METAR KBFI 172053Z 34005KT 10SM CLR 19/07 A3020 RMK AO2 SLP225 T01940067 57012 (KT)","FM-15","7",,,,,,,,,,,,,,,,,,,,,,,,,,,"2007-05-17"
"72793524234","SEATTLE BOEING FIELD, WA US","47.54554","-122.31475","7.6","2024-03-17T13:53:00","FM-15","7",,,,,,,,,,,,,,,,,,,,,"30.18","40","69","0.00",,,,"35","30.18","CLR:00","30.15","10.00","54","000",,"0",,,,,,,,,,,,,,,,,,,,,,,,,,,,,"MET09503/17/24 13:53:02 METAR KBFI 172153Z 00000KT 10SM CLR 21/04 A3018 RMK AO2 SLP219 T02060044 (MB)","FM-15","7",,,,,,,,,,,,,,,,,,,,,,,,,,,"2007-05-17"
"72793524234","SEATTLE BOEING FIELD, WA US","47.54554","-122.31475","7.6","2024-03-17T14:53:00","FM-15","7",,,,,,,,,,,,,,,,,,,,,"30.17","36","70","0.00",,,,"29","30.17","CLR:00","30.14","10.00","53","VRB",,"6",,,,,,,,,,,,,,,,,,,,,,,,,,,,,"MET09503/17/24 14:53:02 METAR KBFI 172253Z VRB05KT 10SM CLR 21/02 A3017 RMK AO2 SLP217 T02110022 (SN)","FM-15","7",,,,,,,,,,,,,,,,,,,,,,,,,,,"2007-05-17"
"72793524234","SEATTLE BOEING FIELD, WA US","47.54554","-122.31475","7.6","2024-03-17T15:53:00","FM-15","7",,,,,,,,,,,,,,,,,,,,,"30.16","42","70","0.00",,"0.04","6","37","30.16","CLR:00","30.13","10.00","55","320",,"6",,,,,,,,,,,,,,,,,,,,,,,,,,,,,"MET11303/17/24 15:53:02 METAR KBFI 172353Z 32005KT 10SM CLR 21/06 A3016 RMK AO2 SLP213 T02110056 10217 20150 56012 (SN)","FM-15","7",,,,,,,,,,,,,,,,,,,,,,,,,,,"2007-05-17"
"72793524234","SEATTLE BOEING FIELD, WA US","47.54554","-122.31475","7.6","2024-03-17T16:53:00","FM-15","7",,,,,,,,,,,,,,,,,,,,,"30.15","41","69","0.00",,,,"36","30.15","CLR:00","30.12","10.00","55","310",,"7",,,,,,,,,,,,,,,,,,,,,,,,,,,,,"MET09003/17/24 16:53:01 METAR KBFI 180053Z 31006KT 10SM CLR 21/05 A3015 RMK AO2 SLP210 T02060050","FM-15","7",,,,,,,,,,,,,,,,,,,,,,,,,,,"2007-05-17"
"72793524234","SEATTLE BOEING FIELD, WA US","47.54554","-122.31475","7.6","2024-03-17T17:53:00","FM-15","7",,,,,,,,,,,,,,,,,,,,,"30.16","42","63","0.00",,,,"47","30.16","CLR:00","30.13","10.00","52","310",,"7",,,,,,,,,,,,,,,,,,,,,,,,,,,,,"MET09003/17/24 17:53:01 METAR KBFI 180153Z 31006KT 10SM CLR 17/06 A3016 RMK AO2 SLP212 T01720056","FM-15","7",,,,,,,,,,,,,,,,,,,,,,,,,,,"2007-05-17"
"72793524234","SEATTLE BOEING FIELD, WA US","47.54554","-122.31475","7.6","2024-03-17T18:53:00","FM-15","7",,,,,,,,,,,,,,,,,,,,,"30.17","42","60","0.00",,"-0.01","3","52","30.17","CLR:00","30.14","10.00","51","310",,"5",,,,,,,,,,,,,,,,,,,,,,,,,,,,,"MET09603/17/24 18:53:01 METAR KBFI 180253Z 31004KT 10SM CLR 16/06 A3017 RMK AO2 SLP216 T01560056 53003","FM-15","7",,,,,,,,,,,,,,,,,,,,,,,,,,,"2007-05-17"
"72793524234","SEATTLE BOEING FIELD, WA US","47.54554","-122.31475","7.6","2024-03-17T19:53:00","FM-15","7",,,,,,,,,,,,,,,,,,,,,"30.18","41","59","0.00",,,,"51","30.18","CLR:00","30.15","10.00","50","000",,"0",,,,,,,,,,,,,,,,,,,,,,,,,,,,,"MET09003/17/24 19:53:01 METAR KBFI 180353Z 00000KT 10SM CLR 15/05 A3018 RMK AO2 SLP221 T01500050","FM-15","7",,,,,,,,,,,,,,,,,,,,,,,,,,,"2007-05-17"
"72793524234","SEATTLE BOEING FIELD, WA US","47.54554","-122.31475","7.6","2024-03-17T20:53:00","FM-15","7",,,,,,,,,,,,,,,,,,,,,"30.20","41","56","0.00",,,,"57","30.19","CLR:00","30.17","10.00","49","000",,"0",,,,,,,,,,,,,,,,,,,,,,,,,,,,,"MET09003/17/24 20:53:02 METAR KBFI 180453Z 00000KT 10SM CLR 13/05 A3020 RMK AO2 SLP225 T01330050","FM-15","7",,,,,,,,,,,,,,,,,,,,,,,,,,,"2007-05-17"
"72793524234","SEATTLE BOEING FIELD, WA US","47.54554","-122.31475","7.6","2024-03-17T21:53:00","FM-15","7",,,,,,,,,,,,,,,,,,,,,"30.20","40","55","0.00",,"-0.03","1","57","30.20","CLR:00","30.17","10.00","48","000",,"0",,,,,,,,,,,,,,,,,,,,,,,,,,,,,"MET10803/17/24 21:53:02 METAR KBFI 180553Z 00000KT 10SM CLR 13/04 A3020 RMK AO2 SLP227 T01280044 10217 20128 51011","FM-15","7",,,,,,,,,,,,,,,,,,,,,,,,,,,"2007-05-17"
"72793524234","SEATTLE BOEING FIELD, WA US","47.54554","-122.31475","7.6","2024-03-17T22:53:00","FM-15","7",,,,,,,,,,,,,,,,,,,,,"30.21","40","54","0.00",,,,"59","30.20","CLR:00","30.18","10.00","47","000",,"0",,,,,,,,,,,,,,,,,,,,,,,,,,,,,"MET09003/17/24 22:53:01 METAR KBFI 180653Z 00000KT 10SM CLR 12/04 A3021 RMK AO2 SLP228 T01220044","FM-15","7",,,,,,,,,,,,,,,,,,,,,,,,,,,"2007-05-17"
"72793524234","SEATTLE BOEING FIELD, WA US","47.54554","-122.31475","7.6","2024-03-17T23:53:00","FM-15","7",,,,,,,,,,,,,,,,,,,,,"30.20","40","53","0.00",,,,"61","30.20","CLR:00","30.17","10.00","47","000",,"0",,,,,,,,,,,,,,,,,,,,,,,,,,,,,"MET10003/17/24 23:53:02 METAR KBFI 180753Z 00000KT 10SM CLR 12/04 A3020 RMK AO2 SLP226 T01170044 402170061","FM-15","7",,,,,,,,,,,,,,,,,,,,,,,,,,,"2007-05-17"
"72793524234","SEATTLE BOEING FIELD, WA US","47.54554","-122.31475","7.6","2024-03-17T23:59:00","SOD  ","6",,,,,"57","30.16","2.4","0","9.8","8","71","43","300","13","0.00","320","9",,,,,,,,,,,,,,,,,,,,,,,,,,,,,,,,,,,,,,,,,,,,,,,,"SOD73024 HR PRECIPITATION (IN):0.00  24 HR MAX TEMP (F):71 24 HR MAX TEMP TIME (LST):1607 24 HR MIN TEMP (F):43 24 HR MIN TEMP TIME (LST):0607 AVERAGE STATION PRESSURE:30.155 MINIMUM SEA LEVEL PRESSURE:30.12 TIME OF OCCURRENCE:0045 PEAK WIND SPEED (MPH):13  PEAK WIND DIR (DEG):300 PEAK WIND TIME (LST):1748  FASTEST 2MIN SPEED (MPH):9  FASTEST 2MIN DIR (DEG):320 FASTEST 2MIN TIME (LST):1624 AVERAGE WIND SPEED (MPH):2.4  24 HR AVG TEMP (F):57 HEATING DEGREE DAYS:8   COOLING DEGREE DAYS:0   LATEST DAY MAX TEMP (0700-1900 LST):71  LATEST NIGHT MIN TEMP(1900-0800 LST):43 HOURLY INCREMENTAL PRECIPITATION VALUES (IN):.00 0.00 0.00 0.00 0.00 0.00 0.00 0.00 0.00 0.00 0.00 0.00 0.00 0.00 0.00 0.00 0.00 0.00 0.00 0.00 0.00 0.00 0.00 0.00","SOD  ","6",,,,,,,,,,,,,,,,,,,,,,,,,"0617","1819","2007-05-17"
"72793524234","SEATTLE BOEING FIELD, WA US","47.54554","-122.31475","7.6","2024-03-18T00:53:00","FM-15","7",,,,,,,,,,,,,,,,,,,,,"30.20","43","51","0.00",,"0.01","8","74","30.19","CLR:00","30.17","10.00","47","000",,"0",,,,,,,,,,,,,,,,,,,,,,,,,,,,,"MET10103/18/24 00:53:02 METAR KBFI 180853Z 00000KT 10SM CLR 11/06 A3020 RMK AO2 SLP225 T01060061 58002 (SN)","FM-15","7",,,,,,,,,,,,,,,,,,,,,,,,,,,"2007-05-17"
"72793524234","SEATTLE BOEING FIELD, WA US","47.54554","-122.31475","7.6","2024-03-18T01:53:00","FM-15","7",,,,,,,,,,,,,,,,,,,,,"30.20","44","50","0.00",,,,"80","30.19","CLR:00","30.17","10.00","47","000",,"0",,,,,,,,,,,,,,,,,,,,,,,,,,,,,"MET09503/18/24 01:53:02 METAR KBFI 180953Z 00000KT 10SM CLR 10/07 A3020 RMK AO2 SLP225 T01000067 (SN)","FM-15","7",,,,,,,,,,,,,,,,,,,,,,,,,,,"2007-05-17"
"72793524234","SEATTLE BOEING FIELD, WA US","47.54554","-122.31475","7.6","2024-03-18T02:53:00","FM-15","7",,,,,,,,,,,,,,,,,,,,,"30.20","43","48","0.00",,,,"83","30.20","CLR:00","30.17","10.00","46","000",,"0",,,,,,,,,,,,,,,,,,,,,,,,,,,,,"MET09503/18/24 02:53:02 METAR KBFI 181053Z 00000KT 10SM CLR 09/06 A3020 RMK AO2 SLP227 T00890061 (SN)","FM-15","7",,,,,,,,,,,,,,,,,,,,,,,,,,,"2007-05-17"
"72793524234","SEATTLE BOEING FIELD, WA US","47.54554","-122.31475","7.6","2024-03-18T03:53:00","FM-15","7",,,,,,,,,,,,,,,,,,,,,"30.20","42","47","0.00",,"-0.01","0","83","30.20","CLR:00","30.17","10.00","45","000",,"0",,,,,,,,,,,,,,,,,,,,,,,,,,,,,"MET11303/18/24 03:53:02 METAR KBFI 181153Z 00000KT 10SM CLR 08/06 A3020 RMK AO2 SLP227 T00830056 10133 20072 50002 (SN)","FM-15","7",,,,,,,,,,,,,,,,,,,,,,,,,,,"2007-05-17"
"72793524234","SEATTLE BOEING FIELD, WA US","47.54554","-122.31475","7.6","2024-03-18T04:53:00","FM-15","7",,,,,,,,,,,,,,,,,,,,,"30.21","42","47","0.00",,,,"83","30.20","CLR:00","30.18","10.00","45","000",,"0",,,,,,,,,,,,,,,,,,,,,,,,,,,,,"MET09503/18/24 04:53:02 METAR KBFI 181253Z 00000KT 10SM CLR 08/06 A3021 RMK AO2 SLP228 T00830056 (LG)","FM-15","7",,,,,,,,,,,,,,,,,,,,,,,,,,,"2007-05-17"
"72793524234","SEATTLE BOEING FIELD, WA US","47.54554","-122.31475","7.6","2024-03-18T05:53:00","FM-15","7",,,,,,,,,,,,,,,,,,,,,"30.21","42","46","0.00",,,,"86","30.20","CLR:00","30.18","10.00","44","000",,"0",,,,,,,,,,,,,,,,,,,,,,,,,,,,,"MET09503/18/24 05:53:02 METAR KBFI 181353Z 00000KT 10SM CLR 08/06 A3021 RMK AO2 SLP228 T00780056 (LG)","FM-15","7",,,,,,,,,,,,,,,,,,,,,,,,,,,"2007-05-17"
"72793524234","SEATTLE BOEING FIELD, WA US","47.54554","-122.31475","7.6","2024-03-18T06:53:00","FM-15","7",,,,,,,,,,,,,,,,,,,,,"30.21","43","47","0.00",,"-0.01","3","86","30.21","CLR:00","30.18","10.00","45","000",,"0",,,,,,,,,,,,,,,,,,,,,,,,,,,,,"MET10103/18/24 06:53:02 METAR KBFI 181453Z 00000KT 10SM CLR 08/06 A3021 RMK AO2 SLP231 T00830061 53004 (LG)","FM-15","7",,,,,,,,,,,,,,,,,,,,,,,,,,,"2007-05-17"
"72793524234","SEATTLE BOEING FIELD, WA US","47.54554","-122.31475","7.6","2024-03-18T07:53:00","FM-15","7",,,,,,,,,,,,,,,,,,,,,"30.23","44","50","0.00",,,,"80","30.22","CLR:00","30.20","8.00","47","000",,"0",,,,,,,,,,,,,,,,,,,,,,,,,,,,,"MET09403/18/24 07:53:02 METAR KBFI 181553Z 00000KT 8SM CLR 10/07 A3023 RMK AO2 SLP235 T01000067 (LG)","FM-15","7",,,,,,,,,,,,,,,,,,,,,,,,,,,"2007-05-17"
"72793524234","SEATTLE BOEING FIELD, WA US","47.54554","-122.31475","7.6","2024-03-18T08:53:00","FM-15","7",,,,,,,,,,,,,,,,,,,,,"30.22","44","53","0.00",,,,"72","30.22","CLR:00","30.19","10.00","49","VRB",,"3",,,,,,,,,,,,,,,,,,,,,,,,,,,,,"MET09503/18/24 08:53:02 METAR KBFI 181653Z VRB03KT 10SM CLR 12/07 A3022 RMK AO2 SLP233 T01170067 (LG)","FM-15","7",,,,,,,,,,,,,,,,,,,,,,,,,,,"2007-05-17"
"72793524234","SEATTLE BOEING FIELD, WA US","47.54554","-122.31475","7.6","2024-03-18T09:53:00","FM-15","7",,,,,,,,,,,,,,,,,,,,,"30.21","46","54","0.00",,"0.00","0","75","30.21","SCT:04 200","30.18","10.00","50","300",,"6",,,,,,,,,,,,,,,,,,,,,,,,,,,,,"MET11603/18/24 09:53:02 METAR KBFI 181753Z 30005KT 10SM SCT200 12/08 A3021 RMK AO2 SLP231 T01220078 10128 20078 50000 (LG)","FM-15","7",,,,,,,,,,,,,,,,,,,,,,,,,,,"2007-05-17"
"72793524234","SEATTLE BOEING FIELD, WA US","47.54554","-122.31475","7.6","2024-03-18T10:53:00","FM-15","7",,,,,,,,,,,,,,,,,,,,,"30.20","46","59","0.00",,,,"62","30.19","CLR:00","30.17","10.00","52","300",,"7",,,,,,,,,,,,,,,,,,,,,,,,,,,,,"MET09503/18/24 10:53:02 METAR KBFI 181853Z 30006KT 10SM CLR 15/08 A3020 RMK AO2 SLP225 T01500078 (SN)","FM-15","7",,,,,,,,,,,,,,,,,,,,,,,,,,,"2007-05-17"
"72793524234","SEATTLE BOEING FIELD, WA US","47.54554","-122.31475","7.6","2024-03-18T11:53:00","FM-15","7",,,,,,,,,,,,,,,,,,,,,"30.18","46","61","0.00",,,,"58","30.17","CLR:00","30.15","10.00","53","330",,"6",,,,,,,,,,,,,,,,,,,,,,,,,,,,,"MET09503/18/24 11:53:02 METAR KBFI 181953Z 33005KT 10SM CLR 16/08 A3018 RMK AO2 SLP218 T01610078 (SN)","FM-15","7",,,,,,,,,,,,,,,,,,,,,,,,,,,"2007-05-17"
"72793524234","SEATTLE BOEING FIELD, WA US","47.54554","-122.31475","7.6","2024-03-18T12:53:00","FM-15","7",,,,,,,,,,,,,,,,,,,,,"30.15","44","63","0.00",,"0.06","8","50","30.15","SCT:04 200","30.12","10.00","53","300","17","9",,,,,,,,,,,,,,,,,,,,,,,,,,,,,"MET10703/18/24 12:53:02 METAR KBFI 182053Z 30008G15KT 10SM SCT200 17/07 A3015 RMK AO2 SLP210 T01720067 58021 (SN)","FM-15","7",,,,,,,,,,,,,,,,,,,,,,,,,,,"2007-05-17"
"72793524234","SEATTLE BOEING FIELD, WA US","47.54554","-122.31475","7.6","2024-03-18T13:53:00","FM-15","7",,,,,,,,,,,,,,,,,,,,,"30.13","43","63","0.00",,,,"48","30.13","CLR:00","30.10","10.00","53","310",,"9",,,,,,,,,,,,,,,,,,,,,,,,,,,,,"MET09503/18/24 13:53:02 METAR KBFI 182153Z 31008KT 10SM CLR 17/06 A3013 RMK AO2 SLP204 T01720061 (SN)","FM-15","7",,,,,,,,,,,,,,,,,,,,,,,,,,,"2007-05-17"
"72793524234","SEATTLE BOEING FIELD, WA US","47.54554","-122.31475","7.6","2024-03-18T14:53:00","FM-15","7",,,,,,,,,,,,,,,,,,,,,"30.12","45","65","0.00",,,,"49","30.11","CLR:00","30.09","10.00","54","330",,"9",,,,,,,,,,,,,,,,,,,,,,,,,,,,,"MET09503/18/24 14:53:02 METAR KBFI 182253Z 33008KT 10SM CLR 18/07 A3012 RMK AO2 SLP197 T01830072 (SN)","FM-15","7",,,,,,,,,,,,,,,,,,,,,,,,,,,"2007-05-17"
"72793524234","SEATTLE BOEING FIELD, WA US","47.54554","-122.31475","7.6","2024-03-18T15:53:00","FM-15","7",,,,,,,,,,,,,,,,,,,,,"30.10","42","65","0.00",,"0.05","6","43","30.10","CLR:00","30.07","10.00","53","320",,"8",,,,,,,,,,,,,,,,,,,,,,,,,,,,,"MET11303/18/24 15:53:02 METAR KBFI 182353Z 32007KT 10SM CLR 18/06 A3010 RMK AO2 SLP192 T01830056 10183 20128 56018 (SN)","FM-15","7",,,,,,,,,,,,,,,,,,,,,,,,,,,"2007-05-17"
"72793524234","SEATTLE BOEING FIELD, WA US","47.54554","-122.31475","7.6","2024-03-18T16:53:00","FM-15","7",,,,,,,,,,,,,,,,,,,,,"30.08","43","64","0.00",,,,"46","30.08","CLR:00","30.05","10.00","53","320",,"9",,,,,,,,,,,,,,,,,,,,,,,,,,,,,"MET09003/18/24 16:53:01 METAR KBFI 190053Z 32008KT 10SM CLR 18/06 A3008 RMK AO2 SLP186 T01780061","FM-15","7",,,,,,,,,,,,,,,,,,,,,,,,,,,"2007-05-17"
"72793524234","SEATTLE BOEING FIELD, WA US","47.54554","-122.31475","7.6","2024-03-18T17:53:00","FM-15","7",,,,,,,,,,,,,,,,,,,,,"30.07","40","62","0.00",,,,"44","30.07","CLR:00","30.04","10.00","51","310",,"7",,,,,,,,,,,,,,,,,,,,,,,,,,,,,"MET09003/18/24 17:53:01 METAR KBFI 190153Z 31006KT 10SM CLR 17/04 A3007 RMK AO2 SLP183 T01670044","FM-15","7",,,,,,,,,,,,,,,,,,,,,,,,,,,"2007-05-17"
"72793524234","SEATTLE BOEING FIELD, WA US","47.54554","-122.31475","7.6","2024-03-18T18:53:00","FM-15","7",,,,,,,,,,,,,,,,,,,,,"30.07","42","60","0.00",,"0.03","5","52","30.07","SCT:04 200","30.04","10.00","51","320",,"5",,,,,,,,,,,,,,,,,,,,,,,,,,,,,"MET09903/18/24 18:53:01 METAR KBFI 190253Z 32004KT 10SM SCT200 16/06 A3007 RMK AO2 SLP183 T01560056 55009","FM-15","7",,,,,,,,,,,,,,,,,,,,,,,,,,,"2007-05-17"
"72793524234","SEATTLE BOEING FIELD, WA US","47.54554","-122.31475","7.6","2024-03-18T19:53:00","FM-15","7",,,,,,,,,,,,,,,,,,,,,"30.08","45","57","0.00",,,,"64","30.07","CLR:00","30.05","10.00","51","300",,"3",,,,,,,,,,,,,,,,,,,,,,,,,,,,,"MET09003/18/24 19:53:02 METAR KBFI 190353Z 30003KT 10SM CLR 14/07 A3008 RMK AO2 SLP184 T01390072","FM-15","7",,,,,,,,,,,,,,,,,,,,,,,,,,,"2007-05-17"
"72793524234","SEATTLE BOEING FIELD, WA US","47.54554","-122.31475","7.6","2024-03-18T20:53:00","FM-15","7",,,,,,,,,,,,,,,,,,,,,"30.08","44","54","0.00",,,,"69","30.08","CLR:00","30.05","10.00","49","000",,"0",,,,,,,,,,,,,,,,,,,,,,,,,,,,,"MET09003/18/24 20:53:02 METAR KBFI 190453Z 00000KT 10SM CLR 12/07 A3008 RMK AO2 SLP185 T01220067","FM-15","7",,,,,,,,,,,,,,,,,,,,,,,,,,,"2007-05-17"
"72793524234","SEATTLE BOEING FIELD, WA US","47.54554","-122.31475","7.6","2024-03-18T21:53:00","FM-15","7",,,,,,,,,,,,,,,,,,,,,"30.08","45","54","0.00",,"0.00","0","72","30.07","CLR:00","30.05","10.00","49","000",,"0",,,,,,,,,,,,,,,,,,,,,,,,,,,,,"MET10803/18/24 21:53:02 METAR KBFI 190553Z 00000KT 10SM CLR 12/07 A3008 RMK AO2 SLP184 T01220072 10183 20122 50001","FM-15","7",,,,,,,,,,,,,,,,,,,,,,,,,,,"2007-05-17"
"72793524234","SEATTLE BOEING FIELD, WA US","47.54554","-122.31475","7.6","2024-03-18T22:53:00","FM-15","7",,,,,,,,,,,,,,,,,,,,,"30.07","45","52","0.00",,,,"77","30.07","CLR:00","30.04","10.00","49","250",,"3",,,,,,,,,,,,,,,,,,,,,,,,,,,,,"MET09003/18/24 22:53:02 METAR KBFI 190653Z 25003KT 10SM CLR 11/07 A3007 RMK AO2 SLP183 T01110072","FM-15","7",,,,,,,,,,,,,,,,,,,,,,,,,,,"2007-05-17"
"72793524234","SEATTLE BOEING FIELD, WA US","47.54554","-122.31475","7.6","2024-03-18T23:53:00","FM-15","7",,,,,,,,,,,,,,,,,,,,,"30.07","44","51","0.00",,,,"77","30.06","CLR:00","30.04","10.00","48","000",,"0",,,,,,,,,,,,,,,,,,,,,,,,,,,,,"MET10003/18/24 23:53:02 METAR KBFI 190753Z 00000KT 10SM CLR 11/07 A3007 RMK AO2 SLP181 T01060067 401830072","FM-15","7",,,,,,,,,,,,,,,,,,,,,,,,,,,"2007-05-17"
"72793524234","SEATTLE BOEING FIELD, WA US","47.54554","-122.31475","7.6","2024-03-18T23:59:00","SOD  ","6",,,,,"55","30.11","3.5","0","7.6","10","65","45","310","20","0.00","310","12",,,,,,,,,,,,,,,,,,,,,,,,,,,,,,,,,,,,,,,,,,,,,,,,"SOD73024 HR PRECIPITATION (IN):0.00  24 HR MAX TEMP (F):65 24 HR MAX TEMP TIME (LST):1646 24 HR MIN TEMP (F):45 24 HR MIN TEMP TIME (LST):0326 AVERAGE STATION PRESSURE:30.110 MINIMUM SEA LEVEL PRESSURE:30.06 TIME OF OCCURRENCE:2359 PEAK WIND SPEED (MPH):20  PEAK WIND DIR (DEG):310 PEAK WIND TIME (LST):1653  FASTEST 2MIN SPEED (MPH):12 FASTEST 2MIN DIR (DEG):310 FASTEST 2MIN TIME (LST):1557 AVERAGE WIND SPEED (MPH):3.5  24 HR AVG TEMP (F):55 HEATING DEGREE DAYS:10  COOLING DEGREE DAYS:0   LATEST DAY MAX TEMP (0700-1900 LST):65  LATEST NIGHT MIN TEMP(1900-0800 LST):45 HOURLY INCREMENTAL PRECIPITATION VALUES (IN):.00 0.00 0.00 0.00 0.00 0.00 0.00 0.00 0.00 0.00 0.00 0.00 0.00 0.00 0.00 0.00 0.00 0.00 0.00 0.00 0.00 0.00 0.00 0.00","SOD  ","6",,,,,,,,,,,,,,,,,,,,,,,,,"0615","1820","2007-05-17"
"72793524234","SEATTLE BOEING FIELD, WA US","47.54554","-122.31475","7.6","2024-03-19T00:53:00","FM-15","7",,,,,,,,,,,,,,,,,,,,,"30.06","43","50","0.00",,"0.01","6","77","30.06","CLR:00","30.03","10.00","47","000",,"0",,,,,,,,,,,,,,,,,,,,,,,,,,,,,"MET10103/19/24 00:53:02 METAR KBFI 190853Z 00000KT 10SM CLR 10/06 A3006 RMK AO2 SLP180 T01000061 56004 (SN)","FM-15","7",,,,,,,,,,,,,,,,,,,,,,,,,,,"2007-05-17"
"72793524234","SEATTLE BOEING FIELD, WA US","47.54554","-122.31475","7.6","2024-03-19T01:53:00","FM-15","7",,,,,,,,,,,,,,,,,,,,,"30.07","44","49","0.00",,,,"83","30.06","CLR:00","30.04","10.00","47","000",,"0",,,,,,,,,,,,,,,,,,,,,,,,,,,,,"MET09503/19/24 01:53:02 METAR KBFI 190953Z 00000KT 10SM CLR 09/07 A3007 RMK AO2 SLP180 T00940067 (SN)","FM-15","7",,,,,,,,,,,,,,,,,,,,,,,,,,,"2007-05-17"
"72793524234","SEATTLE BOEING FIELD, WA US","47.54554","-122.31475","7.6","2024-03-19T02:53:00","FM-15","7",,,,,,,,,,,,,,,,,,,,,"30.06","43","48","0.00",,,,"83","30.06","CLR:00","30.03","10.00","46","000",,"0",,,,,,,,,,,,,,,,,,,,,,,,,,,,,"MET09503/19/24 02:53:02 METAR KBFI 191053Z 00000KT 10SM CLR 09/06 A3006 RMK AO2 SLP179 T00890061 (SN)","FM-15","7",,,,,,,,,,,,,,,,,,,,,,,,,,,"2007-05-17"
"72793524234","SEATTLE BOEING FIELD, WA US","47.54554","-122.31475","7.6","2024-03-19T03:53:00","FM-15","7",,,,,,,,,,,,,,,,,,,,,"30.05","41","45","0.00",,"0.01","8","86","30.05","CLR:00","30.02","10.00","43","000",,"0",,,,,,,,,,,,,,,,,,,,,,,,,,,,,"MET11303/19/24 03:53:02 METAR KBFI 191153Z 00000KT 10SM CLR 07/05 A3005 RMK AO2 SLP176 T00720050 10122 20067 58005 (SN)","FM-15","7",,,,,,,,,,,,,,,,,,,,,,,,,,,"2007-05-17"
"72793524234","SEATTLE BOEING FIELD, WA US","47.54554","-122.31475","7.6","2024-03-19T04:53:00","FM-15","7",,,,,,,,,,,,,,,,,,,,,"30.03","40","44","0.00",,,,"85","30.03","CLR:00","30.00","10.00","42","000",,"0",,,,,,,,,,,,,,,,,,,,,,,,,,,,,"MET09503/19/24 04:53:02 METAR KBFI 191253Z 00000KT 10SM CLR 07/04 A3003 RMK AO2 SLP170 T00670044 (HW)","FM-15","7",,,,,,,,,,,,,,,,,,,,,,,,,,,"2007-05-17"
"72793524234","SEATTLE BOEING FIELD, WA US","47.54554","-122.31475","7.6","2024-03-19T05:53:00","FM-15","7",,,,,,,,,,,,,,,,,,,,,"30.02","41","44","0.00",,,,"89","30.02","CLR:00","29.99","10.00","43","000",,"0",,,,,,,,,,,,,,,,,,,,,,,,,,,,,"MET09503/19/24 05:53:02 METAR KBFI 191353Z 00000KT 10SM CLR 07/05 A3002 RMK AO2 SLP167 T00670050 (AS)","FM-15","7",,,,,,,,,,,,,,,,,,,,,,,,,,,"2007-05-17"
"72793524234","SEATTLE BOEING FIELD, WA US","47.54554","-122.31475","7.6","2024-03-19T06:53:00","FM-15","7",,,,,,,,,,,,,,,,,,,,,"30.03","41","44","0.00",,"0.02","5","89","30.03","CLR:00","30.00","10.00","43","140",,"3",,,,,,,,,,,,,,,,,,,,,,,,,,,,,"MET10103/19/24 06:53:02 METAR KBFI 191453Z 14003KT 10SM CLR 07/05 A3003 RMK AO2 SLP168 T00670050 55007 (MB)","FM-15","7",,,,,,,,,,,,,,,,,,,,,,,,,,,"2007-05-17"
"72793524234","SEATTLE BOEING FIELD, WA US","47.54554","-122.31475","7.6","2024-03-19T07:53:00","FM-15","7",,,,,,,,,,,,,,,,,,,,,"30.04","44","48","0.00",,,,"86","30.04","CLR:00","30.01","9.00","46","180",,"3",,,,,,,,,,,,,,,,,,,,,,,,,,,,,"MET09403/19/24 07:53:02 METAR KBFI 191553Z 18003KT 9SM CLR 09/07 A3004 RMK AO2 SLP173 T00890067 (MB)","FM-15","7",,,,,,,,,,,,,,,,,,,,,,,,,,,"2007-05-17"
"72793524234","SEATTLE BOEING FIELD, WA US","47.54554","-122.31475","7.6","2024-03-19T08:53:00","FM-15","7",,,,,,,,,,,,,,,,,,,,,"30.04","45","51","0.00",,,,"80","30.04","CLR:00","30.01","10.00","48","180",,"3",,,,,,,,,,,,,,,,,,,,,,,,,,,,,"MET09503/19/24 08:53:02 METAR KBFI 191653Z 18003KT 10SM CLR 11/07 A3004 RMK AO2 SLP173 T01060072 (MB)","FM-15","7",,,,,,,,,,,,,,,,,,,,,,,,,,,"2007-05-17"
"72793524234","SEATTLE BOEING FIELD, WA US","47.54554","-122.31475","7.6","2024-03-19T09:53:00","FM-15","7",,,,,,,,,,,,,,,,,,,,,"30.04","45","55","0.00",,"-0.01","0","69","30.04","CLR:00","30.01","10.00","50","VRB",,"3",,,,,,,,,,,,,,,,,,,,,,,,,,,,,"MET11303/19/24 09:53:02 METAR KBFI 191753Z VRB03KT 10SM CLR 13/07 A3004 RMK AO2 SLP173 T01280072 10128 20056 50004 (MB)","FM-15","7",,,,,,,,,,,,,,,,,,,,,,,,,,,"2007-05-17"
"72793524234","SEATTLE BOEING FIELD, WA US","47.54554","-122.31475","7.6","2024-03-19T10:53:00","FM-15","7",,,,,,,,,,,,,,,,,,,,,"30.03","46","57","0.00",,,,"67","30.03","SCT:04 200","30.00","10.00","51","310",,"5",,,,,,,,,,,,,,,,,,,,,,,,,,,,,"MET09803/19/24 10:53:02 METAR KBFI 191853Z 31004KT 10SM SCT200 14/08 A3003 RMK AO2 SLP169 T01390078 (SN)","FM-15","7",,,,,,,,,,,,,,,,,,,,,,,,,,,"2007-05-17"
"72793524234","SEATTLE BOEING FIELD, WA US","47.54554","-122.31475","7.6","2024-03-19T11:53:00","FM-15","7",,,,,,,,,,,,,,,,,,,,,"30.01","46","60","0.00",,,,"60","30.01","CLR:00","29.98","10.00","53","330",,"3",,,,,,,,,,,,,,,,,,,,,,,,,,,,,"MET09503/19/24 11:53:02 METAR KBFI 191953Z 33003KT 10SM CLR 16/08 A3001 RMK AO2 SLP163 T01560078 (SN)","FM-15","7",,,,,,,,,,,,,,,,,,,,,,,,,,,"2007-05-17"
"72793524234","SEATTLE BOEING FIELD, WA US","47.54554","-122.31475","7.6","2024-03-19T12:53:00","FM-15","7",,,,,,,,,,,,,,,,,,,,,"29.99","47","63","0.00",,"0.05","8","56","29.99","CLR:00","29.96","10.00","55","000",,"0",,,,,,,,,,,,,,,,,,,,,,,,,,,,,"MET10103/19/24 12:53:02 METAR KBFI 192053Z 00000KT 10SM CLR 17/08 A2999 RMK AO2 SLP156 T01720083 58017 (SN)","FM-15","7",,,,,,,,,,,,,,,,,,,,,,,,,,,"2007-05-17"
"72793524234","SEATTLE BOEING FIELD, WA US","47.54554","-122.31475","7.6","2024-03-19T13:53:00","FM-15","7",,,,,,,,,,,,,,,,,,,,,"29.96","45","64","0.00",,,,"50","29.96","CLR:00","29.93","10.00","54","VRB",,"5",,,,,,,,,,,,,,,,,,,,,,,,,,,,,"MET09503/19/24 13:53:02 METAR KBFI 192153Z VRB04KT 10SM CLR 18/07 A2996 RMK AO2 SLP146 T01780072 (LG)","FM-15","7",,,,,,,,,,,,,,,,,,,,,,,,,,,"2007-05-17"
"72793524234","SEATTLE BOEING FIELD, WA US","47.54554","-122.31475","7.6","2024-03-19T14:53:00","FM-15","7",,,,,,,,,,,,,,,,,,,,,"29.95","41","68","0.00",,,,"38","29.95","CLR:00","29.92","10.00","54","000",,"0",,,,,,,,,,,,,,,,,,,,,,,,,,,,,"MET09503/19/24 14:53:02 METAR KBFI 192253Z 00000KT 10SM CLR 20/05 A2995 RMK AO2 SLP142 T02000050 (LG)","FM-15","7",,,,,,,,,,,,,,,,,,,,,,,,,,,"2007-05-17"
"72793524234","SEATTLE BOEING FIELD, WA US","47.54554","-122.31475","7.6","2024-03-19T15:53:00","FM-15","7",,,,,,,,,,,,,,,,,,,,,"29.94","44","66","0.00",,"0.05","6","45","29.94","CLR:00","29.91","10.00","54","220",,"6",,,,,,,,,,,,,,,,,,,,,,,,,,,,,"MET11303/19/24 15:53:02 METAR KBFI 192353Z 22005KT 10SM CLR 19/07 A2994 RMK AO2 SLP138 T01890067 10200 20128 56018 (LG)","FM-15","7",,,,,,,,,,,,,,,,,,,,,,,,,,,"2007-05-17"
"72793524234","SEATTLE BOEING FIELD, WA US","47.54554","-122.31475","7.6","2024-03-19T16:53:00","FM-15","7",,,,,,,,,,,,,,,,,,,,,"29.93","47","64","0.00",,,,"54","29.93","CLR:00","29.90","10.00","55","200",,"8",,,,,,,,,,,,,,,,,,,,,,,,,,,,,"MET09003/19/24 16:53:01 METAR KBFI 200053Z 20007KT 10SM CLR 18/08 A2993 RMK AO2 SLP136 T01780083","FM-15","7",,,,,,,,,,,,,,,,,,,,,,,,,,,"2007-05-17"
"72793524234","SEATTLE BOEING FIELD, WA US","47.54554","-122.31475","7.6","2024-03-19T17:53:00","FM-15","7",,,,,,,,,,,,,,,,,,,,,"29.94","47","60","0.00",,,,"62","29.93","CLR:00","29.91","10.00","53","210",,"8",,,,,,,,,,,,,,,,,,,,,,,,,,,,,"MET09003/19/24 17:53:01 METAR KBFI 200153Z 21007KT 10SM CLR 16/08 A2994 RMK AO2 SLP137 T01560083","FM-15","7",,,,,,,,,,,,,,,,,,,,,,,,,,,"2007-05-17"
"72793524234","SEATTLE BOEING FIELD, WA US","47.54554","-122.31475","7.6","2024-03-19T18:53:00","FM-15","7",,,,,,,,,,,,,,,,,,,,,"29.96","44","54","0.00",,"-0.02","3","69","29.96","CLR:00","29.93","10.00","49","210",,"8",,,,,,,,,,,,,,,,,,,,,,,,,,,,,"MET09603/19/24 18:53:01 METAR KBFI 200253Z 21007KT 10SM CLR 12/07 A2996 RMK AO2 SLP145 T01220067 53006","FM-15","7",,,,,,,,,,,,,,,,,,,,,,,,,,,"2007-05-17"
"72793524234","SEATTLE BOEING FIELD, WA US","47.54554","-122.31475","7.6","2024-03-19T19:53:00","FM-15","7",,,,,,,,,,,,,,,,,,,,,"29.98","43","51","0.00",,,,"74","29.98","CLR:00","29.95","10.00","47","210",,"8",,,,,,,,,,,,,,,,,,,,,,,,,,,,,"MET09003/19/24 19:53:02 METAR KBFI 200353Z 21007KT 10SM CLR 11/06 A2998 RMK AO2 SLP151 T01060061","FM-15","7",,,,,,,,,,,,,,,,,,,,,,,,,,,"2007-05-17"
"72793524234","SEATTLE BOEING FIELD, WA US","47.54554","-122.31475","7.6","2024-03-19T20:53:00","FM-15","7",,,,,,,,,,,,,,,,,,,,,"30.00","41","49","0.00",,,,"74","30.00","CLR:00","29.97","10.00","45","210",,"8",,,,,,,,,,,,,,,,,,,,,,,,,,,,,"MET09003/19/24 20:53:01 METAR KBFI 200453Z 21007KT 10SM CLR 09/05 A3000 RMK AO2 SLP158 T00940050","FM-15","7",,,,,,,,,,,,,,,,,,,,,,,,,,,"2007-05-17"
"72793524234","SEATTLE BOEING FIELD, WA US","47.54554","-122.31475","7.6","2024-03-19T21:53:00","FM-15","7",,,,,,,,,,,,,,,,,,,,,"30.01","41","48","0.00",,"-0.05","1","77","30.01","FEW:02 16","29.98","10.00","45","170",,"9",,,,,,,,,,,,,,,,,,,,,,,,,,,,,"MET11103/19/24 21:53:01 METAR KBFI 200553Z 17008KT 10SM FEW016 09/05 A3001 RMK AO2 SLP163 T00890050 10189 20083 51018","FM-15","7",,,,,,,,,,,,,,,,,,,,,,,,,,,"2007-05-17"
"72793524234","SEATTLE BOEING FIELD, WA US","47.54554","-122.31475","7.6","2024-03-19T22:51:00","FM-16","6",,,,,,,,,,,,,,,,,,,,,"30.02","41","46",,,,,"82",,"OVC:08 19","29.99","10.00","44","170",,"8",,,,,,,,,,,,,,,,,,,,,,,,,,,,,"MET08603/19/24 22:51:03 SPECI KBFI 200651Z 17007KT 10SM OVC019 08/05 A3002 RMK AO2 FIBI (MB)","FM-16","6",,,,,,,,,,,,,,,,,,,,,,,,,,,"2007-05-17"
"72793524234","SEATTLE BOEING FIELD, WA US","47.54554","-122.31475","7.6","2024-03-19T22:53:00","FM-15","7",,,,,,,,,,,,,,,,,,,,,"30.02","41","47","0.00",,,,"80","30.02","OVC:08 19","29.99","10.00","44","170",,"8",,,,,,,,,,,,,,,,,,,,,,,,,,,,,"MET09303/19/24 22:53:01 METAR KBFI 200653Z 17007KT 10SM OVC019 08/05 A3002 RMK AO2 SLP166 T00830050","FM-15","7",,,,,,,,,,,,,,,,,,,,,,,,,,,"2007-05-17"
"72793524234","SEATTLE BOEING FIELD, WA US","47.54554","-122.31475","7.6","2024-03-19T23:53:00","FM-15","7",,,,,,,,,,,,,,,,,,,,,"30.02","41","48","0.00",,,,"77","30.01","OVC:08 23","29.99","10.00","45","200",,"8",,,,,,,,,,,,,,,,,,,,,,,,,,,,,"MET10303/19/24 23:53:01 METAR KBFI 200753Z 20007KT 10SM OVC023 09/05 A3002 RMK AO2 SLP164 T00890050 402000056","FM-15","7",,,,,,,,,,,,,,,,,,,,,,,,,,,"2007-05-17"
"72793524234","SEATTLE BOEING FIELD, WA US","47.54554","-122.31475","7.6","2024-03-19T23:59:00","SOD  ","6",,,,,"55","29.98","4.1","0","7.4","10","68","42","180","18","0.00","180","10",,,,,,,,,,,,,,,,,,,,,,,,,,,,,,,,,,,,,,,,,,,,,,,,"SOD73024 HR PRECIPITATION (IN):0.00  24 HR MAX TEMP (F):68 24 HR MAX TEMP TIME (LST):1453 24 HR MIN TEMP (F):42 24 HR MIN TEMP TIME (LST):0446 AVERAGE STATION PRESSURE:29.975 MINIMUM SEA LEVEL PRESSURE:29.93 TIME OF OCCURRENCE:1751 PEAK WIND SPEED (MPH):18  PEAK WIND DIR (DEG):180 PEAK WIND TIME (LST):2116  FASTEST 2MIN SPEED (MPH):10 FASTEST 2MIN DIR (DEG):180 FASTEST 2MIN TIME (LST):2351 AVERAGE WIND SPEED (MPH):4.1  24 HR AVG TEMP (F):55 HEATING DEGREE DAYS:10  COOLING DEGREE DAYS:0   LATEST DAY MAX TEMP (0700-1900 LST):68  LATEST NIGHT MIN TEMP(1900-0800 LST):42 HOURLY INCREMENTAL PRECIPITATION VALUES (IN):.00 0.00 0.00 0.00 0.00 0.00 0.00 0.00 0.00 0.00 0.00 0.00 0.00 0.00 0.00 0.00 0.00 0.00 0.00 0.00 0.00 0.00 0.00 0.00","SOD  ","6",,,,,,,,,,,,,,,,,,,,,,,,,"0613","1822","2007-05-17"
"72793524234","SEATTLE BOEING FIELD, WA US","47.54554","-122.31475","7.6","2024-03-20T00:53:00","FM-15","7",,,,,,,,,,,,,,,,,,,,,"30.02","41","48","0.00",,"-0.01","1","77","30.02","OVC:08 18","29.99","10.00","45","190",,"7",,,,,,,,,,,,,,,,,,,,,,,,,,,,,"MET10403/20/24 00:53:02 METAR KBFI 200853Z 19006KT 10SM OVC018 09/05 A3002 RMK AO2 SLP166 T00890050 51003 (MB)","FM-15","7",,,,,,,,,,,,,,,,,,,,,,,,,,,"2007-05-17"
"72793524234","SEATTLE BOEING FIELD, WA US","47.54554","-122.31475","7.6","2024-03-20T01:53:00","FM-15","7",,,,,,,,,,,,,,,,,,,,,"30.01","40","48","0.00",,,,"74","30.01","OVC:08 20","29.98","10.00","44","180",,"6",,,,,,,,,,,,,,,,,,,,,,,,,,,,,"MET09803/20/24 01:53:02 METAR KBFI 200953Z 18005KT 10SM OVC020 09/04 A3001 RMK AO2 SLP163 T00890044 (MB)","FM-15","7",,,,,,,,,,,,,,,,,,,,,,,,,,,"2007-05-17"
"72793524234","SEATTLE BOEING FIELD, WA US","47.54554","-122.31475","7.6","2024-03-20T02:53:00","FM-15","7",,,,,,,,,,,,,,,,,,,,,"30.01","39","48","0.00",,,,"71","30.01","OVC:08 21","29.98","10.00","44","190",,"6",,,,,,,,,,,,,,,,,,,,,,,,,,,,,"MET09803/20/24 02:53:02 METAR KBFI 201053Z 19005KT 10SM OVC021 09/04 A3001 RMK AO2 SLP161 T00890039 (MB)","FM-15","7",,,,,,,,,,,,,,,,,,,,,,,,,,,"2007-05-17"
"72793524234","SEATTLE BOEING FIELD, WA US","47.54554","-122.31475","7.6","2024-03-20T03:53:00","FM-15","7",,,,,,,,,,,,,,,,,,,,,"30.01","39","48","0.00",,"0.01","6","71","30.01","OVC:08 22","29.98","10.00","44","200",,"6",,,,,,,,,,,,,,,,,,,,,,,,,,,,,"MET11603/20/24 03:53:02 METAR KBFI 201153Z 20005KT 10SM OVC022 09/04 A3001 RMK AO2 SLP161 T00890039 10089 20083 56004 (MB)","FM-15","7",,,,,,,,,,,,,,,,,,,,,,,,,,,"2007-05-17"
"72793524234","SEATTLE BOEING FIELD, WA US","47.54554","-122.31475","7.6","2024-03-20T04:53:00","FM-15","7",,,,,,,,,,,,,,,,,,,,,"30.01","39","48","0.00",,,,"71","30.01","OVC:08 22","29.98","10.00","44","180",,"7",,,,,,,,,,,,,,,,,,,,,,,,,,,,,"MET09803/20/24 04:53:02 METAR KBFI 201253Z 18006KT 10SM OVC022 09/04 A3001 RMK AO2 SLP162 T00890039 (SN)","FM-15","7",,,,,,,,,,,,,,,,,,,,,,,,,,,"2007-05-17"
"72793524234","SEATTLE BOEING FIELD, WA US","47.54554","-122.31475","7.6","2024-03-20T05:53:00","FM-15","7",,,,,,,,,,,,,,,,,,,,,"30.01","39","48","0.00",,,,"71","30.01","OVC:08 21","29.98","10.00","44","180",,"7",,,,,,,,,,,,,,,,,,,,,,,,,,,,,"MET09803/20/24 05:53:02 METAR KBFI 201353Z 18006KT 10SM OVC021 09/04 A3001 RMK AO2 SLP161 T00890039 (SN)","FM-15","7",,,,,,,,,,,,,,,,,,,,,,,,,,,"2007-05-17"
"72793524234","SEATTLE BOEING FIELD, WA US","47.54554","-122.31475","7.6","2024-03-20T06:53:00","FM-15","7",,,,,,,,,,,,,,,,,,,,,"30.01","40","47","0.00",,"0.00","3","77","30.01","OVC:08 19","29.98","10.00","44","220",,"3",,,,,,,,,,,,,,,,,,,,,,,,,,,,,"MET10403/20/24 06:53:02 METAR KBFI 201453Z 22003KT 10SM OVC019 08/04 A3001 RMK AO2 SLP162 T00830044 53001 (SN)","FM-15","7",,,,,,,,,,,,,,,,,,,,,,,,,,,"2007-05-17"
"72793524234","SEATTLE BOEING FIELD, WA US","47.54554","-122.31475","7.6","2024-03-20T07:53:00","FM-15","7",,,,,,,,,,,,,,,,,,,,,"30.02","40","48","0.00",,,,"74","30.02","OVC:08 19","29.99","10.00","44","190",,"7",,,,,,,,,,,,,,,,,,,,,,,,,,,,,"MET09803/20/24 07:53:02 METAR KBFI 201553Z 19006KT 10SM OVC019 09/04 A3002 RMK AO2 SLP165 T00890044 (SN)","FM-15","7",,,,,,,,,,,,,,,,,,,,,,,,,,,"2007-05-17"
"72793524234","SEATTLE BOEING FIELD, WA US","47.54554","-122.31475","7.6","2024-03-20T08:53:00","FM-15","7",,,,,,,,,,,,,,,,,,,,,"30.02","39","48","0.00",,,,"71","30.02","SCT:04 23 BKN:07 29 OVC:08 39","29.99","10.00","44","180",,"5",,,,,,,,,,,,,,,,,,,,,,,,,,,,,"MET11203/20/24 08:53:02 METAR KBFI 201653Z 18004KT 10SM SCT023 BKN029 OVC039 09/04 A3002 RMK AO2 SLP166 T00890039 (SN)","FM-15","7",,,,,,,,,,,,,,,,,,,,,,,,,,,"2007-05-17"
"72793524234","SEATTLE BOEING FIELD, WA US","47.54554","-122.31475","7.6","2024-03-20T09:08:00","FM-16","7",,,,,,,,,,,,,,,,,,,,,"30.02","39","49",,,,,"69",,"SCT:04 25 BKN:07 34 OVC:08 41","29.99","10.00","44","000",,"0",,,,,,,,,,,,,,,,,,,,,,,,,,,,,"MET10503/20/24 09:08:02 SPECI KBFI 201708Z 00000KT 10SM SCT025 BKN034 OVC041 09/04 A3002 RMK AO2 T00940039 (SN)","FM-16","7",,,,,,,,,,,,,,,,,,,,,,,,,,,"2007-05-17"
"72793524234","SEATTLE BOEING FIELD, WA US","47.54554","-122.31475","7.6","2024-03-20T09:53:00","FM-15","7",,,,,,,,,,,,,,,,,,,,,"30.02","40","50","0.00",,"-0.01","1","68","30.02","BKN:07 26 OVC:08 40","29.99","10.00","45","140",,"5",,,,,,,,,,,,,,,,,,,,,,,,,,,,,"MET12303/20/24 09:53:02 METAR KBFI 201753Z 14004KT 10SM BKN026 OVC040 10/04 A3002 RMK AO2 SLP166 T01000044 10100 20083 51004 (SN)","FM-15","7",,,,,,,,,,,,,,,,,,,,,,,,,,,"2007-05-17"
"72793524234","SEATTLE BOEING FIELD, WA US","47.54554","-122.31475","7.6","2024-03-20T10:51:00","FM-16","6",,,,,,,,,,,,,,,,,,,,,"30.02","39","50",,,,,"67",,"BKN:07 28 OVC:08 41","29.99","10.00","45","000",,"0",,,,,,,,,,,,,,,,,,,,,,,,,,,,,"MET09303/20/24 10:51:02 SPECI KBFI 201851Z 00000KT 10SM BKN028 OVC041 10/04 A3002 RMK AO2 FIBI (AD)","FM-16","6",,,,,,,,,,,,,,,,,,,,,,,,,,,"2007-05-17"
"72793524234","SEATTLE BOEING FIELD, WA US","47.54554","-122.31475","7.6","2024-03-20T10:53:00","FM-15","7",,,,,,,,,,,,,,,,,,,,,"30.02","40","50","0.00",,,,"68","30.02","BKN:07 28 OVC:08 41","29.99","10.00","45",,,,,,,,,,,,,,,,,,,,,,,,,,,,,,,,"MET10503/20/24 10:53:02 METAR KBFI 201853Z      KT 10SM BKN028 OVC041 10/04 A3002 RMK AO2 SLP165 T01000044 (AD)","FM-15","7",,,,,,,,,,,,,,,,,,,,,,,,,,,"2007-05-17"
"72793524234","SEATTLE BOEING FIELD, WA US","47.54554","-122.31475","7.6","2024-03-20T11:53:00","FM-15","7",,,,,,,,,,,,,,,,,,,,,"30.01","40","51","0.00",,,,"66","30.01","BKN:07 28 OVC:08 41","29.98","10.00","46","190",,"8",,,,,,,,,,,,,,,,,,,,,,,,,,,,,"MET10503/20/24 11:53:02 METAR KBFI 201953Z 19007KT 10SM BKN028 OVC041 11/04 A3001 RMK AO2 SLP163 T01060044 (AD)","FM-15","7",,,,,,,,,,,,,,,,,,,,,,,,,,,"2007-05-17"
"72793524234","SEATTLE BOEING FIELD, WA US","47.54554","-122.31475","7.6","2024-03-20T12:53:00","FM-15","7",,,,,,,,,,,,,,,,,,,,,"30.01","41","52","0.00",,"0.02","8","66","30.00","BKN:07 28 OVC:08 41","29.98","10.00","47","VRB",,"7",,,,,,,,,,,,,,,,,,,,,,,,,,,,,"MET11103/20/24 12:53:02 METAR KBFI 202053Z VRB06KT 10SM BKN028 OVC041 11/05 A3001 RMK AO2 SLP160 T01110050 58006 (AD)","FM-15","7",,,,,,,,,,,,,,,,,,,,,,,,,,,"2007-05-17"
"72793524234","SEATTLE BOEING FIELD, WA US","47.54554","-122.31475","7.6","2024-03-20T13:51:00","FM-16","6",,,,,,,,,,,,,,,,,,,,,"29.99","41","54",,,,,"63",,"BKN:07 30 OVC:08 48","29.96","10.00","48","190",,"5",,,,,,,,,,,,,,,,,,,,,,,,,,,,,"MET09303/20/24 13:51:02 SPECI KBFI 202151Z 19004KT 10SM BKN030 OVC048 12/05 A2999 RMK AO2 FIBI (AD)","FM-16","6",,,,,,,,,,,,,,,,,,,,,,,,,,,"2007-05-17"
"72793524234","SEATTLE BOEING FIELD, WA US","47.54554","-122.31475","7.6","2024-03-20T13:53:00","FM-15","7",,,,,,,,,,,,,,,,,,,,,"29.99","41","53","0.00",,,,"64","29.99","BKN:07 30 OVC:08 48","29.96","10.00","47","190",,"6",,,,,,,,,,,,,,,,,,,,,,,,,,,,,"MET10503/20/24 13:53:02 METAR KBFI 202153Z 19005KT 10SM BKN030 OVC048 12/05 A2999 RMK AO2 SLP155 T01170050 (AD)","FM-15","7",,,,,,,,,,,,,,,,,,,,,,,,,,,"2007-05-17"
"72793524234","SEATTLE BOEING FIELD, WA US","47.54554","-122.31475","7.6","2024-03-20T14:53:00","FM-15","7",,,,,,,,,,,,,,,,,,,,,"29.98","40","52","0.00",,,,"64","29.98","OVC:08 48","29.95","10.00","46","150",,"7",,,,,,,,,,,,,,,,,,,,,,,,,,,,,"MET09803/20/24 14:53:02 METAR KBFI 202253Z 15006KT 10SM OVC048 11/04 A2998 RMK AO2 SLP153 T01110044 (AD)","FM-15","7",,,,,,,,,,,,,,,,,,,,,,,,,,,"2007-05-17"
"72793524234","SEATTLE BOEING FIELD, WA US","47.54554","-122.31475","7.6","2024-03-20T15:53:00","FM-15","7",,,,,,,,,,,,,,,,,,,,,"29.98","41","52","0.00",,"0.03","6","66","29.97","FEW:02 28 OVC:08 48","29.95","10.00","47","160",,"7",,,,,,,,,,,,,,,,,,,,,,,,,,,,,"MET12303/20/24 15:53:02 METAR KBFI 202353Z 16006KT 10SM FEW028 OVC048 11/05 A2998 RMK AO2 SLP150 T01110050 10117 20100 56010 (AD)","FM-15","7",,,,,,,,,,,,,,,,,,,,,,,,,,,"2007-05-17"
"72793524234","SEATTLE BOEING FIELD, WA US","47.54554","-122.31475","7.6","2024-03-20T16:53:00","FM-15","7",,,,,,,,,,,,,,,,,,,,,"29.97","42","52","0.00",,,,"69","29.97","SCT:04 29 BKN:07 34 OVC:08 50","29.94","10.00","47","150",,"9",,,,,,,,,,,,,,,,,,,,,,,,,,,,,"MET10703/20/24 16:53:01 METAR KBFI 210053Z 15008KT 10SM SCT029 BKN034 OVC050 11/06 A2997 RMK AO2 SLP150 T01110056","FM-15","7",,,,,,,,,,,,,,,,,,,,,,,,,,,"2007-05-17"
"72793524234","SEATTLE BOEING FIELD, WA US","47.54554","-122.31475","7.6","2024-03-20T17:53:00","FM-15","7",,,,,,,,,,,,,,,,,,,,,"29.97","42","51","0.00",,,,"71","29.97","SCT:04 23 BKN:07 30 OVC:08 50","29.94","10.00","47","150",,"8",,,,,,,,,,,,,,,,,,,,,,,,,,,,,"MET10703/20/24 17:53:01 METAR KBFI 210153Z 15007KT 10SM SCT023 BKN030 OVC050 11/06 A2997 RMK AO2 SLP149 T01060056","FM-15","7",,,,,,,,,,,,,,,,,,,,,,,,,,,"2007-05-17"
"72793524234","SEATTLE BOEING FIELD, WA US","47.54554","-122.31475","7.6","2024-03-20T18:53:00","FM-15","7",,,,,,,,,,,,,,,,,,,,,"29.98","42","51","0.00",,"-0.01","3","71","29.98","FEW:02 47 BKN:07 60 OVC:08 100","29.95","10.00","47","130",,"7",,,,,,,,,,,,,,,,,,,,,,,,,,,,,"MET11303/20/24 18:53:01 METAR KBFI 210253Z 13006KT 10SM FEW047 BKN060 OVC100 11/06 A2998 RMK AO2 SLP152 T01060056 53002","FM-15","7",,,,,,,,,,,,,,,,,,,,,,,,,,,"2007-05-17"
"72793524234","SEATTLE BOEING FIELD, WA US","47.54554","-122.31475","7.6","2024-03-20T19:53:00","FM-15","7",,,,,,,,,,,,,,,,,,,,,"29.99","42","51","0.00",,,,"71","29.98","BKN:07 60 BKN:07 90 OVC:08 100","29.96","10.00","47","130",,"6",,,,,,,,,,,,,,,,,,,,,,,,,,,,,"MET10703/20/24 19:53:02 METAR KBFI 210353Z 13005KT 10SM BKN060 BKN090 OVC100 11/06 A2999 RMK AO2 SLP154 T01060056","FM-15","7",,,,,,,,,,,,,,,,,,,,,,,,,,,"2007-05-17"
"72793524234","SEATTLE BOEING FIELD, WA US","47.54554","-122.31475","7.6","2024-03-20T20:53:00","FM-15","7",,,,,,,,,,,,,,,,,,,,,"29.98","42","51","0.00",,,,"71","29.98","SCT:04 60 OVC:08 80","29.95","10.00","47","130",,"3",,,,,,,,,,,,,,,,,,,,,,,,,,,,,"MET10003/20/24 20:53:01 METAR KBFI 210453Z 13003KT 10SM SCT060 OVC080 11/06 A2998 RMK AO2 SLP153 T01060056","FM-15","7",,,,,,,,,,,,,,,,,,,,,,,,,,,"2007-05-17"
"72793524234","SEATTLE BOEING FIELD, WA US","47.54554","-122.31475","7.6","2024-03-20T21:51:00","FM-16","6",,,,,,,,,,,,,,,,,,,,,"29.99","45","50",,"-RA:02 |RA |RA",,,"82",,"OVC:08 26","29.96","10.00","48","130",,"5",,,,,,,,,,,,,,,,,,,,,,,,,,,,,"MET10203/20/24 21:51:03 SPECI KBFI 210551Z 13004KT 10SM -RA OVC026 10/07 A2999 RMK AO2 RAB08 P0000 FIBI (SN)","FM-16","6",,,,,,,,,,,,,,,,,,,,,,,,,,,"2007-05-17"
"72793524234","SEATTLE BOEING FIELD, WA US","47.54554","-122.31475","7.6","2024-03-20T21:53:00","FM-15","7",,,,,,,,,,,,,,,,,,,,,"29.99","44","50","T",,"-0.01","3","80","29.99","OVC:08 26","29.96","10.00","47","140",,"6",,,,,,,,,,,,,,,,,,,,,,,,,,,,,"MET13203/20/24 21:53:01 METAR KBFI 210553Z 14005KT 10SM OVC026 10/07 A2999 RMK AO2 RAB08E52 SLP156 P0000 60000 T01000067 10111 20094 53004","FM-15","7",,,,,,,,,,,,,,,,,,,,,,,,,,,"2007-05-17"
"72793524234","SEATTLE BOEING FIELD, WA US","47.54554","-122.31475","7.6","2024-03-20T22:53:00","FM-15","7",,,,,,,,,,,,,,,,,,,,,"29.99","45","49","T","-RA:02 |RA |RA",,,"86","29.99","BKN:07 17 OVC:08 41","29.96","10.00","47","140",,"6",,,,,,,,,,,,,,,,,,,,,,,,,,,,,"MET11603/20/24 22:53:01 METAR KBFI 210653Z 14005KT 10SM -RA BKN017 OVC041 09/07 A2999 RMK AO2 RAB06 SLP156 P0000 T00940072","FM-15","7",,,,,,,,,,,,,,,,,,,,,,,,,,,"2007-05-17"
"72793524234","SEATTLE BOEING FIELD, WA US","47.54554","-122.31475","7.6","2024-03-20T23:53:00","FM-15","7",,,,,,,,,,,,,,,,,,,,,"30.00","46","48","T","-RA:02 |RA |RA",,,"93","29.99","SCT:04 16 BKN:07 20 OVC:08 43","29.97","7.00","47","140",,"5",,,,,,,,,,,,,,,,,,,,,,,,,,,,,"MET12603/20/24 23:53:01 METAR KBFI 210753Z 14004KT 7SM -RA SCT016 BKN020 OVC043 09/08 A3000 RMK AO2 SLP157 P0000 T00890078 401170083","FM-15","7",,,,,,,,,,,,,,,,,,,,,,,,,,,"2007-05-17"
"72793524234","SEATTLE BOEING FIELD, WA US","47.54554","-122.31475","7.6","2024-03-20T23:59:00","SOD  ","6",,,,,"50","29.96","6.2","0","2.3","15","53","47","170","26","T","170","13","RA",,,,,,,,,,,,,,,,,,,,,,,,,,,,,,,,,,,,,,,,,,,,,,,"SOD72724 HR PRECIPITATION (IN):T     24 HR MAX TEMP (F):53 24 HR MAX TEMP TIME (LST):1503 24 HR MIN TEMP (F):47 24 HR MIN TEMP TIME (LST):0711 AVERAGE STATION PRESSURE:29.965 MINIMUM SEA LEVEL PRESSURE:29.97 TIME OF OCCURRENCE:1822 PEAK WIND SPEED (MPH):26  PEAK WIND DIR (DEG):170 PEAK WIND TIME (LST):1358  FASTEST 2MIN SPEED (MPH):13 FASTEST 2MIN DIR (DEG):170 FASTEST 2MIN TIME (LST):0330 AVERAGE WIND SPEED (MPH):6.2  24 HR AVG TEMP (F):50 HEATING DEGREE DAYS:15  COOLING DEGREE DAYS:0   LATEST DAY MAX TEMP (0700-1900 LST):53  LATEST NIGHT MIN TEMP(1900-0800 LST):47 HOURLY INCREMENTAL PRECIPITATION VALUES (IN):.00 0.00 0.00 0.00 0.00 0.00 0.00 0.00 0.00 0.00 0.00 0.00 0.00 0.00 0.00 0.00 0.00 0.00 0.00 0.00 0.00 T    T    T","SOD  ","6",,,,,,,,,,,,,,,,,,,,,,,,,"0611","1823","2007-05-17"
"72793524234","SEATTLE BOEING FIELD, WA US","47.54554","-122.31475","7.6","2024-03-21T00:51:00","FM-16","6",,,,,,,,,,,,,,,,,,,,,"30.00","46","48",,,,,"94",,"BKN:07 46 OVC:08 60","29.97","8.00","47","140",,"6",,,,,,,,,,,,,,,,,,,,,,,,,,,,,"MET10403/21/24 00:51:02 SPECI KBFI 210851Z 14005KT 8SM BKN046 OVC060 09/08 A3000 RMK AO2 RAE05 P0000 FIBI (SN)","FM-16","6",,,,,,,,,,,,,,,,,,,,,,,,,,,"2007-05-17"
"72793524234","SEATTLE BOEING FIELD, WA US","47.54554","-122.31475","7.6","2024-03-21T00:53:00","FM-15","7",,,,,,,,,,,,,,,,,,,,,"30.00","46","48","T",,"0.00","3","93","29.99","BKN:07 32 BKN:07 46 OVC:08 65","29.97","8.00","47","150",,"5",,,,,,,,,,,,,,,,,,,,,,,,,,,,,"MET13503/21/24 00:53:02 METAR KBFI 210853Z 15004KT 8SM BKN032 BKN046 OVC065 09/08 A3000 RMK AO2 RAE05 SLP157 P0000 60000 T00890078 53001 (SN)","FM-15","7",,,,,,,,,,,,,,,,,,,,,,,,,,,"2007-05-17"
"72793524234","SEATTLE BOEING FIELD, WA US","47.54554","-122.31475","7.6","2024-03-21T01:51:00","FM-16","6",,,,,,,,,,,,,,,,,,,,,"30.00","46","48",,,,,"94",,"BKN:07 8 OVC:08 60","29.97","10.00","47","140",,"7",,,,,,,,,,,,,,,,,,,,,,,,,,,,,"MET09303/21/24 01:51:02 SPECI KBFI 210951Z 14006KT 10SM BKN008 OVC060 09/08 A3000 RMK AO2 FIBI (SN)","FM-16","6",,,,,,,,,,,,,,,,,,,,,,,,,,,"2007-05-17"
"72793524234","SEATTLE BOEING FIELD, WA US","47.54554","-122.31475","7.6","2024-03-21T01:53:00","FM-15","7",,,,,,,,,,,,,,,,,,,,,"30.00","46","48","0.00",,,,"93","30.00","BKN:07 8 OVC:08 60","29.97","10.00","47","140",,"6",,,,,,,,,,,,,,,,,,,,,,,,,,,,,"MET10503/21/24 01:53:02 METAR KBFI 210953Z 14005KT 10SM BKN008 OVC060 09/08 A3000 RMK AO2 SLP159 T00890078 (SN)","FM-15","7",,,,,,,,,,,,,,,,,,,,,,,,,,,"2007-05-17"
"72793524234","SEATTLE BOEING FIELD, WA US","47.54554","-122.31475","7.6","2024-03-21T02:51:00","FM-16","6",,,,,,,,,,,,,,,,,,,,,"30.01","45","48",,,,,"87",,"BKN:07 11 BKN:07 20 OVC:08 65","29.98","10.00","47","170",,"6",,,,,,,,,,,,,,,,,,,,,,,,,,,,,"MET10003/21/24 02:51:02 SPECI KBFI 211051Z 17005KT 10SM BKN011 BKN020 OVC065 09/07 A3001 RMK AO2 FIBI (SN)","FM-16","6",,,,,,,,,,,,,,,,,,,,,,,,,,,"2007-05-17"
"72793524234","SEATTLE BOEING FIELD, WA US","47.54554","-122.31475","7.6","2024-03-21T02:53:00","FM-15","7",,,,,,,,,,,,,,,,,,,,,"30.01","45","49","0.00",,,,"86","30.00","BKN:07 11 BKN:07 20 OVC:08 65","29.98","10.00","47","170",,"6",,,,,,,,,,,,,,,,,,,,,,,,,,,,,"MET11203/21/24 02:53:02 METAR KBFI 211053Z 17005KT 10SM BKN011 BKN020 OVC065 09/07 A3001 RMK AO2 SLP160 T00940072 (SN)","FM-15","7",,,,,,,,,,,,,,,,,,,,,,,,,,,"2007-05-17"
"72793524234","SEATTLE BOEING FIELD, WA US","47.54554","-122.31475","7.6","2024-03-21T03:51:00","FM-16","6",,,,,,,,,,,,,,,,,,,,,"30.01","45","48",,,,,"87",,"BKN:07 49 BKN:07 55 OVC:08 95","29.98","10.00","47","160",,"7",,,,,,,,,,,,,,,,,,,,,,,,,,,,,"MET10003/21/24 03:51:02 SPECI KBFI 211151Z 16006KT 10SM BKN049 BKN055 OVC095 09/07 A3001 RMK AO2 FIBI (SN)","FM-16","6",,,,,,,,,,,,,,,,,,,,,,,,,,,"2007-05-17"
"72793524234","SEATTLE BOEING FIELD, WA US","47.54554","-122.31475","7.6","2024-03-21T03:53:00","FM-15","7",,,,,,,,,,,,,,,,,,,,,"30.01","45","48","0.00",,"-0.01","1","89","30.01","BKN:07 49 BKN:07 55 OVC:08 95","29.98","10.00","47","160",,"7",,,,,,,,,,,,,,,,,,,,,,,,,,,,,"MET13603/21/24 03:53:02 METAR KBFI 211153Z 16006KT 10SM BKN049 BKN055 OVC095 09/07 A3001 RMK AO2 SLP161 60000 T00890072 10100 20089 51004 (SN)","FM-15","7",,,,,,,,,,,,,,,,,,,,,,,,,,,"2007-05-17"
"72793524234","SEATTLE BOEING FIELD, WA US","47.54554","-122.31475","7.6","2024-03-21T04:51:00","FM-16","6",,,,,,,,,,,,,,,,,,,,,"30.03","45","48",,,,,"87",,"BKN:07 27 OVC:08 32","30.00","10.00","47","150",,"6",,,,,,,,,,,,,,,,,,,,,,,,,,,,,"MET09303/21/24 04:51:02 SPECI KBFI 211251Z 15005KT 10SM BKN027 OVC032 09/07 A3003 RMK AO2 FIBI (LG)","FM-16","6",,,,,,,,,,,,,,,,,,,,,,,,,,,"2007-05-17"
"72793524234","SEATTLE BOEING FIELD, WA US","47.54554","-122.31475","7.6","2024-03-21T04:53:00","FM-15","7",,,,,,,,,,,,,,,,,,,,,"30.03","45","48","0.00",,,,"89","30.03","BKN:07 25 OVC:08 32","30.00","10.00","47","150",,"7",,,,,,,,,,,,,,,,,,,,,,,,,,,,,"MET10503/21/24 04:53:02 METAR KBFI 211253Z 15006KT 10SM BKN025 OVC032 09/07 A3003 RMK AO2 SLP168 T00890072 (LG)","FM-15","7",,,,,,,,,,,,,,,,,,,,,,,,,,,"2007-05-17"
"72793524234","SEATTLE BOEING FIELD, WA US","47.54554","-122.31475","7.6","2024-03-21T05:53:00","FM-15","7",,,,,,,,,,,,,,,,,,,,,"30.04","45","49","0.00",,,,"86","30.03","SCT:04 15 BKN:07 27 OVC:08 32","30.01","10.00","47","150",,"8",,,,,,,,,,,,,,,,,,,,,,,,,,,,,"MET11203/21/24 05:53:02 METAR KBFI 211353Z 15007KT 10SM SCT015 BKN027 OVC032 09/07 A3004 RMK AO2 SLP171 T00940072 (AS)","FM-15","7",,,,,,,,,,,,,,,,,,,,,,,,,,,"2007-05-17"
"72793524234","SEATTLE BOEING FIELD, WA US","47.54554","-122.31475","7.6","2024-03-21T06:30:00","FM-16","7",,,,,,,,,,,,,,,,,,,,,"30.05","44","48",,,,,"86",,"SCT:04 27 OVC:08 38","30.02","10.00","46","160",,"6",,,,,,,,,,,,,,,,,,,,,,,,,,,,,"MET09803/21/24 06:30:02 SPECI KBFI 211430Z 16005KT 10SM SCT027 OVC038 09/07 A3005 RMK AO2 T00890067 (AS)","FM-16","7",,,,,,,,,,,,,,,,,,,,,,,,,,,"2007-05-17"
"72793524234","SEATTLE BOEING FIELD, WA US","47.54554","-122.31475","7.6","2024-03-21T06:53:00","FM-15","7",,,,,,,,,,,,,,,,,,,,,"30.05","44","47","0.00",,"-0.02","3","90","30.05","FEW:02 28 SCT:04 40 BKN:07 55","30.02","10.00","46","140",,"6",,,,,,,,,,,,,,,,,,,,,,,,,,,,,"MET11803/21/24 06:53:02 METAR KBFI 211453Z 14005KT 10SM FEW028 SCT040 BKN055 08/07 A3005 RMK AO2 SLP176 T00830067 53008 (AS)","FM-15","7",,,,,,,,,,,,,,,,,,,,,,,,,,,"2007-05-17"
"72793524234","SEATTLE BOEING FIELD, WA US","47.54554","-122.31475","7.6","2024-03-21T07:53:00","FM-15","7",,,,,,,,,,,,,,,,,,,,,"30.07","45","49","0.00",,,,"86","30.06","SCT:04 10 BKN:07 33","30.04","10.00","47","150",,"6",,,,,,,,,,,,,,,,,,,,,,,,,,,,,"MET10503/21/24 07:53:02 METAR KBFI 211553Z 15005KT 10SM SCT010 BKN033 09/07 A3007 RMK AO2 SLP181 T00940072 (AS)","FM-15","7",,,,,,,,,,,,,,,,,,,,,,,,,,,"2007-05-17"
"72793524234","SEATTLE BOEING FIELD, WA US","47.54554","-122.31475","7.6","2024-03-21T08:51:00","FM-16","6",,,,,,,,,,,,,,,,,,,,,"30.08","45","52",,,,,"77",,"BKN:07 16","30.05","10.00","49","140",,"3",,,,,,,,,,,,,,,,,,,,,,,,,,,,,"MET08603/21/24 08:51:02 SPECI KBFI 211651Z 14003KT 10SM BKN016 11/07 A3008 RMK AO2 FIBI (AS)","FM-16","6",,,,,,,,,,,,,,,,,,,,,,,,,,,"2007-05-17"
"72793524234","SEATTLE BOEING FIELD, WA US","47.54554","-122.31475","7.6","2024-03-21T08:53:00","FM-15","7",,,,,,,,,,,,,,,,,,,,,"30.08","44","51","0.00",,,,"77","30.07","BKN:07 16","30.05","10.00","48","130",,"5",,,,,,,,,,,,,,,,,,,,,,,,,,,,,"MET09803/21/24 08:53:02 METAR KBFI 211653Z 13004KT 10SM BKN016 11/07 A3008 RMK AO2 SLP184 T01060067 (AS)","FM-15","7",,,,,,,,,,,,,,,,,,,,,,,,,,,"2007-05-17"
"72793524234","SEATTLE BOEING FIELD, WA US","47.54554","-122.31475","7.6","2024-03-21T09:53:00","FM-15","7",,,,,,,,,,,,,,,,,,,,,"30.09","42","52","0.00",,"-0.04","3","69","30.09","BKN:07 16","30.06","10.00","47","000",,"0",,,,,,,,,,,,,,,,,,,,,,,,,,,,,"MET11603/21/24 09:53:02 METAR KBFI 211753Z 00000KT 10SM BKN016 11/06 A3009 RMK AO2 SLP190 T01110056 10111 20083 53014 (LG)","FM-15","7",,,,,,,,,,,,,,,,,,,,,,,,,,,"2007-05-17"
"72793524234","SEATTLE BOEING FIELD, WA US","47.54554","-122.31475","7.6","2024-03-21T10:53:00","FM-15","7",,,,,,,,,,,,,,,,,,,,,"30.09","43","54","0.00",,,,"67","30.09","BKN:07 25","30.06","10.00","49","000",,"0",,,,,,,,,,,,,,,,,,,,,,,,,,,,,"MET09803/21/24 10:53:02 METAR KBFI 211853Z 00000KT 10SM BKN025 12/06 A3009 RMK AO2 SLP188 T01220061 (LG)","FM-15","7",,,,,,,,,,,,,,,,,,,,,,,,,,,"2007-05-17"
"72793524234","SEATTLE BOEING FIELD, WA US","47.54554","-122.31475","7.6","2024-03-21T11:53:00","FM-15","7",,,,,,,,,,,,,,,,,,,,,"30.09","43","55","0.00",,,,"64","30.09","BKN:07 25","30.06","10.00","49","150",,"3",,,,,,,,,,,,,,,,,,,,,,,,,,,,,"MET09803/21/24 11:53:02 METAR KBFI 211953Z 15003KT 10SM BKN025 13/06 A3009 RMK AO2 SLP189 T01280061 (LG)","FM-15","7",,,,,,,,,,,,,,,,,,,,,,,,,,,"2007-05-17"
"72793524234","SEATTLE BOEING FIELD, WA US","47.54554","-122.31475","7.6","2024-03-21T12:00:00","FM-16","6",,,,,,,,,,,,,,,,,,,,,"30.09","43","56",,,,,"62",,"SCT:04 27 BKN:07 55","30.06","10.00","50","190",,"6",,,,,,,,,,,,,,,,,,,,,,,,,,,,,"MET09803/21/24 12:00:02 SPECI KBFI 212000Z 19005KT 10SM SCT027 BKN055 13/06 A3009 RMK AO2 T01330061 (LG)","FM-16","6",,,,,,,,,,,,,,,,,,,,,,,,,,,"2007-05-17"
"72793524234","SEATTLE BOEING FIELD, WA US","47.54554","-122.31475","7.6","2024-03-21T12:53:00","FM-15","6",,,,,,,,,,,,,,,,,,,,,"30.08","44","58","0.00",,"0.01","8","60","30.08","SCT:04 34 OVC:08 50","30.05","10.00","51","160",,"6",,,,,,,,,,,,,,,,,,,,,,,,,,,,,"MET11103/21/24 12:53:02 METAR KBFI 212053Z 16005KT 10SM SCT034 OVC050 14/07 A3008 RMK AO2 SLP185 T01440067 58004 (LG)","FM-15","6",,,,,,,,,,,,,,,,,,,,,,,,,,,"2007-05-17"
"72793524234","SEATTLE BOEING FIELD, WA US","47.54554","-122.31475","7.6","2024-03-21T13:53:00","FM-15","6",,,,,,,,,,,,,,,,,,,,,"30.07","45","58","0.00",,,,"62","30.07","SCT:04 34 BKN:07 60","30.04","10.00","51","VRB",,"6",,,,,,,,,,,,,,,,,,,,,,,,,,,,,"MET10503/21/24 13:53:02 METAR KBFI 212153Z VRB05KT 10SM SCT034 BKN060 14/07 A3007 RMK AO2 SLP183 T01440072 (LG)","FM-15","6",,,,,,,,,,,,,,,,,,,,,,,,,,,"2007-05-17"
"72793524234","SEATTLE BOEING FIELD, WA US","47.54554","-122.31475","7.6","2024-03-21T14:53:00","FM-15","7",,,,,,,,,,,,,,,,,,,,,"30.07","45","58","0.00",,,,"62","30.07","BKN:07 50","30.04","10.00","51","190",,"8",,,,,,,,,,,,,,,,,,,,,,,,,,,,,"MET09803/21/24 14:53:02 METAR KBFI 212253Z 19007KT 10SM BKN050 14/07 A3007 RMK AO2 SLP183 T01440072 (LG)","FM-15","7",,,,,,,,,,,,,,,,,,,,,,,,,,,"2007-05-17"
"72793524234","SEATTLE BOEING FIELD, WA US","47.54554","-122.31475","7.6","2024-03-21T15:53:00","FM-15","7",,,,,,,,,,,,,,,,,,,,,"30.07","46","57","0.00",,"0.01","6","67","30.06","SCT:04 60 OVC:08 70","30.04","10.00","51","180",,"6",,,,,,,,,,,,,,,,,,,,,,,,,,,,,"MET12303/21/24 15:53:02 METAR KBFI 212353Z 18005KT 10SM SCT060 OVC070 14/08 A3007 RMK AO2 SLP181 T01390078 10150 20111 56004 (LG)","FM-15","7",,,,,,,,,,,,,,,,,,,,,,,,,,,"2007-05-17"
"72793524234","SEATTLE BOEING FIELD, WA US","47.54554","-122.31475","7.6","2024-03-21T16:53:00","FM-15","7",,,,,,,,,,,,,,,,,,,,,"30.07","47","55","T","-RA:02 |RA |RA",,,"74","30.07","FEW:02 24 OVC:08 46","30.04","5.00","51","210",,"8",,,,,,,,,,,,,,,,,,,,,,,,,,,,,"MET11503/21/24 16:53:01 METAR KBFI 220053Z 21007KT 5SM -RA FEW024 OVC046 13/08 A3007 RMK AO2 RAB48 SLP182 P0000 T01280083","FM-15","7",,,,,,,,,,,,,,,,,,,,,,,,,,,"2007-05-17"
"72793524234","SEATTLE BOEING FIELD, WA US","47.54554","-122.31475","7.6","2024-03-21T17:23:00","FM-16","7",,,,,,,,,,,,,,,,,,,,,"30.07","47","55","T",,,,"74",,"BKN:07 29 OVC:08 38","30.04","10.00","51","000",,"0",,,,,,,,,,,,,,,,,,,,,,,,,,,,,"MET10503/21/24 17:23:01 SPECI KBFI 220123Z 00000KT 10SM BKN029 OVC038 13/08 A3007 RMK AO2 RAE06 P0000 T01280083","FM-16","7",,,,,,,,,,,,,,,,,,,,,,,,,,,"2007-05-17"
"72793524234","SEATTLE BOEING FIELD, WA US","47.54554","-122.31475","7.6","2024-03-21T17:31:00","FM-16","7",,,,,,,,,,,,,,,,,,,,,"30.07","47","55","T",,,,"74",,"OVC:08 32","30.04","10.00","51","000",,"0",,,,,,,,,,,,,,,,,,,,,,,,,,,,,"MET09803/21/24 17:31:01 SPECI KBFI 220131Z 00000KT 10SM OVC032 13/08 A3007 RMK AO2 RAE06 P0000 T01280083","FM-16","7",,,,,,,,,,,,,,,,,,,,,,,,,,,"2007-05-17"
"72793524234","SEATTLE BOEING FIELD, WA US","47.54554","-122.31475","7.6","2024-03-21T17:53:00","FM-15","7",,,,,,,,,,,,,,,,,,,,,"30.07","47","55","T",,,,"74","30.06","OVC:08 34","30.04","10.00","51","160",,"6",,,,,,,,,,,,,,,,,,,,,,,,,,,,,"MET10503/21/24 17:53:01 METAR KBFI 220153Z 16005KT 10SM OVC034 13/08 A3007 RMK AO2 RAE06 SLP181 P0000 T01280083","FM-15","7",,,,,,,,,,,,,,,,,,,,,,,,,,,"2007-05-17"
"72793524234","SEATTLE BOEING FIELD, WA US","47.54554","-122.31475","7.6","2024-03-21T18:53:00","FM-15","7",,,,,,,,,,,,,,,,,,,,,"30.07","49","54","T",,"0.00","0","83","30.06","OVC:08 34","30.04","10.00","51","100",,"3",,,,,,,,,,,,,,,,,,,,,,,,,,,,,"MET12803/21/24 18:53:01 METAR KBFI 220253Z 10003KT 10SM OVC034 12/09 A3007 RMK AO2 RAB0154E04B28E52 SLP181 P0000 60000 T01220094 50000","FM-15","7",,,,,,,,,,,,,,,,,,,,,,,,,,,"2007-05-17"
"72793524234","SEATTLE BOEING FIELD, WA US","47.54554","-122.31475","7.6","2024-03-21T19:00:00","FM-16","7",,,,,,,,,,,,,,,,,,,,,"30.07","49","54",,,,,"83",,"SCT:04 21 BKN:07 27 OVC:08 32","30.04","10.00","51","110",,"3",,,,,,,,,,,,,,,,,,,,,,,,,,,,,"MET10003/21/24 19:00:02 SPECI KBFI 220300Z 11003KT 10SM SCT021 BKN027 OVC032 12/09 A3007 RMK AO2 T01220094","FM-16","7",,,,,,,,,,,,,,,,,,,,,,,,,,,"2007-05-17"
"72793524234","SEATTLE BOEING FIELD, WA US","47.54554","-122.31475","7.6","2024-03-21T19:53:00","FM-15","7",,,,,,,,,,,,,,,,,,,,,"30.07","50","54","T",,,,"87","30.07","BKN:07 25 OVC:08 30","30.04","10.00","52","130",,"6",,,,,,,,,,,,,,,,,,,,,,,,,,,,,"MET11503/21/24 19:53:01 METAR KBFI 220353Z 13005KT 10SM BKN025 OVC030 12/10 A3007 RMK AO2 RAB25E37 SLP183 P0000 T01220100","FM-15","7",,,,,,,,,,,,,,,,,,,,,,,,,,,"2007-05-17"
"72793524234","SEATTLE BOEING FIELD, WA US","47.54554","-122.31475","7.6","2024-03-21T20:08:00","FM-16","7",,,,,,,,,,,,,,,,,,,,,"30.08","50","53","0.03","-RA:02 BR:1 |RA |RA",,,"89",,"SCT:04 8 BKN:07 18 OVC:08 24","30.05","2.50","51","000",,"0",,,,,,,,,,,,,,,,,,,,,,,,,,,,,"MET12203/21/24 20:08:02 SPECI KBFI 220408Z 00000KT 2 1/2SM -RA BR SCT008 BKN018 OVC024 12/10 A3008 RMK AO2 RAB00 P0003 T01170100","FM-16","7",,,,,,,,,,,,,,,,,,,,,,,,,,,"2007-05-17"
"72793524234","SEATTLE BOEING FIELD, WA US","47.54554","-122.31475","7.6","2024-03-21T20:15:00","FM-16","7",,,,,,,,,,,,,,,,,,,,,"30.07","50","53","0.05","-RA:02 BR:1 |RA |RA",,,"89",,"SCT:04 8 OVC:08 18","30.04","3.00","51","000",,"0",,,,,,,,,,,,,,,,,,,,,,,,,,,,,"MET11103/21/24 20:15:02 SPECI KBFI 220415Z 00000KT 3SM -RA BR SCT008 OVC018 12/10 A3007 RMK AO2 RAB00 P0005 T01170100","FM-16","7",,,,,,,,,,,,,,,,,,,,,,,,,,,"2007-05-17"
"72793524234","SEATTLE BOEING FIELD, WA US","47.54554","-122.31475","7.6","2024-03-21T20:53:00","FM-15","7",,,,,,,,,,,,,,,,,,,,,"30.07","50","52","0.08","-RA:02 BR:1 |RA |RA",,,"93","30.07","FEW:02 7 BKN:07 39","30.04","5.00","51","150",,"5",,,,,,,,,,,,,,,,,,,,,,,,,,,,,"MET11803/21/24 20:53:02 METAR KBFI 220453Z 15004KT 5SM -RA BR FEW007 BKN039 11/10 A3007 RMK AO2 RAB00 SLP183 P0008 T01110100","FM-15","7",,,,,,,,,,,,,,,,,,,,,,,,,,,"2007-05-17"
"72793524234","SEATTLE BOEING FIELD, WA US","47.54554","-122.31475","7.6","2024-03-21T21:53:00","FM-15","7",,,,,,,,,,,,,,,,,,,,,"30.07","50","53","0.02","-RA:02 |RA |RA","-0.01","0","89","30.07","FEW:02 10 OVC:08 50","30.04","10.00","51","000",,"0",,,,,,,,,,,,,,,,,,,,,,,,,,,,,"MET13403/21/24 21:53:01 METAR KBFI 220553Z 00000KT 10SM -RA FEW010 OVC050 12/10 A3007 RMK AO2 SLP183 P0002 60010 T01170100 10139 20111 50002","FM-15","7",,,,,,,,,,,,,,,,,,,,,,,,,,,"2007-05-17"
"72793524234","SEATTLE BOEING FIELD, WA US","47.54554","-122.31475","7.6","2024-03-21T22:53:00","FM-15","7",,,,,,,,,,,,,,,,,,,,,"30.05","49","52","T",,,,"89","30.05","FEW:02 15 BKN:07 55 OVC:08 70","30.02","10.00","50","140",,"3",,,,,,,,,,,,,,,,,,,,,,,,,,,,,"MET11903/21/24 22:53:02 METAR KBFI 220653Z 14003KT 10SM FEW015 BKN055 OVC070 11/09 A3005 RMK AO2 RAE06 SLP176 P0000 T01110094","FM-15","7",,,,,,,,,,,,,,,,,,,,,,,,,,,"2007-05-17"
"72793524234","SEATTLE BOEING FIELD, WA US","47.54554","-122.31475","7.6","2024-03-21T23:53:00","FM-15","7",,,,,,,,,,,,,,,,,,,,,"30.05","49","51","0.00",,,,"92","30.05","BKN:07 55 OVC:08 70","30.02","10.00","50","000",,"0",,,,,,,,,,,,,,,,,,,,,,,,,,,,,"MET11003/21/24 23:53:02 METAR KBFI 220753Z 00000KT 10SM BKN055 OVC070 11/09 A3005 RMK AO2 SLP175 T01060094 401500083","FM-15","7",,,,,,,,,,,,,,,,,,,,,,,,,,,"2007-05-17"
"72793524234","SEATTLE BOEING FIELD, WA US","47.54554","-122.31475","7.6","2024-03-21T23:59:00","SOD  ","6",,,,,"53","30.02","4.7","0","5.1","12","59","47","200","18","0.10","200","10","RA BR",,,,,,,,,,,,,,,,,,,,,,,,,,,,,,,,,,,,,,,,,,,,,,,"SOD73024 HR PRECIPITATION (IN):0.10  24 HR MAX TEMP (F):59 24 HR MAX TEMP TIME (LST):1326 24 HR MIN TEMP (F):47 24 HR MIN TEMP TIME (LST):0725 AVERAGE STATION PRESSURE:30.020 MINIMUM SEA LEVEL PRESSURE:29.99 TIME OF OCCURRENCE:0134 PEAK WIND SPEED (MPH):18  PEAK WIND DIR (DEG):200 PEAK WIND TIME (LST):1228  FASTEST 2MIN SPEED (MPH):10 FASTEST 2MIN DIR (DEG):200 FASTEST 2MIN TIME (LST):1332 AVERAGE WIND SPEED (MPH):4.7  24 HR AVG TEMP (F):53 HEATING DEGREE DAYS:12  COOLING DEGREE DAYS:0   LATEST DAY MAX TEMP (0700-1900 LST):59  LATEST NIGHT MIN TEMP(1900-0800 LST):47 HOURLY INCREMENTAL PRECIPITATION VALUES (IN):    0.00 0.00 0.00 0.00 0.00 0.00 0.00 0.00 0.00 0.00 0.00 0.00 0.00 0.00 0.00 T    T    T    T    0.08 0.02 T    0.00","SOD  ","6",,,,,,,,,,,,,,,,,,,,,,,,,"0609","1825","2007-05-17"
"72793524234","SEATTLE BOEING FIELD, WA US","47.54554","-122.31475","7.6","2024-03-22T00:53:00","FM-15","7",,,,,,,,,,,,,,,,,,,,,"30.03","49","51","0.00",,"0.04","8","92","30.03","FEW:02 10 BKN:07 70","30.00","10.00","50","000",,"0",,,,,,,,,,,,,,,,,,,,,,,,,,,,,"MET11703/22/24 00:53:02 METAR KBFI 220853Z 00000KT 10SM FEW010 BKN070 11/09 A3003 RMK AO2 SLP168 60000 T01060094 58015 (ND)","FM-15","7",,,,,,,,,,,,,,,,,,,,,,,,,,,"2007-05-17"
"72793524234","SEATTLE BOEING FIELD, WA US","47.54554","-122.31475","7.6","2024-03-22T01:53:00","FM-15","7",,,,,,,,,,,,,,,,,,,,,"30.01","48","51","0.00",,,,"89","30.01","OVC:08 50","29.98","10.00","49","000",,"0",,,,,,,,,,,,,,,,,,,,,,,,,,,,,"MET09803/22/24 01:53:02 METAR KBFI 220953Z 00000KT 10SM OVC050 11/09 A3001 RMK AO2 SLP161 T01060089 (ND)","FM-15","7",,,,,,,,,,,,,,,,,,,,,,,,,,,"2007-05-17"
"72793524234","SEATTLE BOEING FIELD, WA US","47.54554","-122.31475","7.6","2024-03-22T02:53:00","FM-15","7",,,,,,,,,,,,,,,,,,,,,"29.98","48","50","0.00",,,,"93","29.98","BKN:07 100","29.95","10.00","49","000",,"0",,,,,,,,,,,,,,,,,,,,,,,,,,,,,"MET09803/22/24 02:53:02 METAR KBFI 221053Z 00000KT 10SM BKN100 10/09 A2998 RMK AO2 SLP153 T01000089 (ND)","FM-15","7",,,,,,,,,,,,,,,,,,,,,,,,,,,"2007-05-17"
"72793524234","SEATTLE BOEING FIELD, WA US","47.54554","-122.31475","7.6","2024-03-22T03:53:00","FM-15","7",,,,,,,,,,,,,,,,,,,,,"29.96","47","50","0.00",,"0.06","7","89","29.96","BKN:07 100","29.93","10.00","48","000",,"0",,,,,,,,,,,,,,,,,,,,,,,,,,,,,"MET12803/22/24 03:53:02 METAR KBFI 221153Z 00000KT 10SM BKN100 10/08 A2996 RMK AO2 SLP146 60000 70010 T01000083 10117 20100 57022 (HW)","FM-15","7",,,,,,,,,,,,,,,,,,,,,,,,,,,"2007-05-17"
"72793524234","SEATTLE BOEING FIELD, WA US","47.54554","-122.31475","7.6","2024-03-22T04:51:00","FM-16","7",,,,,,,,,,,,,,,,,,,,,"29.93","46","48",,,,,"94",,"SCT:04 6 BKN:07 100","29.90","10.00","47","000",,"0",,,,,,,,,,,,,,,,,,,,,,,,,,,,,"MET08803/22/24 04:51:02 SPECI KBFI 221251Z 00000KT 10SM SCT006 BKN100 09/08 A2993 RMK AO2 (SN)","FM-16","7",,,,,,,,,,,,,,,,,,,,,,,,,,,"2007-05-17"
"72793524234","SEATTLE BOEING FIELD, WA US","47.54554","-122.31475","7.6","2024-03-22T04:53:00","FM-15","7",,,,,,,,,,,,,,,,,,,,,"29.93","46","49","0.00",,,,"90","29.93","SCT:04 6 BKN:07 100","29.90","10.00","48","VRB",,"3",,,,,,,,,,,,,,,,,,,,,,,,,,,,,"MET10503/22/24 04:53:02 METAR KBFI 221253Z VRB03KT 10SM SCT006 BKN100 09/08 A2993 RMK AO2 SLP135 T00940078 (SN)","FM-15","7",,,,,,,,,,,,,,,,,,,,,,,,,,,"2007-05-17"
"72793524234","SEATTLE BOEING FIELD, WA US","47.54554","-122.31475","7.6","2024-03-22T05:53:00","FM-15","7",,,,,,,,,,,,,,,,,,,,,"29.90","46","50","0.00",,,,"86","29.90","BKN:07 110","29.87","10.00","48","000",,"0",,,,,,,,,,,,,,,,,,,,,,,,,,,,,"MET09803/22/24 05:53:02 METAR KBFI 221353Z 00000KT 10SM BKN110 10/08 A2990 RMK AO2 SLP125 T01000078 (SN)","FM-15","7",,,,,,,,,,,,,,,,,,,,,,,,,,,"2007-05-17"
"72793524234","SEATTLE BOEING FIELD, WA US","47.54554","-122.31475","7.6","2024-03-22T06:53:00","FM-15","7",,,,,,,,,,,,,,,,,,,,,"29.89","46","50","0.00",,"0.05","8","86","29.88","BKN:07 110","29.86","10.00","48","300",,"5",,,,,,,,,,,,,,,,,,,,,,,,,,,,,"MET10403/22/24 06:53:02 METAR KBFI 221453Z 30004KT 10SM BKN110 10/08 A2989 RMK AO2 SLP120 T01000078 58017 (SN)","FM-15","7",,,,,,,,,,,,,,,,,,,,,,,,,,,"2007-05-17"
"72793524234","SEATTLE BOEING FIELD, WA US","47.54554","-122.31475","7.6","2024-03-22T07:53:00","FM-15","7",,,,,,,,,,,,,,,,,,,,,"29.87","46","51","0.00",,,,"83","29.87","OVC:08 160","29.84","10.00","49","000",,"0",,,,,,,,,,,,,,,,,,,,,,,,,,,,,"MET09803/22/24 07:53:02 METAR KBFI 221553Z 00000KT 10SM OVC160 11/08 A2987 RMK AO2 SLP115 T01060078 (SN)","FM-15","7",,,,,,,,,,,,,,,,,,,,,,,,,,,"2007-05-17"
"72793524234","SEATTLE BOEING FIELD, WA US","47.54554","-122.31475","7.6","2024-03-22T08:53:00","FM-15","7",,,,,,,,,,,,,,,,,,,,,"29.91","47","51","T",,,,"86","29.91","BKN:07 50 BKN:07 80 OVC:08 95","29.88","10.00","49","VRB",,"3",,,,,,,,,,,,,,,,,,,,,,,,,,,,,"MET12703/22/24 08:53:02 METAR KBFI 221653Z VRB03KT 10SM BKN050 BKN080 OVC095 11/08 A2991 RMK AO2 RAB29E41 SLP127 P0000 T01060083 (SN)","FM-15","7",,,,,,,,,,,,,,,,,,,,,,,,,,,"2007-05-17"
"72793524234","SEATTLE BOEING FIELD, WA US","47.54554","-122.31475","7.6","2024-03-22T09:53:00","FM-15","7",,,,,,,,,,,,,,,,,,,,,"29.90","47","51","T","-RA:02 |RA |RA","-0.01","3","86","29.90","OVC:08 70","29.87","10.00","49","000",,"0",,,,,,,,,,,,,,,,,,,,,,,,,,,,,"MET13803/22/24 09:53:02 METAR KBFI 221753Z 00000KT 10SM -RA OVC070 11/08 A2990 RMK AO2 RAB26 SLP124 P0000 60000 T01060083 10106 20094 53004 (SN)","FM-15","7",,,,,,,,,,,,,,,,,,,,,,,,,,,"2007-05-17"
"72793524234","SEATTLE BOEING FIELD, WA US","47.54554","-122.31475","7.6","2024-03-22T10:53:00","FM-15","7",,,,,,,,,,,,,,,,,,,,,"29.88","46","51","T",,,,"83","29.88","OVC:08 55","29.85","10.00","49","050",,"3",,,,,,,,,,,,,,,,,,,,,,,,,,,,,"MET11003/22/24 10:53:02 METAR KBFI 221853Z 05003KT 10SM OVC055 11/08 A2988 RMK AO2 RAE47 SLP117 P0000 T01060078 (SN)","FM-15","7",,,,,,,,,,,,,,,,,,,,,,,,,,,"2007-05-17"
"72793524234","SEATTLE BOEING FIELD, WA US","47.54554","-122.31475","7.6","2024-03-22T11:53:00","FM-15","7",,,,,,,,,,,,,,,,,,,,,"29.87","47","52","T","-RA:02 |RA |RA",,,"83","29.86","FEW:02 10 OVC:08 60","29.84","10.00","49","000",,"0",,,,,,,,,,,,,,,,,,,,,,,,,,,,,"MET12103/22/24 11:53:02 METAR KBFI 221953Z 00000KT 10SM -RA FEW010 OVC060 11/08 A2987 RMK AO2 RAB32 SLP113 P0000 T01110083 (SN)","FM-15","7",,,,,,,,,,,,,,,,,,,,,,,,,,,"2007-05-17"
"72793524234","SEATTLE BOEING FIELD, WA US","47.54554","-122.31475","7.6","2024-03-22T12:51:00","FM-16","6",,,,,,,,,,,,,,,,,,,,,"29.84","48","52",,"-RA:02 BR:1 |RA |RA",,,"88",,"FEW:02 8 BKN:07 40","29.81","3.00","50","000",,"0",,,,,,,,,,,,,,,,,,,,,,,,,,,,,"MET10503/22/24 12:51:02 SPECI KBFI 222051Z 00000KT 3SM -RA BR FEW008 BKN040 11/09 A2984 RMK AO2 P0004 FIBI (SN)","FM-16","6",,,,,,,,,,,,,,,,,,,,,,,,,,,"2007-05-17"
"72793524234","SEATTLE BOEING FIELD, WA US","47.54554","-122.31475","7.6","2024-03-22T12:53:00","FM-15","7",,,,,,,,,,,,,,,,,,,,,"29.84","48","52","0.05","-RA:02 BR:1 |RA |RA","0.06","8","86","29.84","FEW:02 8 BKN:07 40","29.81","3.00","50","000",,"0",,,,,,,,,,,,,,,,,,,,,,,,,,,,,"MET12903/22/24 12:53:02 METAR KBFI 222053Z 00000KT 3SM -RA BR FEW008 BKN040 11/09 A2984 RMK AO2 SLP104 P0005 60005 T01110089 58020 (SN)","FM-15","7",,,,,,,,,,,,,,,,,,,,,,,,,,,"2007-05-17"
"72793524234","SEATTLE BOEING FIELD, WA US","47.54554","-122.31475","7.6","2024-03-22T13:53:00","FM-15","7",,,,,,,,,,,,,,,,,,,,,"29.80","48","52","T","-RA:02 |RA |RA",,,"86","29.80","FEW:02 8 BKN:07 40 OVC:08 60","29.77","9.00","50","000",,"0",,,,,,,,,,,,,,,,,,,,,,,,,,,,,"MET11603/22/24 13:53:02 METAR KBFI 222153Z 00000KT 9SM -RA FEW008 BKN040 OVC060 11/09 A2980 RMK AO2 SLP091 P0000 T01110089","FM-15","7",,,,,,,,,,,,,,,,,,,,,,,,,,,"2007-05-17"
"72793524234","SEATTLE BOEING FIELD, WA US","47.54554","-122.31475","7.6","2024-03-22T14:53:00","FM-15","7",,,,,,,,,,,,,,,,,,,,,"29.77","50","54","T",,,,"87","29.77","FEW:02 8 SCT:04 65 OVC:08 85","29.74","10.00","52","320",,"5",,,,,,,,,,,,,,,,,,,,,,,,,,,,,"MET12403/22/24 14:53:02 METAR KBFI 222253Z 32004KT 10SM FEW008 SCT065 OVC085 12/10 A2977 RMK AO2 RAE04 SLP080 P0000 T01220100 (CT)","FM-15","7",,,,,,,,,,,,,,,,,,,,,,,,,,,"2007-05-17"
"72793524234","SEATTLE BOEING FIELD, WA US","47.54554","-122.31475","7.6","2024-03-22T15:53:00","FM-15","7",,,,,,,,,,,,,,,,,,,,,"29.73","50","54","0.00",,"0.11","8","87","29.72","SCT:04 10 BKN:07 75","29.70","10.00","52","310",,"5",,,,,,,,,,,,,,,,,,,,,,,,,,,,,"MET12903/22/24 15:53:02 METAR KBFI 222353Z 31004KT 10SM SCT010 BKN075 12/10 A2973 RMK AO2 SLP066 60005 T01220100 10128 20106 58038 (CT)","FM-15","7",,,,,,,,,,,,,,,,,,,,,,,,,,,"2007-05-17"
"72793524234","SEATTLE BOEING FIELD, WA US","47.54554","-122.31475","7.6","2024-03-22T16:53:00","FM-15","7",,,,,,,,,,,,,,,,,,,,,"29.73","49","52","T","-RA:02 |RA |RA",,,"89","29.73","FEW:02 44 BKN:07 60 OVC:08 80","29.70","7.00","50","330",,"7",,,,,,,,,,,,,,,,,,,,,,,,,,,,,"MET12203/22/24 16:53:01 METAR KBFI 230053Z 33006KT 7SM -RA FEW044 BKN060 OVC080 11/09 A2973 RMK AO2 RAB40 SLP068 P0000 T01110094","FM-15","7",,,,,,,,,,,,,,,,,,,,,,,,,,,"2007-05-17"
"72793524234","SEATTLE BOEING FIELD, WA US","47.54554","-122.31475","7.6","2024-03-22T17:53:00","FM-15","7",,,,,,,,,,,,,,,,,,,,,"29.73","49","52","0.01","-RA:02 BR:1 |RA |RA",,,"89","29.73","SCT:04 60 OVC:08 75","29.70","6.00","50","000",,"0",,,,,,,,,,,,,,,,,,,,,,,,,,,,,"MET12103/22/24 17:53:01 METAR KBFI 230153Z 00000KT 6SM -RA BR SCT060 OVC075 11/09 A2973 RMK AO2 RAE01B31 SLP069 P0001 T01110094","FM-15","7",,,,,,,,,,,,,,,,,,,,,,,,,,,"2007-05-17"
"72793524234","SEATTLE BOEING FIELD, WA US","47.54554","-122.31475","7.6","2024-03-22T18:02:00","FM-16","7",,,,,,,,,,,,,,,,,,,,,"29.74","49","52","T","-RA:02 |RA |RA",,,"89",,"FEW:02 7 BKN:07 50 OVC:08 75","29.71","10.00","50","280",,"3",,,,,,,,,,,,,,,,,,,,,,,,,,,,,"MET11003/22/24 18:02:01 SPECI KBFI 230202Z 28003KT 10SM -RA FEW007 BKN050 OVC075 11/09 A2974 RMK AO2 P0000 T01110094","FM-16","7",,,,,,,,,,,,,,,,,,,,,,,,,,,"2007-05-17"
"72793524234","SEATTLE BOEING FIELD, WA US","47.54554","-122.31475","7.6","2024-03-22T18:53:00","FM-15","7",,,,,,,,,,,,,,,,,,,,,"29.72","49","52","0.01","-RA:02 |RA |RA","0.01","8","89","29.72","FEW:02 7 BKN:07 50 OVC:08 75","29.69","9.00","50","000",,"0",,,,,,,,,,,,,,,,,,,,,,,,,,,,,"MET13703/22/24 18:53:01 METAR KBFI 230253Z 00000KT 9SM -RA FEW007 BKN050 OVC075 11/09 A2972 RMK AO2 RAE03B32 SLP064 P0001 60002 T01110094 58002","FM-15","7",,,,,,,,,,,,,,,,,,,,,,,,,,,"2007-05-17"
"72793524234","SEATTLE BOEING FIELD, WA US","47.54554","-122.31475","7.6","2024-03-22T19:53:00","FM-15","7",,,,,,,,,,,,,,,,,,,,,"29.71","49","52","T","-RA:02 |RA |RA",,,"89","29.71","FEW:02 43 BKN:07 60 OVC:08 90","29.68","8.00","50","160",,"5",,,,,,,,,,,,,,,,,,,,,,,,,,,,,"MET11603/22/24 19:53:02 METAR KBFI 230353Z 16004KT 8SM -RA FEW043 BKN060 OVC090 11/09 A2971 RMK AO2 SLP061 P0000 T01110094","FM-15","7",,,,,,,,,,,,,,,,,,,,,,,,,,,"2007-05-17"
"72793524234","SEATTLE BOEING FIELD, WA US","47.54554","-122.31475","7.6","2024-03-22T20:53:00","FM-15","7",,,,,,,,,,,,,,,,,,,,,"29.70","50","52","T","-RA:02 |RA |RA",,,"93","29.70","SCT:04 11 OVC:08 47","29.67","7.00","51","000",,"0",,,,,,,,,,,,,,,,,,,,,,,,,,,,,"MET12003/22/24 20:53:02 METAR KBFI 230453Z 00000KT 7SM -RA SCT011 OVC047 11/10 A2970 RMK AO2 RAE0358B27 SLP058 P0000 T01110100","FM-15","7",,,,,,,,,,,,,,,,,,,,,,,,,,,"2007-05-17"
"72793524234","SEATTLE BOEING FIELD, WA US","47.54554","-122.31475","7.6","2024-03-22T21:05:00","FM-16","7",,,,,,,,,,,,,,,,,,,,,"29.69","50","52","T","-RA:02 BR:1 |RA |RA",,,"93",,"FEW:02 6 BKN:07 47 OVC:08 55","29.66","6.00","51","000",,"0",,,,,,,,,,,,,,,,,,,,,,,,,,,,,"MET11203/22/24 21:05:02 SPECI KBFI 230505Z 00000KT 6SM -RA BR FEW006 BKN047 OVC055 11/10 A2969 RMK AO2 P0000 T01110100","FM-16","7",,,,,,,,,,,,,,,,,,,,,,,,,,,"2007-05-17"
"72793524234","SEATTLE BOEING FIELD, WA US","47.54554","-122.31475","7.6","2024-03-22T21:53:00","FM-15","7",,,,,,,,,,,,,,,,,,,,,"29.69","49","52","T",,"0.03","8","89","29.69","FEW:02 6 BKN:07 47 OVC:08 95","29.66","10.00","50","000",,"0",,,,,,,,,,,,,,,,,,,,,,,,,,,,,"MET14303/22/24 21:53:02 METAR KBFI 230553Z 00000KT 10SM FEW006 BKN047 OVC095 11/09 A2969 RMK AO2 RAE42 SLP054 P0000 60002 T01110094 10122 20106 58011","FM-15","7",,,,,,,,,,,,,,,,,,,,,,,,,,,"2007-05-17"
"72793524234","SEATTLE BOEING FIELD, WA US","47.54554","-122.31475","7.6","2024-03-22T22:00:00","FM-16","7",,,,,,,,,,,,,,,,,,,,,"29.69","49","52",,,,,"89",,"OVC:08 9","29.66","9.00","50","000",,"0",,,,,,,,,,,,,,,,,,,,,,,,,,,,,"MET08503/22/24 22:00:02 SPECI KBFI 230600Z 00000KT 9SM OVC009 11/09 A2969 RMK AO2 T01110094","FM-16","7",,,,,,,,,,,,,,,,,,,,,,,,,,,"2007-05-17"
"72793524234","SEATTLE BOEING FIELD, WA US","47.54554","-122.31475","7.6","2024-03-22T22:53:00","FM-15","7",,,,,,,,,,,,,,,,,,,,,"29.68","49","52","0.00",,,,"89","29.67","OVC:08 9","29.65","9.00","50","000",,"0",,,,,,,,,,,,,,,,,,,,,,,,,,,,,"MET09203/22/24 22:53:02 METAR KBFI 230653Z 00000KT 9SM OVC009 11/09 A2968 RMK AO2 SLP049 T01110094","FM-15","7",,,,,,,,,,,,,,,,,,,,,,,,,,,"2007-05-17"
"72793524234","SEATTLE BOEING FIELD, WA US","47.54554","-122.31475","7.6","2024-03-22T23:00:00","FM-16","7",,,,,,,,,,,,,,,,,,,,,"29.68","49","52",,,,,"89",,"SCT:04 9 BKN:07 48 OVC:08 70","29.65","8.00","50","050",,"3",,,,,,,,,,,,,,,,,,,,,,,,,,,,,"MET09903/22/24 23:00:02 SPECI KBFI 230700Z 05003KT 8SM SCT009 BKN048 OVC070 11/09 A2968 RMK AO2 T01110094","FM-16","7",,,,,,,,,,,,,,,,,,,,,,,,,,,"2007-05-17"
"72793524234","SEATTLE BOEING FIELD, WA US","47.54554","-122.31475","7.6","2024-03-22T23:53:00","FM-15","7",,,,,,,,,,,,,,,,,,,,,"29.65","49","51","0.05","-RA:02 BR:1 |RA |RA",,,"92","29.65","OVC:08 55","29.62","4.00","50","060",,"7",,,,,,,,,,,,,,,,,,,,,,,,,,,,,"MET12103/22/24 23:53:02 METAR KBFI 230753Z 06006KT 4SM -RA BR OVC055 11/09 A2965 RMK AO2 RAB02 SLP040 P0005 T01060094 401280094","FM-15","7",,,,,,,,,,,,,,,,,,,,,,,,,,,"2007-05-17"
"72793524234","SEATTLE BOEING FIELD, WA US","47.54554","-122.31475","7.6","2024-03-22T23:59:00","SOD  ","6",,,,,"52","29.78","1.8","0","3.9","13","55","49","330","14","0.12","050","9","RA BR",,,,,,,,,,,,,,,,,,,,,,,,,,,,,,,,,,,,,,,,,,,,,,,"SOD73024 HR PRECIPITATION (IN):0.12  24 HR MAX TEMP (F):55 24 HR MAX TEMP TIME (LST):1512 24 HR MIN TEMP (F):49 24 HR MIN TEMP TIME (LST):0453 AVERAGE STATION PRESSURE:29.785 MINIMUM SEA LEVEL PRESSURE:29.65 TIME OF OCCURRENCE:2359 PEAK WIND SPEED (MPH):14  PEAK WIND DIR (DEG):330 PEAK WIND TIME (LST):1704  FASTEST 2MIN SPEED (MPH):9  FASTEST 2MIN DIR (DEG):50  FASTEST 2MIN TIME (LST):2351 AVERAGE WIND SPEED (MPH):1.8  24 HR AVG TEMP (F):52 HEATING DEGREE DAYS:13  COOLING DEGREE DAYS:0   LATEST DAY MAX TEMP (0700-1900 LST):55  LATEST NIGHT MIN TEMP(1900-0800 LST):49 HOURLY INCREMENTAL PRECIPITATION VALUES (IN):.00 0.00 0.00 0.00 0.00 0.00 0.00 0.00 T    T    T    T    0.05 T    T    0.00 T    0.01 0.01 T    T    T    0.00 0.05","SOD  ","6",,,,,,,,,,,,,,,,,,,,,,,,,"0606","1826","2007-05-17"
"72793524234","SEATTLE BOEING FIELD, WA US","47.54554","-122.31475","7.6","2024-03-23T00:53:00","FM-15","7",,,,,,,,,,,,,,,,,,,,,"29.63","47","51","0.01",,"0.06","8","86","29.62","SCT:04 48 SCT:04 70 BKN:07 90","29.60","10.00","49","070",,"3",,,,,,,,,,,,,,,,,,,,,,,,,,,,,"MET13603/23/24 00:53:02 METAR KBFI 230853Z 07003KT 10SM SCT048 SCT070 BKN090 11/08 A2963 RMK AO2 RAE49 SLP032 P0001 60006 T01060083 58021 (PV)","FM-15","7",,,,,,,,,,,,,,,,,,,,,,,,,,,"2007-05-17"
"72793524234","SEATTLE BOEING FIELD, WA US","47.54554","-122.31475","7.6","2024-03-23T01:53:00","FM-15","7",,,,,,,,,,,,,,,,,,,,,"29.61","47","50","0.00",,,,"89","29.60","BKN:07 90","29.58","10.00","48","000",,"0",,,,,,,,,,,,,,,,,,,,,,,,,,,,,"MET09803/23/24 01:53:02 METAR KBFI 230953Z 00000KT 10SM BKN090 10/08 A2961 RMK AO2 SLP025 T01000083 (PV)","FM-15","7",,,,,,,,,,,,,,,,,,,,,,,,,,,"2007-05-17"
"72793524234","SEATTLE BOEING FIELD, WA US","47.54554","-122.31475","7.6","2024-03-23T02:53:00","FM-15","7",,,,,,,,,,,,,,,,,,,,,"29.60","47","49","0.00",,,,"93","29.59","FEW:02 85","29.57","10.00","48","000",,"0",,,,,,,,,,,,,,,,,,,,,,,,,,,,,"MET09803/23/24 02:53:02 METAR KBFI 231053Z 00000KT 10SM FEW085 09/08 A2960 RMK AO2 SLP022 T00940083 (PV)","FM-15","7",,,,,,,,,,,,,,,,,,,,,,,,,,,"2007-05-17"
"72793524234","SEATTLE BOEING FIELD, WA US","47.54554","-122.31475","7.6","2024-03-23T03:31:00","FM-16","7",,,,,,,,,,,,,,,,,,,,,"29.59","47","50",,,,,"89",,"FEW:02 6 BKN:07 55 OVC:08 70","29.56","8.00","48","340",,"3",,,,,,,,,,,,,,,,,,,,,,,,,,,,,"MET10403/23/24 03:31:02 SPECI KBFI 231131Z 34003KT 8SM FEW006 BKN055 OVC070 10/08 A2959 RMK AO2 T01000083 (PV)","FM-16","7",,,,,,,,,,,,,,,,,,,,,,,,,,,"2007-05-17"
"72793524234","SEATTLE BOEING FIELD, WA US","47.54554","-122.31475","7.6","2024-03-23T03:53:00","FM-15","7",,,,,,,,,,,,,,,,,,,,,"29.59","48","50","T",,"0.04","6","93","29.58","SCT:04 6 OVC:08 60","29.56","8.00","49","310",,"3",,,,,,,,,,,,,,,,,,,,,,,,,,,,,"MET13403/23/24 03:53:02 METAR KBFI 231153Z 31003KT 8SM SCT006 OVC060 10/09 A2959 RMK AO2 SLP018 60006 70013 T01000089 10111 20089 56014 (LG)","FM-15","7",,,,,,,,,,,,,,,,,,,,,,,,,,,"2007-05-17"
"72793524234","SEATTLE BOEING FIELD, WA US","47.54554","-122.31475","7.6","2024-03-23T04:53:00","FM-15","7",,,,,,,,,,,,,,,,,,,,,"29.57","47","49","T",,,,"93","29.57","SCT:04 6 OVC:08 60","29.54","10.00","48","000",,"0",,,,,,,,,,,,,,,,,,,,,,,,,,,,,"MET12203/23/24 04:53:02 METAR KBFI 231253Z 00000KT 10SM SCT006 OVC060 09/08 A2957 RMK AO2 RAB1155E05 SLP013 P0000 T00940083 (LG)","FM-15","7",,,,,,,,,,,,,,,,,,,,,,,,,,,"2007-05-17"
"72793524234","SEATTLE BOEING FIELD, WA US","47.54554","-122.31475","7.6","2024-03-23T05:53:00","FM-15","7",,,,,,,,,,,,,,,,,,,,,"29.58","47","50","0.00",,,,"89","29.58","SCT:04 6 OVC:08 60","29.55","10.00","48","000",,"0",,,,,,,,,,,,,,,,,,,,,,,,,,,,,"MET10503/23/24 05:53:02 METAR KBFI 231353Z 00000KT 10SM SCT006 OVC060 10/08 A2958 RMK AO2 SLP017 T01000083 (LG)","FM-15","7",,,,,,,,,,,,,,,,,,,,,,,,,,,"2007-05-17"
"72793524234","SEATTLE BOEING FIELD, WA US","47.54554","-122.31475","7.6","2024-03-23T06:00:00","FM-16","7",,,,,,,,,,,,,,,,,,,,,"29.58","47","50",,,,,"89",,"SCT:04 8 BKN:07 16 OVC:08 60","29.55","10.00","48","000",,"0",,,,,,,,,,,,,,,,,,,,,,,,,,,,,"MET10503/23/24 06:00:02 SPECI KBFI 231400Z 00000KT 10SM SCT008 BKN016 OVC060 10/08 A2958 RMK AO2 T01000083 (LG)","FM-16","7",,,,,,,,,,,,,,,,,,,,,,,,,,,"2007-05-17"
"72793524234","SEATTLE BOEING FIELD, WA US","47.54554","-122.31475","7.6","2024-03-23T06:12:00","FM-16","7",,,,,,,,,,,,,,,,,,,,,"29.58","46","50",,,,,"86",,"FEW:02 10 SCT:04 29 OVC:08 60","29.55","10.00","48","000",,"0",,,,,,,,,,,,,,,,,,,,,,,,,,,,,"MET10503/23/24 06:12:02 SPECI KBFI 231412Z 00000KT 10SM FEW010 SCT029 OVC060 10/08 A2958 RMK AO2 T01000078 (LG)","FM-16","7",,,,,,,,,,,,,,,,,,,,,,,,,,,"2007-05-17"
"72793524234","SEATTLE BOEING FIELD, WA US","47.54554","-122.31475","7.6","2024-03-23T06:30:00","FM-16","7",,,,,,,,,,,,,,,,,,,,,"29.58","47","50",,,,,"89",,"SCT:04 9 BKN:07 27 OVC:08 60","29.55","10.00","48","000",,"0",,,,,,,,,,,,,,,,,,,,,,,,,,,,,"MET10503/23/24 06:30:02 SPECI KBFI 231430Z 00000KT 10SM SCT009 BKN027 OVC060 10/08 A2958 RMK AO2 T01000083 (LG)","FM-16","7",,,,,,,,,,,,,,,,,,,,,,,,,,,"2007-05-17"
"72793524234","SEATTLE BOEING FIELD, WA US","47.54554","-122.31475","7.6","2024-03-23T06:38:00","FM-16","7",,,,,,,,,,,,,,,,,,,,,"29.58","47","50",,,,,"89",,"BKN:07 9 BKN:07 18 OVC:08 60","29.55","9.00","48","330",,"3",,,,,,,,,,,,,,,,,,,,,,,,,,,,,"MET10403/23/24 06:38:02 SPECI KBFI 231438Z 33003KT 9SM BKN009 BKN018 OVC060 10/08 A2958 RMK AO2 T01000083 (LG)","FM-16","7",,,,,,,,,,,,,,,,,,,,,,,,,,,"2007-05-17"
"72793524234","SEATTLE BOEING FIELD, WA US","47.54554","-122.31475","7.6","2024-03-23T06:53:00","FM-15","7",,,,,,,,,,,,,,,,,,,,,"29.57","47","49","0.00","BR:1 ||","0.01","6","93","29.57","BKN:07 7 OVC:08 18","29.54","5.00","48","320",,"3",,,,,,,,,,,,,,,,,,,,,,,,,,,,,"MET11903/23/24 06:53:02 METAR KBFI 231453Z 32003KT 5SM BR BKN007 OVC018 09/08 A2957 RMK AO2 SLP014 60000 T00940083 56004 (LG)","FM-15","7",,,,,,,,,,,,,,,,,,,,,,,,,,,"2007-05-17"
"72793524234","SEATTLE BOEING FIELD, WA US","47.54554","-122.31475","7.6","2024-03-23T07:53:00","FM-15","7",,,,,,,,,,,,,,,,,,,,,"29.58","47","49","0.00","BR:1 ||",,,"93","29.58","BKN:07 7 BKN:07 18 OVC:08 60","29.55","4.00","48","000",,"0",,,,,,,,,,,,,,,,,,,,,,,,,,,,,"MET11403/23/24 07:53:02 METAR KBFI 231553Z 00000KT 4SM BR BKN007 BKN018 OVC060 09/08 A2958 RMK AO2 SLP016 T00940083 (LG)","FM-15","7",,,,,,,,,,,,,,,,,,,,,,,,,,,"2007-05-17"
"72793524234","SEATTLE BOEING FIELD, WA US","47.54554","-122.31475","7.6","2024-03-23T08:53:00","FM-15","7",,,,,,,,,,,,,,,,,,,,,"29.58","47","50","T","-RA:02 BR:1 |RA |RA",,,"89","29.58","BKN:07 7 BKN:07 18 OVC:08 39","29.55","4.00","48","VRB",,"3",,,,,,,,,,,,,,,,,,,,,,,,,,,,,"MET13003/23/24 08:53:02 METAR KBFI 231653Z VRB03KT 4SM -RA BR BKN007 BKN018 OVC039 10/08 A2958 RMK AO2 RAB51 SLP017 P0000 T01000083 (LG)","FM-15","7",,,,,,,,,,,,,,,,,,,,,,,,,,,"2007-05-17"
"72793524234","SEATTLE BOEING FIELD, WA US","47.54554","-122.31475","7.6","2024-03-23T09:53:00","FM-15","7",,,,,,,,,,,,,,,,,,,,,"29.57","47","50","T","-RA:02 BR:1 |RA |RA","0.00","0","89","29.57","BKN:07 7 OVC:08 14","29.54","4.00","48","000",,"0",,,,,,,,,,,,,,,,,,,,,,,,,,,,,"MET14103/23/24 09:53:02 METAR KBFI 231753Z 00000KT 4SM -RA BR BKN007 OVC014 10/08 A2957 RMK AO2 SLP014 P0000 60000 T01000083 10100 20094 50000 (LG)","FM-15","7",,,,,,,,,,,,,,,,,,,,,,,,,,,"2007-05-17"
"72793524234","SEATTLE BOEING FIELD, WA US","47.54554","-122.31475","7.6","2024-03-23T10:51:00","FM-16","6",,,,,,,,,,,,,,,,,,,,,"29.58","46","52",,,,,"82",,"BKN:07 10 OVC:08 14","29.55","8.00","49","000",,"0",,,,,,,,,,,,,,,,,,,,,,,,,,,,,"MET10403/23/24 10:51:02 SPECI KBFI 231851Z 00000KT 8SM BKN010 OVC014 11/08 A2958 RMK AO2 RAE13 P0000 FIBI (LG)","FM-16","6",,,,,,,,,,,,,,,,,,,,,,,,,,,"2007-05-17"
"72793524234","SEATTLE BOEING FIELD, WA US","47.54554","-122.31475","7.6","2024-03-23T10:53:00","FM-15","7",,,,,,,,,,,,,,,,,,,,,"29.58","47","51","T",,,,"86","29.58","BKN:07 10 OVC:08 14","29.55","9.00","49","000",,"0",,,,,,,,,,,,,,,,,,,,,,,,,,,,,"MET11603/23/24 10:53:02 METAR KBFI 231853Z 00000KT 9SM BKN010 OVC014 11/08 A2958 RMK AO2 RAE13 SLP016 P0000 T01060083 (LG)","FM-15","7",,,,,,,,,,,,,,,,,,,,,,,,,,,"2007-05-17"
"72793524234","SEATTLE BOEING FIELD, WA US","47.54554","-122.31475","7.6","2024-03-23T11:53:00","FM-15","7",,,,,,,,,,,,,,,,,,,,,"29.58","47","52","0.00",,,,"83","29.57","BKN:07 12 OVC:08 14","29.55","10.00","49","050",,"3",,,,,,,,,,,,,,,,,,,,,,,,,,,,,"MET10503/23/24 11:53:02 METAR KBFI 231953Z 05003KT 10SM BKN012 OVC014 11/08 A2958 RMK AO2 SLP015 T01110083 (LG)","FM-15","7",,,,,,,,,,,,,,,,,,,,,,,,,,,"2007-05-17"
"72793524234","SEATTLE BOEING FIELD, WA US","47.54554","-122.31475","7.6","2024-03-23T12:51:00","FM-16","6",,,,,,,,,,,,,,,,,,,,,"29.57","46","52",,,,,"82",,"BKN:07 15 OVC:08 40","29.54","10.00","49","320",,"5",,,,,,,,,,,,,,,,,,,,,,,,,,,,,"MET09303/23/24 12:51:02 SPECI KBFI 232051Z 32004KT 10SM BKN015 OVC040 11/08 A2957 RMK AO2 FIBI (LG)","FM-16","6",,,,,,,,,,,,,,,,,,,,,,,,,,,"2007-05-17"
"72793524234","SEATTLE BOEING FIELD, WA US","47.54554","-122.31475","7.6","2024-03-23T12:53:00","FM-15","7",,,,,,,,,,,,,,,,,,,,,"29.57","45","52","0.00",,"0.01","8","77","29.57","BKN:07 15 OVC:08 40","29.54","10.00","49","330",,"7",,,,,,,,,,,,,,,,,,,,,,,,,,,,,"MET11203/23/24 12:53:02 METAR KBFI 232053Z 33006KT 10SM BKN015 OVC040 11/07 A2957 RMK AO2 SLP012 60000 T01110072 58002","FM-15","7",,,,,,,,,,,,,,,,,,,,,,,,,,,"2007-05-17"
"72793524234","SEATTLE BOEING FIELD, WA US","47.54554","-122.31475","7.6","2024-03-23T13:51:00","FM-16","6",,,,,,,,,,,,,,,,,,,,,"29.57","46","52",,,,,"82",,"BKN:07 14 OVC:08 25","29.54","10.00","49","VRB",,"3",,,,,,,,,,,,,,,,,,,,,,,,,,,,,"MET09303/23/24 13:51:02 SPECI KBFI 232151Z VRB03KT 10SM BKN014 OVC025 11/08 A2957 RMK AO2 FIBI (CT)","FM-16","6",,,,,,,,,,,,,,,,,,,,,,,,,,,"2007-05-17"
"72793524234","SEATTLE BOEING FIELD, WA US","47.54554","-122.31475","7.6","2024-03-23T13:53:00","FM-15","7",,,,,,,,,,,,,,,,,,,,,"29.56","46","53","0.00",,,,"77","29.56","BKN:07 14 OVC:08 25","29.53","10.00","49","VRB",,"3",,,,,,,,,,,,,,,,,,,,,,,,,,,,,"MET10503/23/24 13:53:02 METAR KBFI 232153Z VRB03KT 10SM BKN014 OVC025 12/08 A2956 RMK AO2 SLP011 T01170078 (CT)","FM-15","7",,,,,,,,,,,,,,,,,,,,,,,,,,,"2007-05-17"
"72793524234","SEATTLE BOEING FIELD, WA US","47.54554","-122.31475","7.6","2024-03-23T14:46:00","FM-16","7",,,,,,,,,,,,,,,,,,,,,"29.56","47","53",,,,,"80",,"SCT:04 15 SCT:04 23 BKN:07 28","29.53","10.00","50","VRB",,"5",,,,,,,,,,,,,,,,,,,,,,,,,,,,,"MET10503/23/24 14:46:02 SPECI KBFI 232246Z VRB04KT 10SM SCT015 SCT023 BKN028 12/08 A2956 RMK AO2 T01170083 (CT)","FM-16","7",,,,,,,,,,,,,,,,,,,,,,,,,,,"2007-05-17"
"72793524234","SEATTLE BOEING FIELD, WA US","47.54554","-122.31475","7.6","2024-03-23T14:53:00","FM-15","7",,,,,,,,,,,,,,,,,,,,,"29.56","46","52","0.00",,,,"80","29.56","BKN:07 15 BKN:07 23 BKN:07 28","29.53","10.00","49","340",,"7",,,,,,,,,,,,,,,,,,,,,,,,,,,,,"MET11203/23/24 14:53:02 METAR KBFI 232253Z 34006KT 10SM BKN015 BKN023 BKN028 11/08 A2956 RMK AO2 SLP009 T01110078 (CT)","FM-15","7",,,,,,,,,,,,,,,,,,,,,,,,,,,"2007-05-17"
"72793524234","SEATTLE BOEING FIELD, WA US","47.54554","-122.31475","7.6","2024-03-23T15:53:00","FM-15","7",,,,,,,,,,,,,,,,,,,,,"29.56","46","53","0.00",,"0.01","5","77","29.56","BKN:07 15 BKN:07 23 BKN:07 28","29.53","10.00","49","000",,"0",,,,,,,,,,,,,,,,,,,,,,,,,,,,,"MET13603/23/24 15:53:02 METAR KBFI 232353Z 00000KT 10SM BKN015 BKN023 BKN028 12/08 A2956 RMK AO2 SLP009 60000 T01170078 10117 20100 55003 (HW)","FM-15","7",,,,,,,,,,,,,,,,,,,,,,,,,,,"2007-05-17"
"72793524234","SEATTLE BOEING FIELD, WA US","47.54554","-122.31475","7.6","2024-03-23T16:53:00","FM-15","7",,,,,,,,,,,,,,,,,,,,,"29.57","44","51","0.00",,,,"77","29.57","BKN:07 15 BKN:07 23 BKN:07 28","29.54","10.00","48","320",,"8",,,,,,,,,,,,,,,,,,,,,,,,,,,,,"MET10703/23/24 16:53:01 METAR KBFI 240053Z 32007KT 10SM BKN015 BKN023 BKN028 11/07 A2957 RMK AO2 SLP012 T01060067","FM-15","7",,,,,,,,,,,,,,,,,,,,,,,,,,,"2007-05-17"
"72793524234","SEATTLE BOEING FIELD, WA US","47.54554","-122.31475","7.6","2024-03-23T17:51:00","FM-16","6",,,,,,,,,,,,,,,,,,,,,"29.58","45","50",,,,,"82",,"FEW:02 15 BKN:07 48","29.55","10.00","48","330",,"6",,,,,,,,,,,,,,,,,,,,,,,,,,,,,"MET09303/23/24 17:51:03 SPECI KBFI 240151Z 33005KT 10SM FEW015 BKN048 10/07 A2958 RMK AO2 FIBI (MB)","FM-16","6",,,,,,,,,,,,,,,,,,,,,,,,,,,"2007-05-17"
"72793524234","SEATTLE BOEING FIELD, WA US","47.54554","-122.31475","7.6","2024-03-23T17:53:00","FM-15","7",,,,,,,,,,,,,,,,,,,,,"29.58","44","50","0.00",,,,"80","29.57","FEW:02 15 BKN:07 48","29.55","10.00","47","320",,"5",,,,,,,,,,,,,,,,,,,,,,,,,,,,,"MET10003/23/24 17:53:01 METAR KBFI 240153Z 32004KT 10SM FEW015 BKN048 10/07 A2958 RMK AO2 SLP015 T01000067","FM-15","7",,,,,,,,,,,,,,,,,,,,,,,,,,,"2007-05-17"
"72793524234","SEATTLE BOEING FIELD, WA US","47.54554","-122.31475","7.6","2024-03-23T18:53:00","FM-15","7",,,,,,,,,,,,,,,,,,,,,"29.59","42","50","0.00",,"-0.02","3","74","29.58","BKN:07 46 OVC:08 60","29.56","10.00","46","340",,"6",,,,,,,,,,,,,,,,,,,,,,,,,,,,,"MET10603/23/24 18:53:01 METAR KBFI 240253Z 34005KT 10SM BKN046 OVC060 10/06 A2959 RMK AO2 SLP018 T01000056 53008","FM-15","7",,,,,,,,,,,,,,,,,,,,,,,,,,,"2007-05-17"
"72793524234","SEATTLE BOEING FIELD, WA US","47.54554","-122.31475","7.6","2024-03-23T19:53:00","FM-15","7",,,,,,,,,,,,,,,,,,,,,"29.60","42","49","0.00",,,,"77","29.59","OVC:08 60","29.57","10.00","46","010",,"5",,,,,,,,,,,,,,,,,,,,,,,,,,,,,"MET09303/23/24 19:53:02 METAR KBFI 240353Z 01004KT 10SM OVC060 09/06 A2960 RMK AO2 SLP022 T00940056","FM-15","7",,,,,,,,,,,,,,,,,,,,,,,,,,,"2007-05-17"
"72793524234","SEATTLE BOEING FIELD, WA US","47.54554","-122.31475","7.6","2024-03-23T20:53:00","FM-15","7",,,,,,,,,,,,,,,,,,,,,"29.61","43","49","0.00",,,,"80","29.61","FEW:02 15 OVC:08 60","29.58","10.00","46","000",,"0",,,,,,,,,,,,,,,,,,,,,,,,,,,,,"MET10003/23/24 20:53:02 METAR KBFI 240453Z 00000KT 10SM FEW015 OVC060 09/06 A2961 RMK AO2 SLP027 T00940061","FM-15","7",,,,,,,,,,,,,,,,,,,,,,,,,,,"2007-05-17"
"72793524234","SEATTLE BOEING FIELD, WA US","47.54554","-122.31475","7.6","2024-03-23T21:53:00","FM-15","7",,,,,,,,,,,,,,,,,,,,,"29.62","43","49","0.00",,"-0.03","1","80","29.62","FEW:02 15 OVC:08 60","29.59","10.00","46","000",,"0",,,,,,,,,,,,,,,,,,,,,,,,,,,,,"MET11803/23/24 21:53:02 METAR KBFI 240553Z 00000KT 10SM FEW015 OVC060 09/06 A2962 RMK AO2 SLP029 T00940061 10117 20094 51011","FM-15","7",,,,,,,,,,,,,,,,,,,,,,,,,,,"2007-05-17"
"72793524234","SEATTLE BOEING FIELD, WA US","47.54554","-122.31475","7.6","2024-03-23T22:53:00","FM-15","7",,,,,,,,,,,,,,,,,,,,,"29.63","43","49","0.00",,,,"80","29.63","OVC:08 41","29.60","10.00","46","000",,"0",,,,,,,,,,,,,,,,,,,,,,,,,,,,,"MET09303/23/24 22:53:01 METAR KBFI 240653Z 00000KT 10SM OVC041 09/06 A2963 RMK AO2 SLP034 T00940061","FM-15","7",,,,,,,,,,,,,,,,,,,,,,,,,,,"2007-05-17"
"72793524234","SEATTLE BOEING FIELD, WA US","47.54554","-122.31475","7.6","2024-03-23T23:53:00","FM-15","7",,,,,,,,,,,,,,,,,,,,,"29.64","43","48","0.00",,,,"83","29.64","SCT:04 13 OVC:08 39","29.61","10.00","46","000",,"0",,,,,,,,,,,,,,,,,,,,,,,,,,,,,"MET11003/23/24 23:53:02 METAR KBFI 240753Z 00000KT 10SM SCT013 OVC039 09/06 A2964 RMK AO2 SLP037 T00890061 401170089","FM-15","7",,,,,,,,,,,,,,,,,,,,,,,,,,,"2007-05-17"
"72793524234","SEATTLE BOEING FIELD, WA US","47.54554","-122.31475","7.6","2024-03-23T23:59:00","SOD  ","6",,,,,"51","29.54","2.4","0","2.8","14","53","48","300","14","0.01","310","9","RA BR",,,,,,,,,,,,,,,,,,,,,,,,,,,,,,,,,,,,,,,,,,,,,,,"SOD73024 HR PRECIPITATION (IN):0.01  24 HR MAX TEMP (F):53 24 HR MAX TEMP TIME (LST):1603 24 HR MIN TEMP (F):48 24 HR MIN TEMP TIME (LST):2359 AVERAGE STATION PRESSURE:29.545 MINIMUM SEA LEVEL PRESSURE:29.55 TIME OF OCCURRENCE:1448 PEAK WIND SPEED (MPH):14  PEAK WIND DIR (DEG):300 PEAK WIND TIME (LST):1651  FASTEST 2MIN SPEED (MPH):9  FASTEST 2MIN DIR (DEG):310 FASTEST 2MIN TIME (LST):1651 AVERAGE WIND SPEED (MPH):2.4  24 HR AVG TEMP (F):51 HEATING DEGREE DAYS:14  COOLING DEGREE DAYS:0   LATEST DAY MAX TEMP (0700-1900 LST):53  LATEST NIGHT MIN TEMP(1900-0800 LST):48 HOURLY INCREMENTAL PRECIPITATION VALUES (IN):.01 0.00 0.00 T    T    0.00 0.00 0.00 T    T    T    0.00 0.00 0.00 0.00 0.00 0.00 0.00 0.00 0.00 0.00 0.00 0.00 0.00","SOD  ","6",,,,,,,,,,,,,,,,,,,,,,,,,"0604","1828","2007-05-17"
"72793524234","SEATTLE BOEING FIELD, WA US","47.54554","-122.31475","7.6","2024-03-24T00:05:00","FM-16","7",,,,,,,,,,,,,,,,,,,,,"29.65","43","49",,,,,"80",,"BKN:07 13 OVC:08 39","29.62","10.00","46","000",,"0",,,,,,,,,,,,,,,,,,,,,,,,,,,,,"MET09803/24/24 00:05:02 SPECI KBFI 240805Z 00000KT 10SM BKN013 OVC039 09/06 A2965 RMK AO2 T00940061 (MB)","FM-16","7",,,,,,,,,,,,,,,,,,,,,,,,,,,"2007-05-17"
"72793524234","SEATTLE BOEING FIELD, WA US","47.54554","-122.31475","7.6","2024-03-24T00:17:00","FM-16","7",,,,,,,,,,,,,,,,,,,,,"29.65","43","49",,,,,"80",,"OVC:08 15","29.62","10.00","46","000",,"0",,,,,,,,,,,,,,,,,,,,,,,,,,,,,"MET09103/24/24 00:17:02 SPECI KBFI 240817Z 00000KT 10SM OVC015 09/06 A2965 RMK AO2 T00940061 (MB)","FM-16","7",,,,,,,,,,,,,,,,,,,,,,,,,,,"2007-05-17"
"72793524234","SEATTLE BOEING FIELD, WA US","47.54554","-122.31475","7.6","2024-03-24T00:29:00","FM-16","7",,,,,,,,,,,,,,,,,,,,,"29.65","43","49",,,,,"80",,"BKN:07 14 OVC:08 41","29.62","10.00","46","000",,"0",,,,,,,,,,,,,,,,,,,,,,,,,,,,,"MET09803/24/24 00:29:02 SPECI KBFI 240829Z 00000KT 10SM BKN014 OVC041 09/06 A2965 RMK AO2 T00940061 (MB)","FM-16","7",,,,,,,,,,,,,,,,,,,,,,,,,,,"2007-05-17"
"72793524234","SEATTLE BOEING FIELD, WA US","47.54554","-122.31475","7.6","2024-03-24T00:38:00","FM-16","7",,,,,,,,,,,,,,,,,,,,,"29.65","43","48",,,,,"83",,"SCT:04 14 OVC:08 41","29.62","10.00","46","000",,"0",,,,,,,,,,,,,,,,,,,,,,,,,,,,,"MET09803/24/24 00:38:02 SPECI KBFI 240838Z 00000KT 10SM SCT014 OVC041 09/06 A2965 RMK AO2 T00890061 (MB)","FM-16","7",,,,,,,,,,,,,,,,,,,,,,,,,,,"2007-05-17"
"72793524234","SEATTLE BOEING FIELD, WA US","47.54554","-122.31475","7.6","2024-03-24T00:51:00","FM-16","6",,,,,,,,,,,,,,,,,,,,,"29.65","43","48",,,,,"82",,"BKN:07 14 OVC:08 41","29.62","10.00","46","000",,"0",,,,,,,,,,,,,,,,,,,,,,,,,,,,,"MET09303/24/24 00:51:02 SPECI KBFI 240851Z 00000KT 10SM BKN014 OVC041 09/06 A2965 RMK AO2 FIBI (MB)","FM-16","6",,,,,,,,,,,,,,,,,,,,,,,,,,,"2007-05-17"
"72793524234","SEATTLE BOEING FIELD, WA US","47.54554","-122.31475","7.6","2024-03-24T00:53:00","FM-15","7",,,,,,,,,,,,,,,,,,,,,"29.65","43","49","0.00",,"-0.04","1","80","29.65","BKN:07 14 OVC:08 41","29.62","10.00","46","000",,"0",,,,,,,,,,,,,,,,,,,,,,,,,,,,,"MET11103/24/24 00:53:02 METAR KBFI 240853Z 00000KT 10SM BKN014 OVC041 09/06 A2965 RMK AO2 SLP041 T00940061 51012 (MB)","FM-15","7",,,,,,,,,,,,,,,,,,,,,,,,,,,"2007-05-17"
"72793524234","SEATTLE BOEING FIELD, WA US","47.54554","-122.31475","7.6","2024-03-24T01:30:00","FM-16","7",,,,,,,,,,,,,,,,,,,,,"29.66","43","49",,,,,"80",,"OVC:08 16","29.63","10.00","46","360",,"3",,,,,,,,,,,,,,,,,,,,,,,,,,,,,"MET09103/24/24 01:30:02 SPECI KBFI 240930Z 36003KT 10SM OVC016 09/06 A2966 RMK AO2 T00940061 (MB)","FM-16","7",,,,,,,,,,,,,,,,,,,,,,,,,,,"2007-05-17"
"72793524234","SEATTLE BOEING FIELD, WA US","47.54554","-122.31475","7.6","2024-03-24T01:53:00","FM-15","7",,,,,,,,,,,,,,,,,,,,,"29.67","43","48","0.00",,,,"83","29.67","BKN:07 20 OVC:08 41","29.64","9.00","46","VRB",,"3",,,,,,,,,,,,,,,,,,,,,,,,,,,,,"MET10403/24/24 01:53:02 METAR KBFI 240953Z VRB03KT 9SM BKN020 OVC041 09/06 A2967 RMK AO2 SLP046 T00890061 (MB)","FM-15","7",,,,,,,,,,,,,,,,,,,,,,,,,,,"2007-05-17"
"72793524234","SEATTLE BOEING FIELD, WA US","47.54554","-122.31475","7.6","2024-03-24T02:21:00","FM-16","7",,,,,,,,,,,,,,,,,,,,,"29.67","42","48",,,,,"80",,"SCT:04 23 OVC:08 41","29.64","10.00","45","000",,"0",,,,,,,,,,,,,,,,,,,,,,,,,,,,,"MET09803/24/24 02:21:02 SPECI KBFI 241021Z 00000KT 10SM SCT023 OVC041 09/06 A2967 RMK AO2 T00890056 (MB)","FM-16","7",,,,,,,,,,,,,,,,,,,,,,,,,,,"2007-05-17"
"72793524234","SEATTLE BOEING FIELD, WA US","47.54554","-122.31475","7.6","2024-03-24T02:53:00","FM-15","7",,,,,,,,,,,,,,,,,,,,,"29.67","42","48","0.00",,,,"80","29.67","OVC:08 41","29.64","10.00","45","000",,"0",,,,,,,,,,,,,,,,,,,,,,,,,,,,,"MET09803/24/24 02:53:02 METAR KBFI 241053Z 00000KT 10SM OVC041 09/06 A2967 RMK AO2 SLP048 T00890056 (MB)","FM-15","7",,,,,,,,,,,,,,,,,,,,,,,,,,,"2007-05-17"
"72793524234","SEATTLE BOEING FIELD, WA US","47.54554","-122.31475","7.6","2024-03-24T03:43:00","FM-16","7",,,,,,,,,,,,,,,,,,,,,"29.69","42","48",,,,,"80",,"BKN:07 27 OVC:08 44","29.66","10.00","45","000",,"0",,,,,,,,,,,,,,,,,,,,,,,,,,,,,"MET09803/24/24 03:43:02 SPECI KBFI 241143Z 00000KT 10SM BKN027 OVC044 09/06 A2969 RMK AO2 T00890056 (MB)","FM-16","7",,,,,,,,,,,,,,,,,,,,,,,,,,,"2007-05-17"
"72793524234","SEATTLE BOEING FIELD, WA US","47.54554","-122.31475","7.6","2024-03-24T03:53:00","FM-15","7",,,,,,,,,,,,,,,,,,,,,"29.69","42","49","0.00",,"-0.04","2","77","29.69","BKN:07 27 BKN:07 39 OVC:08 49","29.66","10.00","46","000",,"0",,,,,,,,,,,,,,,,,,,,,,,,,,,,,"MET13003/24/24 03:53:02 METAR KBFI 241153Z 00000KT 10SM BKN027 BKN039 OVC049 09/06 A2969 RMK AO2 SLP053 T00940056 10094 20089 52012 (MB)","FM-15","7",,,,,,,,,,,,,,,,,,,,,,,,,,,"2007-05-17"
"72793524234","SEATTLE BOEING FIELD, WA US","47.54554","-122.31475","7.6","2024-03-24T04:01:00","FM-16","7",,,,,,,,,,,,,,,,,,,,,"29.69","43","48",,,,,"83",,"SCT:04 27 OVC:08 50","29.66","10.00","46","000",,"0",,,,,,,,,,,,,,,,,,,,,,,,,,,,,"MET09803/24/24 04:01:02 SPECI KBFI 241201Z 00000KT 10SM SCT027 OVC050 09/06 A2969 RMK AO2 T00890061 (MB)","FM-16","7",,,,,,,,,,,,,,,,,,,,,,,,,,,"2007-05-17"
"72793524234","SEATTLE BOEING FIELD, WA US","47.54554","-122.31475","7.6","2024-03-24T04:43:00","FM-16","7",,,,,,,,,,,,,,,,,,,,,"29.71","43","48",,,,,"83",,"BKN:07 13 BKN:07 42 OVC:08 90","29.68","10.00","46","000",,"0",,,,,,,,,,,,,,,,,,,,,,,,,,,,,"MET10503/24/24 04:43:02 SPECI KBFI 241243Z 00000KT 10SM BKN013 BKN042 OVC090 09/06 A2971 RMK AO2 T00890061 (MB)","FM-16","7",,,,,,,,,,,,,,,,,,,,,,,,,,,"2007-05-17"
"72793524234","SEATTLE BOEING FIELD, WA US","47.54554","-122.31475","7.6","2024-03-24T04:53:00","FM-15","7",,,,,,,,,,,,,,,,,,,,,"29.71","43","49","0.00",,,,"80","29.71","OVC:08 11","29.68","10.00","46","000",,"0",,,,,,,,,,,,,,,,,,,,,,,,,,,,,"MET09803/24/24 04:53:02 METAR KBFI 241253Z 00000KT 10SM OVC011 09/06 A2971 RMK AO2 SLP060 T00940061 (MB)","FM-15","7",,,,,,,,,,,,,,,,,,,,,,,,,,,"2007-05-17"
"72793524234","SEATTLE BOEING FIELD, WA US","47.54554","-122.31475","7.6","2024-03-24T05:51:00","FM-16","6",,,,,,,,,,,,,,,,,,,,,"29.73","43","48",,,,,"82",,"OVC:08 16","29.70","10.00","46","300",,"3",,,,,,,,,,,,,,,,,,,,,,,,,,,,,"MET08603/24/24 05:51:02 SPECI KBFI 241351Z 30003KT 10SM OVC016 09/06 A2973 RMK AO2 FIBI (MM)","FM-16","6",,,,,,,,,,,,,,,,,,,,,,,,,,,"2007-05-17"
"72793524234","SEATTLE BOEING FIELD, WA US","47.54554","-122.31475","7.6","2024-03-24T05:53:00","FM-15","7",,,,,,,,,,,,,,,,,,,,,"29.73","43","48","0.00",,,,"83","29.73","OVC:08 16","29.70","10.00","46","300",,"3",,,,,,,,,,,,,,,,,,,,,,,,,,,,,"MET09803/24/24 05:53:02 METAR KBFI 241353Z 30003KT 10SM OVC016 09/06 A2973 RMK AO2 SLP067 T00890061 (MM)","FM-15","7",,,,,,,,,,,,,,,,,,,,,,,,,,,"2007-05-17"
"72793524234","SEATTLE BOEING FIELD, WA US","47.54554","-122.31475","7.6","2024-03-24T06:48:00","FM-16","7",,,,,,,,,,,,,,,,,,,,,"29.75","43","48",,,,,"82",,"SCT:04 26","29.72","10.00","46","000",,"0",,,,,,,,,,,,,,,,,,,,,,,,,,,,,"MET08103/24/24 06:48:02 SPECI KBFI 241448Z 00000KT 10SM SCT026 09/06 A2975 RMK AO2 (MM)","FM-16","7",,,,,,,,,,,,,,,,,,,,,,,,,,,"2007-05-17"
"72793524234","SEATTLE BOEING FIELD, WA US","47.54554","-122.31475","7.6","2024-03-24T06:51:00","FM-16","6",,,,,,,,,,,,,,,,,,,,,"29.75","43","48",,,,,"82",,"BKN:07 26","29.72","10.00","46","000",,"0",,,,,,,,,,,,,,,,,,,,,,,,,,,,,"MET08603/24/24 06:51:02 SPECI KBFI 241451Z 00000KT 10SM BKN026 09/06 A2975 RMK AO2 FIBI (MM)","FM-16","6",,,,,,,,,,,,,,,,,,,,,,,,,,,"2007-05-17"
"72793524234","SEATTLE BOEING FIELD, WA US","47.54554","-122.31475","7.6","2024-03-24T06:53:00","FM-15","7",,,,,,,,,,,,,,,,,,,,,"29.75","43","48","0.00",,"-0.04","1","83","29.75","BKN:07 26","29.72","10.00","46","000",,"0",,,,,,,,,,,,,,,,,,,,,,,,,,,,,"MET09903/24/24 06:53:02 METAR KBFI 241453Z 00000KT 10SM BKN026 09/06 A2975 RMK AO2 SLP075 T00890061 51015","FM-15","7",,,,,,,,,,,,,,,,,,,,,,,,,,,"2007-05-17"
"72793524234","SEATTLE BOEING FIELD, WA US","47.54554","-122.31475","7.6","2024-03-24T07:41:00","FM-16","7",,,,,,,,,,,,,,,,,,,,,"29.77","42","49",,,,,"77",,"FEW:02 22 BKN:07 60","29.74","10.00","46","000",,"0",,,,,,,,,,,,,,,,,,,,,,,,,,,,,"MET09303/24/24 07:41:02 SPECI KBFI 241541Z 00000KT 10SM FEW022 BKN060 09/06 A2977 RMK AO2 T00940056","FM-16","7",,,,,,,,,,,,,,,,,,,,,,,,,,,"2007-05-17"
"72793524234","SEATTLE BOEING FIELD, WA US","47.54554","-122.31475","7.6","2024-03-24T07:53:00","FM-15","7",,,,,,,,,,,,,,,,,,,,,"29.77","43","50","0.00",,,,"77","29.77","FEW:02 20 BKN:07 60","29.74","10.00","47","080",,"5",,,,,,,,,,,,,,,,,,,,,,,,,,,,,"MET10003/24/24 07:53:02 METAR KBFI 241553Z 08004KT 10SM FEW020 BKN060 10/06 A2977 RMK AO2 SLP080 T01000061","FM-15","7",,,,,,,,,,,,,,,,,,,,,,,,,,,"2007-05-17"
"72793524234","SEATTLE BOEING FIELD, WA US","47.54554","-122.31475","7.6","2024-03-24T08:51:00","FM-16","6",,,,,,,,,,,,,,,,,,,,,"29.79","43","52",,,,,"72",,"SCT:04 15 BKN:07 23","29.76","10.00","48",,,,,,,,,,,,,,,,,,,,,,,,,,,,,,,,"MET09303/24/24 08:51:02 SPECI KBFI 241651Z      KT 10SM SCT015 BKN023 11/06 A2979 RMK AO2 FIBI (MM)","FM-16","6",,,,,,,,,,,,,,,,,,,,,,,,,,,"2007-05-17"
"72793524234","SEATTLE BOEING FIELD, WA US","47.54554","-122.31475","7.6","2024-03-24T08:53:00","FM-15","7",,,,,,,,,,,,,,,,,,,,,"29.79","43","52","0.00",,,,"72","29.79","SCT:04 15 BKN:07 23","29.76","10.00","48",,,,,,,,,,,,,,,,,,,,,,,,,,,,,,,,"MET10003/24/24 08:53:02 METAR KBFI 241653Z      KT 10SM SCT015 BKN023 11/06 A2979 RMK AO2 SLP087 T01110061","FM-15","7",,,,,,,,,,,,,,,,,,,,,,,,,,,"2007-05-17"
"72793524234","SEATTLE BOEING FIELD, WA US","47.54554","-122.31475","7.6","2024-03-24T09:40:00","FM-16","7",,,,,,,,,,,,,,,,,,,,,"29.81","43","50",,,,,"77",,"FEW:02 23 OVC:08 33","29.78","10.00","47","340",,"8",,,,,,,,,,,,,,,,,,,,,,,,,,,,,"MET09303/24/24 09:40:02 SPECI KBFI 241740Z 34007KT 10SM FEW023 OVC033 10/06 A2981 RMK AO2 T01000061","FM-16","7",,,,,,,,,,,,,,,,,,,,,,,,,,,"2007-05-17"
"72793524234","SEATTLE BOEING FIELD, WA US","47.54554","-122.31475","7.6","2024-03-24T09:53:00","FM-15","7",,,,,,,,,,,,,,,,,,,,,"29.81","43","50","0.00",,"-0.06","3","77","29.81","SCT:04 28 OVC:08 33","29.78","10.00","47","VRB",,"6",,,,,,,,,,,,,,,,,,,,,,,,,,,,,"MET11803/24/24 09:53:02 METAR KBFI 241753Z VRB05KT 10SM SCT028 OVC033 10/06 A2981 RMK AO2 SLP095 T01000061 10117 20089 53020","FM-15","7",,,,,,,,,,,,,,,,,,,,,,,,,,,"2007-05-17"
"72793524234","SEATTLE BOEING FIELD, WA US","47.54554","-122.31475","7.6","2024-03-24T10:53:00","FM-15","7",,,,,,,,,,,,,,,,,,,,,"29.83","43","52","0.00",,,,"72","29.83","BKN:07 30","29.80","10.00","48","320",,"7",,,,,,,,,,,,,,,,,,,,,,,,,,,,,"MET09303/24/24 10:53:02 METAR KBFI 241853Z 32006KT 10SM BKN030 11/06 A2983 RMK AO2 SLP100 T01110061","FM-15","7",,,,,,,,,,,,,,,,,,,,,,,,,,,"2007-05-17"
"72793524234","SEATTLE BOEING FIELD, WA US","47.54554","-122.31475","7.6","2024-03-24T11:53:00","FM-15","7",,,,,,,,,,,,,,,,,,,,,"29.84","42","53","0.00",,,,"66","29.84","SCT:04 21 BKN:07 35","29.81","10.00","48","310",,"5",,,,,,,,,,,,,,,,,,,,,,,,,,,,,"MET10003/24/24 11:53:02 METAR KBFI 241953Z 31004KT 10SM SCT021 BKN035 12/06 A2984 RMK AO2 SLP104 T01170056","FM-15","7",,,,,,,,,,,,,,,,,,,,,,,,,,,"2007-05-17"
"72793524234","SEATTLE BOEING FIELD, WA US","47.54554","-122.31475","7.6","2024-03-24T12:53:00","FM-15","7",,,,,,,,,,,,,,,,,,,,,"29.83","41","56","0.00",,"-0.02","0","57","29.83","CLR:00","29.80","10.00","49","000",,"0",,,,,,,,,,,,,,,,,,,,,,,,,,,,,"MET09603/24/24 12:53:02 METAR KBFI 242053Z 00000KT 10SM CLR 13/05 A2983 RMK AO2 SLP102 T01330050 50007","FM-15","7",,,,,,,,,,,,,,,,,,,,,,,,,,,"2007-05-17"
"72793524234","SEATTLE BOEING FIELD, WA US","47.54554","-122.31475","7.6","2024-03-24T13:53:00","FM-15","7",,,,,,,,,,,,,,,,,,,,,"29.83","40","58","0.00",,,,"51","29.83","SCT:04 30","29.80","10.00","49","070",,"3",,,,,,,,,,,,,,,,,,,,,,,,,,,,,"MET09303/24/24 13:53:02 METAR KBFI 242153Z 07003KT 10SM SCT030 14/04 A2983 RMK AO2 SLP100 T01440044","FM-15","7",,,,,,,,,,,,,,,,,,,,,,,,,,,"2007-05-17"
"72793524234","SEATTLE BOEING FIELD, WA US","47.54554","-122.31475","7.6","2024-03-24T14:53:00","FM-15","7",,,,,,,,,,,,,,,,,,,,,"29.82","40","59","0.00",,,,"49","29.82","FEW:02 30","29.79","10.00","50",,,,,,,,,,,,,,,,,,,,,,,,,,,,,,,,"MET09303/24/24 14:53:02 METAR KBFI 242253Z      KT 10SM FEW030 15/04 A2982 RMK AO2 SLP098 T01500044","FM-15","7",,,,,,,,,,,,,,,,,,,,,,,,,,,"2007-05-17"
"72793524234","SEATTLE BOEING FIELD, WA US","47.54554","-122.31475","7.6","2024-03-24T15:53:00","FM-15","7",,,,,,,,,,,,,,,,,,,,,"29.82","40","59","0.00",,"0.02","8","49","29.81","CLR:00","29.79","10.00","50","210",,"6",,,,,,,,,,,,,,,,,,,,,,,,,,,,,"MET10803/24/24 15:53:02 METAR KBFI 242353Z 21005KT 10SM CLR 15/04 A2982 RMK AO2 SLP096 T01500044 10156 20100 58006","FM-15","7",,,,,,,,,,,,,,,,,,,,,,,,,,,"2007-05-17"
"72793524234","SEATTLE BOEING FIELD, WA US","47.54554","-122.31475","7.6","2024-03-24T16:53:00","FM-15","7",,,,,,,,,,,,,,,,,,,,,"29.81","39","58","0.00",,,,"50","29.81","FEW:02 30","29.78","10.00","49","170",,"8",,,,,,,,,,,,,,,,,,,,,,,,,,,,,"MET09303/24/24 16:53:01 METAR KBFI 250053Z 17007KT 10SM FEW030 14/04 A2981 RMK AO2 SLP095 T01440039","FM-15","7",,,,,,,,,,,,,,,,,,,,,,,,,,,"2007-05-17"
"72793524234","SEATTLE BOEING FIELD, WA US","47.54554","-122.31475","7.6","2024-03-24T17:53:00","FM-15","7",,,,,,,,,,,,,,,,,,,,,"29.82","37","57","0.00",,,,"47","29.82","BKN:07 50","29.79","10.00","48","180",,"6",,,,,,,,,,,,,,,,,,,,,,,,,,,,,"MET09303/24/24 17:53:01 METAR KBFI 250153Z 18005KT 10SM BKN050 14/03 A2982 RMK AO2 SLP097 T01390028","FM-15","7",,,,,,,,,,,,,,,,,,,,,,,,,,,"2007-05-17"
"72793524234","SEATTLE BOEING FIELD, WA US","47.54554","-122.31475","7.6","2024-03-24T18:53:00","FM-15","7",,,,,,,,,,,,,,,,,,,,,"29.82","38","55","0.00",,"0.00","3","53","29.81","BKN:07 60 BKN:07 70 BKN:07 90","29.79","10.00","47","160",,"6",,,,,,,,,,,,,,,,,,,,,,,,,,,,,"MET11303/24/24 18:53:01 METAR KBFI 250253Z 16005KT 10SM BKN060 BKN070 BKN090 13/03 A2982 RMK AO2 SLP096 T01280033 53000","FM-15","7",,,,,,,,,,,,,,,,,,,,,,,,,,,"2007-05-17"
"72793524234","SEATTLE BOEING FIELD, WA US","47.54554","-122.31475","7.6","2024-03-24T19:53:00","FM-15","7",,,,,,,,,,,,,,,,,,,,,"29.82","38","53","0.00",,,,"57","29.82","SCT:04 60","29.79","10.00","46","180",,"6",,,,,,,,,,,,,,,,,,,,,,,,,,,,,"MET09303/24/24 19:53:01 METAR KBFI 250353Z 18005KT 10SM SCT060 12/03 A2982 RMK AO2 SLP098 T01170033","FM-15","7",,,,,,,,,,,,,,,,,,,,,,,,,,,"2007-05-17"
"72793524234","SEATTLE BOEING FIELD, WA US","47.54554","-122.31475","7.6","2024-03-24T20:53:00","FM-15","7",,,,,,,,,,,,,,,,,,,,,"29.84","43","52","0.00",,,,"72","29.84","BKN:07 49 OVC:08 70","29.81","10.00","48","200",,"7",,,,,,,,,,,,,,,,,,,,,,,,,,,,,"MET10003/24/24 20:53:01 METAR KBFI 250453Z 20006KT 10SM BKN049 OVC070 11/06 A2984 RMK AO2 SLP104 T01110061","FM-15","7",,,,,,,,,,,,,,,,,,,,,,,,,,,"2007-05-17"
"72793524234","SEATTLE BOEING FIELD, WA US","47.54554","-122.31475","7.6","2024-03-24T21:53:00","FM-15","7",,,,,,,,,,,,,,,,,,,,,"29.86","41","51","0.00",,"-0.04","3","69","29.85","BKN:07 48 OVC:08 60","29.83","10.00","46","VRB",,"3",,,,,,,,,,,,,,,,,,,,,,,,,,,,,"MET11803/24/24 21:53:01 METAR KBFI 250553Z VRB03KT 10SM BKN048 OVC060 11/05 A2986 RMK AO2 SLP109 T01060050 10150 20106 53013","FM-15","7",,,,,,,,,,,,,,,,,,,,,,,,,,,"2007-05-17"
"72793524234","SEATTLE BOEING FIELD, WA US","47.54554","-122.31475","7.6","2024-03-24T22:53:00","FM-15","7",,,,,,,,,,,,,,,,,,,,,"29.86","40","50","0.00",,,,"68","29.86","OVC:08 46","29.83","10.00","45","160",,"8",,,,,,,,,,,,,,,,,,,,,,,,,,,,,"MET09303/24/24 22:53:01 METAR KBFI 250653Z 16007KT 10SM OVC046 10/04 A2986 RMK AO2 SLP112 T01000044","FM-15","7",,,,,,,,,,,,,,,,,,,,,,,,,,,"2007-05-17"
"72793524234","SEATTLE BOEING FIELD, WA US","47.54554","-122.31475","7.6","2024-03-24T23:53:00","FM-15","7",,,,,,,,,,,,,,,,,,,,,"29.87","42","49","0.00",,,,"77","29.87","BKN:07 90","29.84","10.00","46","180","17","7",,,,,,,,,,,,,,,,,,,,,,,,,,,,,"MET10603/24/24 23:53:01 METAR KBFI 250753Z 18006G15KT 10SM BKN090 09/06 A2987 RMK AO2 SLP115 T00940056 401560089","FM-15","7",,,,,,,,,,,,,,,,,,,,,,,,,,,"2007-05-17"
"72793524234","SEATTLE BOEING FIELD, WA US","47.54554","-122.31475","7.6","2024-03-24T23:59:00","SOD  ","6",,,,,"54","29.72","4.0","0","5.6","11","60","48","180","18","0.00","200","12",,,,,,,,,,,,,,,,,,,,,,,,,,,,,,,,,,,,,,,,,,,,,,,,"SOD73424 HR PRECIPITATION (IN): 0.00 24 HR MAX TEMP (F):60 24 HR MAX TEMP TIME (LST):1506 24 HR MIN TEMP (F):48 24 HR MIN TEMP TIME (LST):0702 AVERAGE STATION PRESSURE(D):29.723 MINIMUM SEA LEVEL PRESSURE:29.64 TIME OF OCCURRENCE:0036 PEAK WIND SPEED (MPH):18  PEAK WIND DIR (DEG):180 PEAK WIND TIME (LST):1542  FASTEST 2MIN SPEED (MPH):12 FASTEST 2MIN DIR (DEG):200 FASTEST 2MIN TIME (LST):2106 AVERAGE WIND SPEED (MPH): 4.0 24 HR AVG TEMP (F):54 HEATING DEGREE DAYS: 11 COOLING DEGREE DAYS:  0 LATEST DAY MAX TEMP (0700-1900 LST): 60 LATEST NIGHT MIN TEMP(1900-0800 LST):48 HOURLY INCREMENTAL PRECIPITATION VALUES (IN):0.00 0.00 0.00 0.00 0.00 0.00 0.00 0.00 0.00 0.00 0.00 0.00 0.00 0.00 0.00 0.00 0.00 0.00 0.00 0.00 0.00 0.00 0.00 0.00","SOD  ","6",,,,,,,,,,,,,,,,,,,,,,,,,"0602","1829","2007-05-17"
"72793524234","SEATTLE BOEING FIELD, WA US","47.54554","-122.31475","7.6","2024-03-25T00:29:00","FM-16","7",,,,,,,,,,,,,,,,,,,,,"29.88","42","49",,,,,"77",,"BKN:07 21 BKN:07 90","29.85","10.00","46","170",,"9",,,,,,,,,,,,,,,,,,,,,,,,,,,,,"MET09803/25/24 00:29:02 SPECI KBFI 250829Z 17008KT 10SM BKN021 BKN090 09/06 A2988 RMK AO2 T00940056 (MB)","FM-16","7",,,,,,,,,,,,,,,,,,,,,,,,,,,"2007-05-17"
"72793524234","SEATTLE BOEING FIELD, WA US","47.54554","-122.31475","7.6","2024-03-25T00:53:00","FM-15","7",,,,,,,,,,,,,,,,,,,,,"29.88","42","49","0.00",,"-0.03","3","77","29.88","BKN:07 19 OVC:08 90","29.85","10.00","46","VRB","16","9",,,,,,,,,,,,,,,,,,,,,,,,,,,,,"MET11403/25/24 00:53:02 METAR KBFI 250853Z 20008G14KT 10SM BKN019 OVC090 09/06 A2988 RMK AO2 SLP118 T00940056 53009 (MB)","FM-15","7",,,,,,,,,,,,,,,,,,,,,,,,,,,"2007-05-17"
"72793524234","SEATTLE BOEING FIELD, WA US","47.54554","-122.31475","7.6","2024-03-25T01:51:00","FM-16","6",,,,,,,,,,,,,,,,,,,,,"29.88","41","48",,,,,"76",,"SCT:04 19 BKN:07 50 BKN:07 65","29.85","10.00","45","200",,"9",,,,,,,,,,,,,,,,,,,,,,,,,,,,,"MET10003/25/24 01:51:02 SPECI KBFI 250951Z 20008KT 10SM SCT019 BKN050 BKN065 09/05 A2988 RMK AO2 FIBI (MB)","FM-16","6",,,,,,,,,,,,,,,,,,,,,,,,,,,"2007-05-17"
"72793524234","SEATTLE BOEING FIELD, WA US","47.54554","-122.31475","7.6","2024-03-25T01:53:00","FM-15","7",,,,,,,,,,,,,,,,,,,,,"29.88","41","48","0.00",,,,"77","29.88","SCT:04 19 BKN:07 50 BKN:07 65","29.85","10.00","45","VRB",,"6",,,,,,,,,,,,,,,,,,,,,,,,,,,,,"MET11203/25/24 01:53:02 METAR KBFI 250953Z VRB05KT 10SM SCT019 BKN050 BKN065 09/05 A2988 RMK AO2 SLP117 T00890050 (MB)","FM-15","7",,,,,,,,,,,,,,,,,,,,,,,,,,,"2007-05-17"
"72793524234","SEATTLE BOEING FIELD, WA US","47.54554","-122.31475","7.6","2024-03-25T02:53:00","FM-15","7",,,,,,,,,,,,,,,,,,,,,"29.87","41","48","0.00",,,,"77","29.87","FEW:02 20 BKN:07 55","29.84","10.00","45","VRB",,"7",,,,,,,,,,,,,,,,,,,,,,,,,,,,,"MET10503/25/24 02:53:02 METAR KBFI 251053Z VRB06KT 10SM FEW020 BKN055 09/05 A2987 RMK AO2 SLP114 T00890050 (MB)","FM-15","7",,,,,,,,,,,,,,,,,,,,,,,,,,,"2007-05-17"
"72793524234","SEATTLE BOEING FIELD, WA US","47.54554","-122.31475","7.6","2024-03-25T03:53:00","FM-15","7",,,,,,,,,,,,,,,,,,,,,"29.86","40","49","0.00",,"0.02","8","71","29.86","BKN:07 45 BKN:07 85","29.83","10.00","45","170",,"8",,,,,,,,,,,,,,,,,,,,,,,,,,,,,"MET12303/25/24 03:53:02 METAR KBFI 251153Z 17007KT 10SM BKN045 BKN085 09/04 A2986 RMK AO2 SLP111 T00940044 10106 20089 58007 (CT)","FM-15","7",,,,,,,,,,,,,,,,,,,,,,,,,,,"2007-05-17"
"72793524234","SEATTLE BOEING FIELD, WA US","47.54554","-122.31475","7.6","2024-03-25T04:53:00","FM-15","7",,,,,,,,,,,,,,,,,,,,,"29.87","39","48","0.00",,,,"71","29.87","SCT:04 49 BKN:07 60 OVC:08 85","29.84","10.00","44","170",,"8",,,,,,,,,,,,,,,,,,,,,,,,,,,,,"MET11203/25/24 04:53:02 METAR KBFI 251253Z 17007KT 10SM SCT049 BKN060 OVC085 09/04 A2987 RMK AO2 SLP114 T00890039 (CT)","FM-15","7",,,,,,,,,,,,,,,,,,,,,,,,,,,"2007-05-17"
"72793524234","SEATTLE BOEING FIELD, WA US","47.54554","-122.31475","7.6","2024-03-25T05:53:00","FM-15","7",,,,,,,,,,,,,,,,,,,,,"29.87","39","48","0.00",,,,"71","29.87","OVC:08 50","29.84","10.00","44","170",,"10",,,,,,,,,,,,,,,,,,,,,,,,,,,,,"MET09803/25/24 05:53:02 METAR KBFI 251353Z 17009KT 10SM OVC050 09/04 A2987 RMK AO2 SLP114 T00890039 (CT)","FM-15","7",,,,,,,,,,,,,,,,,,,,,,,,,,,"2007-05-17"
"72793524234","SEATTLE BOEING FIELD, WA US","47.54554","-122.31475","7.6","2024-03-25T06:53:00","FM-15","7",,,,,,,,,,,,,,,,,,,,,"29.88","39","48","0.00",,"-0.02","3","71","29.88","OVC:08 50","29.85","10.00","44","180",,"10",,,,,,,,,,,,,,,,,,,,,,,,,,,,,"MET10403/25/24 06:53:02 METAR KBFI 251453Z 18009KT 10SM OVC050 09/04 A2988 RMK AO2 SLP117 T00890039 53006 (CT)","FM-15","7",,,,,,,,,,,,,,,,,,,,,,,,,,,"2007-05-17"
"72793524234","SEATTLE BOEING FIELD, WA US","47.54554","-122.31475","7.6","2024-03-25T07:53:00","FM-15","7",,,,,,,,,,,,,,,,,,,,,"29.88","40","49","0.00",,,,"71","29.88","FEW:02 33 OVC:08 65","29.85","10.00","45","180","18","11",,,,,,,,,,,,,,,,,,,,,,,,,,,,,"MET10803/25/24 07:53:02 METAR KBFI 251553Z 18010G16KT 10SM FEW033 OVC065 09/04 A2988 RMK AO2 SLP119 T00940044 (CT)","FM-15","7",,,,,,,,,,,,,,,,,,,,,,,,,,,"2007-05-17"
"72793524234","SEATTLE BOEING FIELD, WA US","47.54554","-122.31475","7.6","2024-03-25T08:53:00","FM-15","7",,,,,,,,,,,,,,,,,,,,,"29.89","40","50","0.00",,,,"68","29.89","FEW:02 24 OVC:08 60","29.86","10.00","45","170","24","13",,,,,,,,,,,,,,,,,,,,,,,,,,,,,"MET10803/25/24 08:53:02 METAR KBFI 251653Z 17011G21KT 10SM FEW024 OVC060 10/04 A2989 RMK AO2 SLP121 T01000044 (CT)","FM-15","7",,,,,,,,,,,,,,,,,,,,,,,,,,,"2007-05-17"
"72793524234","SEATTLE BOEING FIELD, WA US","47.54554","-122.31475","7.6","2024-03-25T09:53:00","FM-15","7",,,,,,,,,,,,,,,,,,,,,"29.89","40","50","0.00",,"-0.01","1","68","29.89","BKN:07 23 OVC:08 60","29.86","10.00","45","170","20","13",,,,,,,,,,,,,,,,,,,,,,,,,,,,,"MET12603/25/24 09:53:02 METAR KBFI 251753Z 17011G17KT 10SM BKN023 OVC060 10/04 A2989 RMK AO2 SLP122 T01000044 10106 20089 51004 (LG)","FM-15","7",,,,,,,,,,,,,,,,,,,,,,,,,,,"2007-05-17"
"72793524234","SEATTLE BOEING FIELD, WA US","47.54554","-122.31475","7.6","2024-03-25T10:53:00","FM-15","7",,,,,,,,,,,,,,,,,,,,,"29.89","41","52","0.00",,,,"66","29.89","BKN:07 25 BKN:07 65","29.86","10.00","47","170",,"11",,,,,,,,,,,,,,,,,,,,,,,,,,,,,"MET10503/25/24 10:53:02 METAR KBFI 251853Z 17010KT 10SM BKN025 BKN065 11/05 A2989 RMK AO2 SLP121 T01110050 (LG)","FM-15","7",,,,,,,,,,,,,,,,,,,,,,,,,,,"2007-05-17"
"72793524234","SEATTLE BOEING FIELD, WA US","47.54554","-122.31475","7.6","2024-03-25T11:51:00","FM-16","6",,,,,,,,,,,,,,,,,,,,,"29.88","39","52",,,,,"62",,"BKN:07 30 OVC:08 45","29.85","10.00","46","190",,"9",,,,,,,,,,,,,,,,,,,,,,,,,,,,,"MET09303/25/24 11:51:02 SPECI KBFI 251951Z 19008KT 10SM BKN030 OVC045 11/04 A2988 RMK AO2 FIBI (LG)","FM-16","6",,,,,,,,,,,,,,,,,,,,,,,,,,,"2007-05-17"
"72793524234","SEATTLE BOEING FIELD, WA US","47.54554","-122.31475","7.6","2024-03-25T11:53:00","FM-15","7",,,,,,,,,,,,,,,,,,,,,"29.88","40","52","0.00",,,,"64","29.88","BKN:07 30 OVC:08 45","29.85","10.00","46","VRB",,"8",,,,,,,,,,,,,,,,,,,,,,,,,,,,,"MET10503/25/24 11:53:02 METAR KBFI 251953Z 22007KT 10SM BKN030 OVC045 11/04 A2988 RMK AO2 SLP119 T01110044 (LG)","FM-15","7",,,,,,,,,,,,,,,,,,,,,,,,,,,"2007-05-17"
"72793524234","SEATTLE BOEING FIELD, WA US","47.54554","-122.31475","7.6","2024-03-25T12:53:00","FM-15","7",,,,,,,,,,,,,,,,,,,,,"29.88","41","52","0.00",,"0.01","6","66","29.88","OVC:08 75","29.85","10.00","47","190",,"8",,,,,,,,,,,,,,,,,,,,,,,,,,,,,"MET10403/25/24 12:53:02 METAR KBFI 252053Z 19007KT 10SM OVC075 11/05 A2988 RMK AO2 SLP119 T01110050 56003 (LG)","FM-15","7",,,,,,,,,,,,,,,,,,,,,,,,,,,"2007-05-17"
"72793524234","SEATTLE BOEING FIELD, WA US","47.54554","-122.31475","7.6","2024-03-25T13:53:00","FM-15","7",,,,,,,,,,,,,,,,,,,,,"29.88","43","51","T","-RA:02 |RA |RA",,,"74","29.88","BKN:07 40 OVC:08 49","29.85","10.00","47","200",,"10",,,,,,,,,,,,,,,,,,,,,,,,,,,,,"MET12103/25/24 13:53:02 METAR KBFI 252153Z 20009KT 10SM -RA BKN040 OVC049 11/06 A2988 RMK AO2 RAB12 SLP118 P0000 T01060061 (LG)","FM-15","7",,,,,,,,,,,,,,,,,,,,,,,,,,,"2007-05-17"
"72793524234","SEATTLE BOEING FIELD, WA US","47.54554","-122.31475","7.6","2024-03-25T14:53:00","FM-15","7",,,,,,,,,,,,,,,,,,,,,"29.88","42","50","T",,,,"74","29.88","SCT:04 17 OVC:08 50","29.85","10.00","46","180",,"7",,,,,,,,,,,,,,,,,,,,,,,,,,,,,"MET11703/25/24 14:53:02 METAR KBFI 252253Z 18006KT 10SM SCT017 OVC050 10/06 A2988 RMK AO2 RAE35 SLP117 P0000 T01000056 (LG)","FM-15","7",,,,,,,,,,,,,,,,,,,,,,,,,,,"2007-05-17"
"72793524234","SEATTLE BOEING FIELD, WA US","47.54554","-122.31475","7.6","2024-03-25T15:53:00","FM-15","7",,,,,,,,,,,,,,,,,,,,,"29.87","43","52","0.00",,"0.01","8","72","29.87","FEW:02 60 BKN:07 80 BKN:07 95","29.84","10.00","48","190",,"8",,,,,,,,,,,,,,,,,,,,,,,,,,,,,"MET13603/25/24 15:53:02 METAR KBFI 252353Z 19007KT 10SM FEW060 BKN080 BKN095 11/06 A2987 RMK AO2 SLP115 60000 T01110061 10117 20100 58004 (LG)","FM-15","7",,,,,,,,,,,,,,,,,,,,,,,,,,,"2007-05-17"
"72793524234","SEATTLE BOEING FIELD, WA US","47.54554","-122.31475","7.6","2024-03-25T16:51:00","FM-16","6",,,,,,,,,,,,,,,,,,,,,"29.86","43","52",,,,,"72",,"BKN:07 24 OVC:08 39","29.83","10.00","48","150",,"9",,,,,,,,,,,,,,,,,,,,,,,,,,,,,"MET09303/25/24 16:51:03 SPECI KBFI 260051Z 15008KT 10SM BKN024 OVC039 11/06 A2986 RMK AO2 FIBI (LG)","FM-16","6",,,,,,,,,,,,,,,,,,,,,,,,,,,"2007-05-17"
"72793524234","SEATTLE BOEING FIELD, WA US","47.54554","-122.31475","7.6","2024-03-25T16:53:00","FM-15","7",,,,,,,,,,,,,,,,,,,,,"29.86","42","51","0.00",,,,"71","29.86","BKN:07 24 OVC:08 39","29.83","10.00","47","160",,"9",,,,,,,,,,,,,,,,,,,,,,,,,,,,,"MET10003/25/24 16:53:01 METAR KBFI 260053Z 16008KT 10SM BKN024 OVC039 11/06 A2986 RMK AO2 SLP112 T01060056","FM-15","7",,,,,,,,,,,,,,,,,,,,,,,,,,,"2007-05-17"
"72793524234","SEATTLE BOEING FIELD, WA US","47.54554","-122.31475","7.6","2024-03-25T17:53:00","FM-15","7",,,,,,,,,,,,,,,,,,,,,"29.86","42","51","0.00",,,,"71","29.86","BKN:07 24 OVC:08 41","29.83","10.00","47","160",,"7",,,,,,,,,,,,,,,,,,,,,,,,,,,,,"MET10003/25/24 17:53:01 METAR KBFI 260153Z 16006KT 10SM BKN024 OVC041 11/06 A2986 RMK AO2 SLP111 T01060056","FM-15","7",,,,,,,,,,,,,,,,,,,,,,,,,,,"2007-05-17"
"72793524234","SEATTLE BOEING FIELD, WA US","47.54554","-122.31475","7.6","2024-03-25T18:53:00","FM-15","7",,,,,,,,,,,,,,,,,,,,,"29.86","44","50","0.00",,"0.01","5","80","29.86","BKN:07 24 OVC:08 41","29.83","10.00","47","150",,"9",,,,,,,,,,,,,,,,,,,,,,,,,,,,,"MET10603/25/24 18:53:01 METAR KBFI 260253Z 15008KT 10SM BKN024 OVC041 10/07 A2986 RMK AO2 SLP111 T01000067 55004","FM-15","7",,,,,,,,,,,,,,,,,,,,,,,,,,,"2007-05-17"
"72793524234","SEATTLE BOEING FIELD, WA US","47.54554","-122.31475","7.6","2024-03-25T19:51:00","FM-16","6",,,,,,,,,,,,,,,,,,,,,"29.87","43","48",,,,,"82",,"FEW:02 21 OVC:08 41","29.84","10.00","46","140",,"6",,,,,,,,,,,,,,,,,,,,,,,,,,,,,"MET09303/25/24 19:51:03 SPECI KBFI 260351Z 14005KT 10SM FEW021 OVC041 09/06 A2987 RMK AO2 FIBI (HW)","FM-16","6",,,,,,,,,,,,,,,,,,,,,,,,,,,"2007-05-17"
"72793524234","SEATTLE BOEING FIELD, WA US","47.54554","-122.31475","7.6","2024-03-25T19:53:00","FM-15","7",,,,,,,,,,,,,,,,,,,,,"29.87","43","49","0.00",,,,"80","29.87","FEW:02 21 OVC:08 41","29.84","10.00","46","140",,"7",,,,,,,,,,,,,,,,,,,,,,,,,,,,,"MET10003/25/24 19:53:01 METAR KBFI 260353Z 14006KT 10SM FEW021 OVC041 09/06 A2987 RMK AO2 SLP114 T00940061","FM-15","7",,,,,,,,,,,,,,,,,,,,,,,,,,,"2007-05-17"
"72793524234","SEATTLE BOEING FIELD, WA US","47.54554","-122.31475","7.6","2024-03-25T20:50:00","FM-16","7",,,,,,,,,,,,,,,,,,,,,"29.88","45","48",,,,,"87",,"SCT:04 21 BKN:07 26 OVC:08 37","29.85","10.00","47","150",,"5",,,,,,,,,,,,,,,,,,,,,,,,,,,,,"MET09003/25/24 20:50:01 SPECI KBFI 260450Z 15004KT 10SM SCT021 BKN026 OVC037 09/07 A2988 RMK AO2","FM-16","7",,,,,,,,,,,,,,,,,,,,,,,,,,,"2007-05-17"
"72793524234","SEATTLE BOEING FIELD, WA US","47.54554","-122.31475","7.6","2024-03-25T20:53:00","FM-15","7",,,,,,,,,,,,,,,,,,,,,"29.88","44","49","0.00",,,,"83","29.88","SCT:04 21 BKN:07 26 OVC:08 35","29.85","10.00","47","160",,"6",,,,,,,,,,,,,,,,,,,,,,,,,,,,,"MET10703/25/24 20:53:01 METAR KBFI 260453Z 16005KT 10SM SCT021 BKN026 OVC035 09/07 A2988 RMK AO2 SLP117 T00940067","FM-15","7",,,,,,,,,,,,,,,,,,,,,,,,,,,"2007-05-17"
"72793524234","SEATTLE BOEING FIELD, WA US","47.54554","-122.31475","7.6","2024-03-25T21:29:00","FM-16","7",,,,,,,,,,,,,,,,,,,,,"29.88","43","50",,,,,"77",,"SCT:04 19 BKN:07 33 OVC:08 44","29.85","10.00","47","200",,"8",,,,,,,,,,,,,,,,,,,,,,,,,,,,,"MET10003/25/24 21:29:01 SPECI KBFI 260529Z 20007KT 10SM SCT019 BKN033 OVC044 10/06 A2988 RMK AO2 T01000061","FM-16","7",,,,,,,,,,,,,,,,,,,,,,,,,,,"2007-05-17"
"72793524234","SEATTLE BOEING FIELD, WA US","47.54554","-122.31475","7.6","2024-03-25T21:51:00","FM-16","6",,,,,,,,,,,,,,,,,,,,,"29.89","43","50",,,,,"76",,"BKN:07 19 OVC:08 31","29.86","10.00","47","190",,"7",,,,,,,,,,,,,,,,,,,,,,,,,,,,,"MET09303/25/24 21:51:03 SPECI KBFI 260551Z 19006KT 10SM BKN019 OVC031 10/06 A2989 RMK AO2 FIBI (HW)","FM-16","6",,,,,,,,,,,,,,,,,,,,,,,,,,,"2007-05-17"
"72793524234","SEATTLE BOEING FIELD, WA US","47.54554","-122.31475","7.6","2024-03-25T21:53:00","FM-15","7",,,,,,,,,,,,,,,,,,,,,"29.89","43","50","0.00",,"-0.02","3","77","29.88","BKN:07 18 OVC:08 31","29.86","10.00","47","190",,"6",,,,,,,,,,,,,,,,,,,,,,,,,,,,,"MET11803/25/24 21:53:01 METAR KBFI 260553Z 19005KT 10SM BKN018 OVC031 10/06 A2989 RMK AO2 SLP120 T01000061 10111 20094 53006","FM-15","7",,,,,,,,,,,,,,,,,,,,,,,,,,,"2007-05-17"
"72793524234","SEATTLE BOEING FIELD, WA US","47.54554","-122.31475","7.6","2024-03-25T22:26:00","FM-16","7",,,,,,,,,,,,,,,,,,,,,"29.89","44","49",,,,,"83",,"SCT:04 16 SCT:04 28 OVC:08 38","29.86","10.00","47","220",,"6",,,,,,,,,,,,,,,,,,,,,,,,,,,,,"MET10003/25/24 22:26:01 SPECI KBFI 260626Z 22005KT 10SM SCT016 SCT028 OVC038 09/07 A2989 RMK AO2 T00940067","FM-16","7",,,,,,,,,,,,,,,,,,,,,,,,,,,"2007-05-17"
"72793524234","SEATTLE BOEING FIELD, WA US","47.54554","-122.31475","7.6","2024-03-25T22:35:00","FM-16","7",,,,,,,,,,,,,,,,,,,,,"29.90","44","49","T","-RA:02 |RA |RA",,,"83",,"FEW:02 18 BKN:07 28 OVC:08 38","29.87","9.00","47","240",,"7",,,,,,,,,,,,,,,,,,,,,,,,,,,,,"MET11503/25/24 22:35:01 SPECI KBFI 260635Z 24006KT 9SM -RA FEW018 BKN028 OVC038 09/07 A2990 RMK AO2 RAB33 P0000 T00940067","FM-16","7",,,,,,,,,,,,,,,,,,,,,,,,,,,"2007-05-17"
"72793524234","SEATTLE BOEING FIELD, WA US","47.54554","-122.31475","7.6","2024-03-25T22:53:00","FM-15","7",,,,,,,,,,,,,,,,,,,,,"29.90","44","49","T","-RA:02 |RA |RA",,,"83","29.90","BKN:07 24 OVC:08 36","29.87","6.00","47","250",,"5",,,,,,,,,,,,,,,,,,,,,,,,,,,,,"MET11503/25/24 22:53:01 METAR KBFI 260653Z 25004KT 6SM -RA BKN024 OVC036 09/07 A2990 RMK AO2 RAB33 SLP124 P0000 T00940067","FM-15","7",,,,,,,,,,,,,,,,,,,,,,,,,,,"2007-05-17"
"72793524234","SEATTLE BOEING FIELD, WA US","47.54554","-122.31475","7.6","2024-03-25T23:53:00","FM-15","7",,,,,,,,,,,,,,,,,,,,,"29.91","44","49","T",,,,"83","29.91","OVC:08 20","29.88","10.00","47","000",,"0",,,,,,,,,,,,,,,,,,,,,,,,,,,,,"MET11503/25/24 23:53:01 METAR KBFI 260753Z 00000KT 10SM OVC020 09/07 A2991 RMK AO2 RAE20 SLP128 P0000 T00940067 401170089","FM-15","7",,,,,,,,,,,,,,,,,,,,,,,,,,,"2007-05-17"
"72793524234","SEATTLE BOEING FIELD, WA US","47.54554","-122.31475","7.6","2024-03-25T23:59:00","SOD  ","6",,,,,"51","29.84","8.2","0","2.5","14","53","48","200","27","T","170","17","RA",,,,,,,,,,,,,,,,,,,,,,,,,,,,,,,,,,,,,,,,,,,,,,,"SOD72724 HR PRECIPITATION (IN):T     24 HR MAX TEMP (F):53 24 HR MAX TEMP TIME (LST):1104 24 HR MIN TEMP (F):48 24 HR MIN TEMP TIME (LST):2359 AVERAGE STATION PRESSURE:29.840 MINIMUM SEA LEVEL PRESSURE:29.85 TIME OF OCCURRENCE:1718 PEAK WIND SPEED (MPH):27  PEAK WIND DIR (DEG):200 PEAK WIND TIME (LST):1009  FASTEST 2MIN SPEED (MPH):17 FASTEST 2MIN DIR (DEG):170 FASTEST 2MIN TIME (LST):0910 AVERAGE WIND SPEED (MPH):8.2  24 HR AVG TEMP (F):51 HEATING DEGREE DAYS:14  COOLING DEGREE DAYS:0   LATEST DAY MAX TEMP (0700-1900 LST):53  LATEST NIGHT MIN TEMP(1900-0800 LST):48 HOURLY INCREMENTAL PRECIPITATION VALUES (IN):.00 0.00 0.00 0.00 0.00 0.00 0.00 0.00 0.00 0.00 0.00 0.00 0.00 T    T    0.00 0.00 0.00 0.00 0.00 0.00 0.00 T    T","SOD  ","6",,,,,,,,,,,,,,,,,,,,,,,,,"0600","1830","2007-05-17"
"72793524234","SEATTLE BOEING FIELD, WA US","47.54554","-122.31475","7.6","2024-03-26T00:51:00","FM-16","6",,,,,,,,,,,,,,,,,,,,,"29.92","43","48",,,,,"82",,"BKN:07 12 OVC:08 23","29.89","10.00","46","000",,"0",,,,,,,,,,,,,,,,,,,,,,,,,,,,,"MET09303/26/24 00:51:02 SPECI KBFI 260851Z 00000KT 10SM BKN012 OVC023 09/06 A2992 RMK AO2 FIBI (HW)","FM-16","6",,,,,,,,,,,,,,,,,,,,,,,,,,,"2007-05-17"
"72793524234","SEATTLE BOEING FIELD, WA US","47.54554","-122.31475","7.6","2024-03-26T00:53:00","FM-15","7",,,,,,,,,,,,,,,,,,,,,"29.92","43","48","0.00",,"-0.04","1","83","29.92","BKN:07 12 OVC:08 23","29.89","10.00","46","000",,"0",,,,,,,,,,,,,,,,,,,,,,,,,,,,,"MET11703/26/24 00:53:02 METAR KBFI 260853Z 00000KT 10SM BKN012 OVC023 09/06 A2992 RMK AO2 SLP132 60000 T00890061 51012 (HW)","FM-15","7",,,,,,,,,,,,,,,,,,,,,,,,,,,"2007-05-17"
"72793524234","SEATTLE BOEING FIELD, WA US","47.54554","-122.31475","7.6","2024-03-26T01:53:00","FM-15","7",,,,,,,,,,,,,,,,,,,,,"29.93","43","48","0.00",,,,"83","29.93","BKN:07 12 OVC:08 23","29.90","10.00","46","230",,"3",,,,,,,,,,,,,,,,,,,,,,,,,,,,,"MET10503/26/24 01:53:02 METAR KBFI 260953Z 23003KT 10SM BKN012 OVC023 09/06 A2993 RMK AO2 SLP135 T00890061 (HW)","FM-15","7",,,,,,,,,,,,,,,,,,,,,,,,,,,"2007-05-17"
"72793524234","SEATTLE BOEING FIELD, WA US","47.54554","-122.31475","7.6","2024-03-26T02:53:00","FM-15","7",,,,,,,,,,,,,,,,,,,,,"29.94","43","47","0.00",,,,"86","29.93","BKN:07 12 OVC:08 23","29.91","10.00","45","000",,"0",,,,,,,,,,,,,,,,,,,,,,,,,,,,,"MET10503/26/24 02:53:02 METAR KBFI 261053Z 00000KT 10SM BKN012 OVC023 08/06 A2994 RMK AO2 SLP137 T00830061 (HW)","FM-15","7",,,,,,,,,,,,,,,,,,,,,,,,,,,"2007-05-17"
"72793524234","SEATTLE BOEING FIELD, WA US","47.54554","-122.31475","7.6","2024-03-26T03:53:00","FM-15","7",,,,,,,,,,,,,,,,,,,,,"29.95","42","47","T",,"-0.03","3","83","29.95","OVC:08 14","29.92","10.00","45","160",,"6",,,,,,,,,,,,,,,,,,,,,,,,,,,,,"MET13703/26/24 03:53:02 METAR KBFI 261153Z 16005KT 10SM OVC014 08/06 A2995 RMK AO2 RAB02E12 SLP141 P0000 60000 T00830056 10100 20083 53009 (PC)","FM-15","7",,,,,,,,,,,,,,,,,,,,,,,,,,,"2007-05-17"
"72793524234","SEATTLE BOEING FIELD, WA US","47.54554","-122.31475","7.6","2024-03-26T04:53:00","FM-15","6",,,,,,,,,,,,,,,,,,,,,"29.96","41","47","0.00",,,,"80","29.96","OVC:08 14","29.93","10.00","44","000",,"0",,,,,,,,,,,,,,,,,,,,,,,,,,,,,"MET09803/26/24 04:53:02 METAR KBFI 261253Z 00000KT 10SM OVC014 08/05 A2996 RMK AO2 SLP144 T00830050 (PC)","FM-15","6",,,,,,,,,,,,,,,,,,,,,,,,,,,"2007-05-17"
"72793524234","SEATTLE BOEING FIELD, WA US","47.54554","-122.31475","7.6","2024-03-26T05:53:00","FM-15","6",,,,,,,,,,,,,,,,,,,,,"29.97","41","47","0.00",,,,"80","29.96","OVC:08 14","29.94","10.00","44","200",,"6",,,,,,,,,,,,,,,,,,,,,,,,,,,,,"MET09803/26/24 05:53:02 METAR KBFI 261353Z 20005KT 10SM OVC014 08/05 A2997 RMK AO2 SLP147 T00830050 (HW)","FM-15","6",,,,,,,,,,,,,,,,,,,,,,,,,,,"2007-05-17"
"72793524234","SEATTLE BOEING FIELD, WA US","47.54554","-122.31475","7.6","2024-03-26T06:51:00","FM-16","6",,,,,,,,,,,,,,,,,,,,,"29.98","39","46",,,,,"76",,"OVC:08 19","29.95","10.00","43","210",,"8",,,,,,,,,,,,,,,,,,,,,,,,,,,,,"MET08603/26/24 06:51:02 SPECI KBFI 261451Z 21007KT 10SM OVC019 08/04 A2998 RMK AO2 FIBI (HW)","FM-16","6",,,,,,,,,,,,,,,,,,,,,,,,,,,"2007-05-17"
"72793524234","SEATTLE BOEING FIELD, WA US","47.54554","-122.31475","7.6","2024-03-26T06:53:00","FM-15","6",,,,,,,,,,,,,,,,,,,,,"29.98","40","47","0.00",,"-0.03","3","77","29.98","OVC:08 19","29.95","10.00","44","230",,"7",,,,,,,,,,,,,,,,,,,,,,,,,,,,,"MET10403/26/24 06:53:02 METAR KBFI 261453Z 23006KT 10SM OVC019 08/04 A2998 RMK AO2 SLP152 T00830044 53011 (HW)","FM-15","6",,,,,,,,,,,,,,,,,,,,,,,,,,,"2007-05-17"
"72793524234","SEATTLE BOEING FIELD, WA US","47.54554","-122.31475","7.6","2024-03-26T07:53:00","FM-15","7",,,,,,,,,,,,,,,,,,,,,"29.99","41","47","0.00",,,,"80","29.99","OVC:08 17","29.96","10.00","44","190",,"8",,,,,,,,,,,,,,,,,,,,,,,,,,,,,"MET09803/26/24 07:53:02 METAR KBFI 261553Z 19007KT 10SM OVC017 08/05 A2999 RMK AO2 SLP155 T00830050 (HW)","FM-15","7",,,,,,,,,,,,,,,,,,,,,,,,,,,"2007-05-17"
"72793524234","SEATTLE BOEING FIELD, WA US","47.54554","-122.31475","7.6","2024-03-26T08:53:00","FM-15","7",,,,,,,,,,,,,,,,,,,,,"30.01","40","48","0.00",,,,"74","30.01","OVC:08 20","29.98","10.00","44","190",,"9",,,,,,,,,,,,,,,,,,,,,,,,,,,,,"MET09803/26/24 08:53:02 METAR KBFI 261653Z 19008KT 10SM OVC020 09/04 A3001 RMK AO2 SLP162 T00890044 (HW)","FM-15","7",,,,,,,,,,,,,,,,,,,,,,,,,,,"2007-05-17"
"72793524234","SEATTLE BOEING FIELD, WA US","47.54554","-122.31475","7.6","2024-03-26T09:53:00","FM-15","7",,,,,,,,,,,,,,,,,,,,,"30.02","40","50","0.00",,"-0.04","3","68","30.02","SCT:04 15 BKN:07 20 OVC:08 25","29.99","10.00","45","210","17","7",,,,,,,,,,,,,,,,,,,,,,,,,,,,,"MET13303/26/24 09:53:02 METAR KBFI 261753Z 21006G15KT 10SM SCT015 BKN020 OVC025 10/04 A3002 RMK AO2 SLP166 T01000044 10100 20083 53014 (HW)","FM-15","7",,,,,,,,,,,,,,,,,,,,,,,,,,,"2007-05-17"
"72793524234","SEATTLE BOEING FIELD, WA US","47.54554","-122.31475","7.6","2024-03-26T10:51:00","FM-16","6",,,,,,,,,,,,,,,,,,,,,"30.03","41","52",,,,,"67",,"SCT:04 25 BKN:07 40","30.00","10.00","47","VRB",,"9",,,,,,,,,,,,,,,,,,,,,,,,,,,,,"MET09303/26/24 10:51:02 SPECI KBFI 261851Z 21008KT 10SM SCT025 BKN040 11/05 A3003 RMK AO2 FIBI (HW)","FM-16","6",,,,,,,,,,,,,,,,,,,,,,,,,,,"2007-05-17"
"72793524234","SEATTLE BOEING FIELD, WA US","47.54554","-122.31475","7.6","2024-03-26T10:53:00","FM-15","6",,,,,,,,,,,,,,,,,,,,,"30.02","41","51","0.00",,,,"69","30.02","SCT:04 25 BKN:07 40","29.99","10.00","46","210",,"7",,,,,,,,,,,,,,,,,,,,,,,,,,,,,"MET10003/26/24 10:53:02 METAR KBFI 261853Z 21006KT 10SM SCT025 BKN040 11/05 A3002 RMK AO2 SLP167 T01060050","FM-15","6",,,,,,,,,,,,,,,,,,,,,,,,,,,"2007-05-17"
"72793524234","SEATTLE BOEING FIELD, WA US","47.54554","-122.31475","7.6","2024-03-26T11:53:00","FM-15","6",,,,,,,,,,,,,,,,,,,,,"30.02","39","54","0.00",,,,"57","30.02","SCT:04 25 BKN:07 40","29.99","10.00","47","220",,"10",,,,,,,,,,,,,,,,,,,,,,,,,,,,,"MET10503/26/24 11:53:02 METAR KBFI 261953Z 22009KT 10SM SCT025 BKN040 12/04 A3002 RMK AO2 SLP165 T01220039 (HW)","FM-15","6",,,,,,,,,,,,,,,,,,,,,,,,,,,"2007-05-17"
"72793524234","SEATTLE BOEING FIELD, WA US","47.54554","-122.31475","7.6","2024-03-26T12:53:00","FM-15","6",,,,,,,,,,,,,,,,,,,,,"30.02","38","56","0.00",,"0.01","8","51","30.01","SCT:04 30 BKN:07 70","29.99","10.00","47","200","21","13",,,,,,,,,,,,,,,,,,,,,,,,,,,,,"MET11403/26/24 12:53:02 METAR KBFI 262053Z 20011G18KT 10SM SCT030 BKN070 13/03 A3002 RMK AO2 SLP164 T01330033 58002 (HW)","FM-15","6",,,,,,,,,,,,,,,,,,,,,,,,,,,"2007-05-17"
"72793524234","SEATTLE BOEING FIELD, WA US","47.54554","-122.31475","7.6","2024-03-26T13:53:00","FM-15","6",,,,,,,,,,,,,,,,,,,,,"30.01","37","55","0.00",,,,"51","30.01","SCT:04 30 BKN:07 70","29.98","10.00","47","210","23","13",,,,,,,,,,,,,,,,,,,,,,,,,,,,,"MET10803/26/24 13:53:02 METAR KBFI 262153Z 21011G20KT 10SM SCT030 BKN070 13/03 A3001 RMK AO2 SLP163 T01280028 (HW)","FM-15","6",,,,,,,,,,,,,,,,,,,,,,,,,,,"2007-05-17"
"72793524234","SEATTLE BOEING FIELD, WA US","47.54554","-122.31475","7.6","2024-03-26T14:53:00","FM-15","6",,,,,,,,,,,,,,,,,,,,,"30.00","39","56","0.00",,,,"53","29.99","SCT:04 35 SCT:04 70","29.97","10.00","48","200",,"11",,,,,,,,,,,,,,,,,,,,,,,,,,,,,"MET10503/26/24 14:53:02 METAR KBFI 262253Z 20010KT 10SM SCT035 SCT070 13/04 A3000 RMK AO2 SLP157 T01330039 (TA)","FM-15","6",,,,,,,,,,,,,,,,,,,,,,,,,,,"2007-05-17"
"72793524234","SEATTLE BOEING FIELD, WA US","47.54554","-122.31475","7.6","2024-03-26T15:53:00","FM-15","6",,,,,,,,,,,,,,,,,,,,,"29.99","38","57","0.00",,"0.02","6","49","29.99","BKN:07 80","29.96","10.00","48","210",,"9",,,,,,,,,,,,,,,,,,,,,,,,,,,,,"MET11603/26/24 15:53:02 METAR KBFI 262353Z 21008KT 10SM BKN080 14/03 A2999 RMK AO2 SLP156 T01390033 10139 20100 56008 (LG)","FM-15","6",,,,,,,,,,,,,,,,,,,,,,,,,,,"2007-05-17"
"72793524234","SEATTLE BOEING FIELD, WA US","47.54554","-122.31475","7.6","2024-03-26T16:53:00","FM-15","6",,,,,,,,,,,,,,,,,,,,,"29.98","37","55","0.00",,,,"51","29.98","SCT:04 35 BKN:07 80","29.95","10.00","47","200","18","9",,,,,,,,,,,,,,,,,,,,,,,,,,,,,"MET10303/26/24 16:53:01 METAR KBFI 270053Z 20008G16KT 10SM SCT035 BKN080 13/03 A2998 RMK AO2 SLP153 T01280028","FM-15","6",,,,,,,,,,,,,,,,,,,,,,,,,,,"2007-05-17"
"72793524234","SEATTLE BOEING FIELD, WA US","47.54554","-122.31475","7.6","2024-03-26T17:53:00","FM-15","6",,,,,,,,,,,,,,,,,,,,,"29.97","35","53","0.00",,,,"51","29.97","CLR:00","29.94","10.00","45","200",,"6",,,,,,,,,,,,,,,,,,,,,,,,,,,,,"MET09003/26/24 17:53:01 METAR KBFI 270153Z 20005KT 10SM CLR 12/02 A2997 RMK AO2 SLP149 T01170017","FM-15","6",,,,,,,,,,,,,,,,,,,,,,,,,,,"2007-05-17"
"72793524234","SEATTLE BOEING FIELD, WA US","47.54554","-122.31475","7.6","2024-03-26T18:53:00","FM-15","6",,,,,,,,,,,,,,,,,,,,,"29.96","34","52","0.00",,"0.03","7","50","29.96","FEW:02 50 BKN:07 250","29.93","10.00","44","VRB",,"3",,,,,,,,,,,,,,,,,,,,,,,,,,,,,"MET10603/26/24 18:53:01 METAR KBFI 270253Z VRB03KT 10SM FEW050 BKN250 11/01 A2996 RMK AO2 SLP146 T01110011 57010","FM-15","6",,,,,,,,,,,,,,,,,,,,,,,,,,,"2007-05-17"
"72793524234","SEATTLE BOEING FIELD, WA US","47.54554","-122.31475","7.6","2024-03-26T19:53:00","FM-15","7",,,,,,,,,,,,,,,,,,,,,"29.97","36","51","0.00",,,,"56","29.97","FEW:02 60","29.94","10.00","44","VRB",,"5",,,,,,,,,,,,,,,,,,,,,,,,,,,,,"MET09303/26/24 19:53:01 METAR KBFI 270353Z VRB04KT 10SM FEW060 11/02 A2997 RMK AO2 SLP148 T01060022","FM-15","7",,,,,,,,,,,,,,,,,,,,,,,,,,,"2007-05-17"
"72793524234","SEATTLE BOEING FIELD, WA US","47.54554","-122.31475","7.6","2024-03-26T20:53:00","FM-15","7",,,,,,,,,,,,,,,,,,,,,"29.96","38","50","0.00",,,,"63","29.96","BKN:07 55 BKN:07 70","29.93","10.00","44","210",,"5",,,,,,,,,,,,,,,,,,,,,,,,,,,,,"MET10003/26/24 20:53:01 METAR KBFI 270453Z 21004KT 10SM BKN055 BKN070 10/03 A2996 RMK AO2 SLP146 T01000033","FM-15","7",,,,,,,,,,,,,,,,,,,,,,,,,,,"2007-05-17"
"72793524234","SEATTLE BOEING FIELD, WA US","47.54554","-122.31475","7.6","2024-03-26T21:53:00","FM-15","7",,,,,,,,,,,,,,,,,,,,,"29.94","38","48","0.00",,"0.02","8","68","29.94","CLR:00","29.91","10.00","43","160",,"7",,,,,,,,,,,,,,,,,,,,,,,,,,,,,"MET10803/26/24 21:53:01 METAR KBFI 270553Z 16006KT 10SM CLR 09/03 A2994 RMK AO2 SLP139 T00890033 10139 20089 58006","FM-15","7",,,,,,,,,,,,,,,,,,,,,,,,,,,"2007-05-17"
"72793524234","SEATTLE BOEING FIELD, WA US","47.54554","-122.31475","7.6","2024-03-26T22:53:00","FM-15","7",,,,,,,,,,,,,,,,,,,,,"29.92","39","48","0.00",,,,"71","29.92","CLR:00","29.89","10.00","44","100",,"6",,,,,,,,,,,,,,,,,,,,,,,,,,,,,"MET09003/26/24 22:53:01 METAR KBFI 270653Z 10005KT 10SM CLR 09/04 A2992 RMK AO2 SLP132 T00890039","FM-15","7",,,,,,,,,,,,,,,,,,,,,,,,,,,"2007-05-17"
"72793524234","SEATTLE BOEING FIELD, WA US","47.54554","-122.31475","7.6","2024-03-26T23:53:00","FM-15","7",,,,,,,,,,,,,,,,,,,,,"29.90","39","48","0.00",,,,"71","29.90","BKN:07 55","29.87","10.00","44","000",,"0",,,,,,,,,,,,,,,,,,,,,,,,,,,,,"MET10303/26/24 23:53:01 METAR KBFI 270753Z 00000KT 10SM BKN055 09/04 A2990 RMK AO2 SLP125 T00890039 401390083","FM-15","7",,,,,,,,,,,,,,,,,,,,,,,,,,,"2007-05-17"
"72793524234","SEATTLE BOEING FIELD, WA US","47.54554","-122.31475","7.6","2024-03-26T23:59:00","SOD  ","6",,,,,"52","29.94","6.2","0","3.3","13","57","47","240","23","T","200","15",,,,,,,,,,,,,,,,,,,,,,,,,,,,,,,,,,,,,,,,,,,,,,,,"SOD73024 HR PRECIPITATION (IN):T     24 HR MAX TEMP (F):57 24 HR MAX TEMP TIME (LST):1601 24 HR MIN TEMP (F):47 24 HR MIN TEMP TIME (LST):0821 AVERAGE STATION PRESSURE:29.940 MINIMUM SEA LEVEL PRESSURE:29.90 TIME OF OCCURRENCE:2359 PEAK WIND SPEED (MPH):23  PEAK WIND DIR (DEG):240 PEAK WIND TIME (LST):1325  FASTEST 2MIN SPEED (MPH):15 FASTEST 2MIN DIR (DEG):200 FASTEST 2MIN TIME (LST):1348 AVERAGE WIND SPEED (MPH):6.2  24 HR AVG TEMP (F):52 HEATING DEGREE DAYS:13  COOLING DEGREE DAYS:0   LATEST DAY MAX TEMP (0700-1900 LST):57  LATEST NIGHT MIN TEMP(1900-0800 LST):47 HOURLY INCREMENTAL PRECIPITATION VALUES (IN):.00 0.00 0.00 T    0.00 0.00 0.00 0.00 0.00 0.00 0.00 0.00 0.00 0.00 0.00 0.00 0.00 0.00 0.00 0.00 0.00 0.00 0.00 0.00","SOD  ","6",,,,,,,,,,,,,,,,,,,,,,,,,"0558","1832","2007-05-17"
"72793524234","SEATTLE BOEING FIELD, WA US","47.54554","-122.31475","7.6","2024-03-27T00:53:00","FM-15","7",,,,,,,,,,,,,,,,,,,,,"29.87","39","47","T",,"0.08","8","74","29.86","OVC:08 48","29.84","10.00","43","150",,"5",,,,,,,,,,,,,,,,,,,,,,,,,,,,,"MET10403/27/24 00:53:02 METAR KBFI 270853Z 15004KT 10SM OVC048 08/04 A2987 RMK AO2 SLP113 T00830039 58026 (MB)","FM-15","7",,,,,,,,,,,,,,,,,,,,,,,,,,,"2007-05-17"
"72793524234","SEATTLE BOEING FIELD, WA US","47.54554","-122.31475","7.6","2024-03-27T01:53:00","FM-15","7",,,,,,,,,,,,,,,,,,,,,"29.83","40","47","T","-RA:02 |RA |RA",,,"77","29.83","BKN:07 43 OVC:08 50","29.80","10.00","44","140",,"7",,,,,,,,,,,,,,,,,,,,,,,,,,,,,"MET12903/27/24 01:53:02 METAR KBFI 270953Z 14006KT 10SM -RA BKN043 OVC050 08/04 A2983 RMK AO2 RAB0858E13B35 SLP102 P0000 T00830044 (MB)","FM-15","7",,,,,,,,,,,,,,,,,,,,,,,,,,,"2007-05-17"
"72793524234","SEATTLE BOEING FIELD, WA US","47.54554","-122.31475","7.6","2024-03-27T02:53:00","FM-15","7",,,,,,,,,,,,,,,,,,,,,"29.80","41","46","T","-RA:02 |RA |RA",,,"83","29.80","BKN:07 45 OVC:08 55","29.77","10.00","44","150",,"6",,,,,,,,,,,,,,,,,,,,,,,,,,,,,"MET11503/27/24 02:53:02 METAR KBFI 271053Z 15005KT 10SM -RA BKN045 OVC055 08/05 A2980 RMK AO2 SLP090 P0000 T00780050 (MB)","FM-15","7",,,,,,,,,,,,,,,,,,,,,,,,,,,"2007-05-17"
"72793524234","SEATTLE BOEING FIELD, WA US","47.54554","-122.31475","7.6","2024-03-27T03:53:00","FM-15","7",,,,,,,,,,,,,,,,,,,,,"29.77","41","46","0.01","-RA:02 |RA |RA","0.10","6","83","29.77","OVC:08 37","29.74","7.00","44","130",,"3",,,,,,,,,,,,,,,,,,,,,,,,,,,,,"MET13703/27/24 03:53:02 METAR KBFI 271153Z 13003KT 7SM -RA OVC037 08/05 A2977 RMK AO2 SLP081 P0001 60001 70001 T00780050 10094 20078 56033 (MB)","FM-15","7",,,,,,,,,,,,,,,,,,,,,,,,,,,"2007-05-17"
"72793524234","SEATTLE BOEING FIELD, WA US","47.54554","-122.31475","7.6","2024-03-27T04:53:00","FM-15","7",,,,,,,,,,,,,,,,,,,,,"29.74","41","45","0.03","-RA:02 BR:1 |RA |RA",,,"86","29.74","OVC:08 35","29.71","6.00","43","120",,"6",,,,,,,,,,,,,,,,,,,,,,,,,,,,,"MET11003/27/24 04:53:02 METAR KBFI 271253Z 12005KT 6SM -RA BR OVC035 07/05 A2974 RMK AO2 SLP071 P0003 T00720050 (MB)","FM-15","7",,,,,,,,,,,,,,,,,,,,,,,,,,,"2007-05-17"
"72793524234","SEATTLE BOEING FIELD, WA US","47.54554","-122.31475","7.6","2024-03-27T05:53:00","FM-15","7",,,,,,,,,,,,,,,,,,,,,"29.71","41","45","0.02","-RA:02 |RA |RA",,,"86","29.70","OVC:08 40","29.68","9.00","43","140",,"7",,,,,,,,,,,,,,,,,,,,,,,,,,,,,"MET10703/27/24 05:53:02 METAR KBFI 271353Z 14006KT 9SM -RA OVC040 07/05 A2971 RMK AO2 SLP059 P0001 T00720050 (MB)","FM-15","7",,,,,,,,,,,,,,,,,,,,,,,,,,,"2007-05-17"
"72793524234","SEATTLE BOEING FIELD, WA US","47.54554","-122.31475","7.6","2024-03-27T06:51:00","FM-16","6",,,,,,,,,,,,,,,,,,,,,"29.68","41","45",,"-RA:02 |RA |RA",,,"87",,"BKN:07 24 BKN:07 34 OVC:08 46","29.65","10.00","43","150",,"5",,,,,,,,,,,,,,,,,,,,,,,,,,,,,"MET11003/27/24 06:51:02 SPECI KBFI 271451Z 15004KT 10SM -RA BKN024 BKN034 OVC046 07/05 A2968 RMK AO2 P0004 FIBI (SN)","FM-16","6",,,,,,,,,,,,,,,,,,,,,,,,,,,"2007-05-17"
"72793524234","SEATTLE BOEING FIELD, WA US","47.54554","-122.31475","7.6","2024-03-27T06:53:00","FM-15","7",,,,,,,,,,,,,,,,,,,,,"29.68","41","45","0.03","-RA:02 |RA |RA","0.06","5","86","29.68","BKN:07 24 BKN:07 34 OVC:08 46","29.65","10.00","43","150",,"6",,,,,,,,,,,,,,,,,,,,,,,,,,,,,"MET13403/27/24 06:53:02 METAR KBFI 271453Z 15005KT 10SM -RA BKN024 BKN034 OVC046 07/05 A2968 RMK AO2 SLP050 P0004 60008 T00720050 55021 (SN)","FM-15","7",,,,,,,,,,,,,,,,,,,,,,,,,,,"2007-05-17"
"72793524234","SEATTLE BOEING FIELD, WA US","47.54554","-122.31475","7.6","2024-03-27T07:51:00","FM-16","6",,,,,,,,,,,,,,,,,,,,,"29.68","43","46",,"-RA:02 |RA |RA",,,"87",,"BKN:07 35 BKN:07 49 OVC:08 60","29.65","8.00","45","160",,"8",,,,,,,,,,,,,,,,,,,,,,,,,,,,,"MET10903/27/24 07:51:02 SPECI KBFI 271551Z 16007KT 8SM -RA BKN035 BKN049 OVC060 08/06 A2968 RMK AO2 P0004 FIBI (SN)","FM-16","6",,,,,,,,,,,,,,,,,,,,,,,,,,,"2007-05-17"
"72793524234","SEATTLE BOEING FIELD, WA US","47.54554","-122.31475","7.6","2024-03-27T07:53:00","FM-15","7",,,,,,,,,,,,,,,,,,,,,"29.68","42","46","0.06","RA:02 |RA |RA",,,"86","29.67","BKN:07 35 BKN:07 49 OVC:08 60","29.65","8.00","44","150",,"7",,,,,,,,,,,,,,,,,,,,,,,,,,,,,"MET12003/27/24 07:53:02 METAR KBFI 271553Z 15006KT 8SM RA BKN035 BKN049 OVC060 08/06 A2968 RMK AO2 SLP049 P0005 T00780056 (SN)","FM-15","7",,,,,,,,,,,,,,,,,,,,,,,,,,,"2007-05-17"
"72793524234","SEATTLE BOEING FIELD, WA US","47.54554","-122.31475","7.6","2024-03-27T08:53:00","FM-15","7",,,,,,,,,,,,,,,,,,,,,"29.67","42","47","0.02","-RA:02 |RA |RA",,,"83","29.67","BKN:07 49 OVC:08 60","29.64","7.00","45","140",,"9",,,,,,,,,,,,,,,,,,,,,,,,,,,,,"MET11403/27/24 08:53:02 METAR KBFI 271653Z 14008KT 7SM -RA BKN049 OVC060 08/06 A2967 RMK AO2 SLP048 P0003 T00830056 (SN)","FM-15","7",,,,,,,,,,,,,,,,,,,,,,,,,,,"2007-05-17"
"72793524234","SEATTLE BOEING FIELD, WA US","47.54554","-122.31475","7.6","2024-03-27T09:53:00","FM-15","6",,,,,,,,,,,,,,,,,,,,,"29.67","43","49","T",,"0.01","6","80","29.67","OVC:08 44","29.64","10.00","46","130",,"9",,,,,,,,,,,,,,,,,,,,,,,,,,,,,"MET13403/27/24 09:53:02 METAR KBFI 271753Z 13008KT 10SM OVC044 09/06 A2967 RMK AO2 RAE04 SLP047 P0000 60016 T00940061 10094 20072 56003 (SN)","FM-15","6",,,,,,,,,,,,,,,,,,,,,,,,,,,"2007-05-17"
"72793524234","SEATTLE BOEING FIELD, WA US","47.54554","-122.31475","7.6","2024-03-27T10:53:00","FM-15","6",,,,,,,,,,,,,,,,,,,,,"29.68","45","50","0.00",,,,"83","29.68","OVC:08 47","29.65","10.00","48","150",,"10",,,,,,,,,,,,,,,,,,,,,,,,,,,,,"MET09803/27/24 10:53:02 METAR KBFI 271853Z 15009KT 10SM OVC047 10/07 A2968 RMK AO2 SLP050 T01000072 (SN)","FM-15","6",,,,,,,,,,,,,,,,,,,,,,,,,,,"2007-05-17"
"72793524234","SEATTLE BOEING FIELD, WA US","47.54554","-122.31475","7.6","2024-03-27T11:53:00","FM-15","6",,,,,,,,,,,,,,,,,,,,,"29.70","45","51","T","-RA:02 |RA |RA",,,"80","29.70","FEW:02 24 OVC:08 31","29.67","6.00","48","160",,"9",,,,,,,,,,,,,,,,,,,,,,,,,,,,,"MET12003/27/24 11:53:02 METAR KBFI 271953Z 16008KT 6SM -RA FEW024 OVC031 11/07 A2970 RMK AO2 RAB17 SLP058 P0000 T01060072 (SN)","FM-15","6",,,,,,,,,,,,,,,,,,,,,,,,,,,"2007-05-17"
"72793524234","SEATTLE BOEING FIELD, WA US","47.54554","-122.31475","7.6","2024-03-27T12:53:00","FM-15","6",,,,,,,,,,,,,,,,,,,,,"29.70","45","53","T","-RA:02 |RA |RA","-0.03","0","74","29.70","FEW:02 29 BKN:07 36 BKN:07 44","29.67","8.00","49","180","20","9",,,,,,,,,,,,,,,,,,,,,,,,,,,,,"MET14503/27/24 12:53:02 METAR KBFI 272053Z 18008G17KT 8SM -RA FEW029 BKN036 BKN044 12/07 A2970 RMK AO2 RAE02B52 SLP057 P0000 60000 T01170072 50010 (SN)","FM-15","6",,,,,,,,,,,,,,,,,,,,,,,,,,,"2007-05-17"
"72793524234","SEATTLE BOEING FIELD, WA US","47.54554","-122.31475","7.6","2024-03-27T13:43:00","FM-16","6",,,,,,,,,,,,,,,,,,,,,"29.72","45","51",,"RA:02 |RA |RA",,,"80",,"FEW:02 21 BKN:07 31 BKN:07 41","29.69","1.50","48","220","26","14",,,,,,,,,,,,,,,,,,,,,,,,,,,,,"MET12903/27/24 13:43:02 SPECI KBFI 272143Z 22012G23KT 1 1/2SM RA FEW021 BKN031 BKN041 11/07 A2972 RMK AO2 RAE12B35 P0008 T01060072 (MO)","FM-16","6",,,,,,,,,,,,,,,,,,,,,,,,,,,"2007-05-17"
"72793524234","SEATTLE BOEING FIELD, WA US","47.54554","-122.31475","7.6","2024-03-27T13:48:00","FM-16","6",,,,,,,,,,,,,,,,,,,,,"29.72","41","48",,"+RA:02 |RA |RA",,,"76",,"BKN:07 24 BKN:07 31 OVC:08 39","29.69","10.00","45","VRB","26","3",,,,,,,,,,,,,,,,,,,,,,,,,,,,,"MET11703/27/24 13:48:02 SPECI KBFI 272148Z VRB03G23KT 10SM +RA BKN024 BKN031 OVC039 09/05 A2972 RMK AO2 RAE12B35 P0013 (MO)","FM-16","6",,,,,,,,,,,,,,,,,,,,,,,,,,,"2007-05-17"
"72793524234","SEATTLE BOEING FIELD, WA US","47.54554","-122.31475","7.6","2024-03-27T13:53:00","FM-15","6",,,,,,,,,,,,,,,,,,,,,"29.71","42","50","0.13","-RA:02 |RA |RA",,,"74","29.70","BKN:07 24 BKN:07 31 OVC:08 39","29.68","10.00","46","VRB",,"3",,,,,,,,,,,,,,,,,,,,,,,,,,,,,"MET13103/27/24 13:53:02 METAR KBFI 272153Z VRB03KT 10SM -RA BKN024 BKN031 OVC039 10/06 A2971 RMK AO2 RAE12B35 SLP059 P0013 T01000056 (MO)","FM-15","6",,,,,,,,,,,,,,,,,,,,,,,,,,,"2007-05-17"
"72793524234","SEATTLE BOEING FIELD, WA US","47.54554","-122.31475","7.6","2024-03-27T14:53:00","FM-15","6",,,,,,,,,,,,,,,,,,,,,"29.71","42","51","T","-RA:02 |RA |RA",,,"71","29.71","FEW:02 12 BKN:07 29 OVC:08 45","29.68","10.00","47","180","20","8",,,,,,,,,,,,,,,,,,,,,,,,,,,,,"MET14303/27/24 14:53:02 METAR KBFI 272253Z 18007G17KT 10SM -RA FEW012 BKN029 OVC045 11/06 A2971 RMK AO2 RAE09B28 TSB26E27 SLP061 P0000 T01060056 (MO)","FM-15","6",,,,,,,,,,,,,,,,,,,,,,,,,,,"2007-05-17"
"72793524234","SEATTLE BOEING FIELD, WA US","47.54554","-122.31475","7.6","2024-03-27T15:53:00","FM-15","6",,,,,,,,,,,,,,,,,,,,,"29.70","45","56","T",,"0.00","8","67","29.70","FEW:02 12 BKN:07 29 OVC:08 45","29.67","10.00","50","200",,"8",,,,,,,,,,,,,,,,,,,,,,,,,,,,,"MET14803/27/24 15:53:02 METAR KBFI 272353Z 20007KT 10SM FEW012 BKN029 OVC045 13/07 A2970 RMK AO2 RAE11 SLP057 P0000 60013 T01330072 10133 20094 58000 (TA)","FM-15","6",,,,,,,,,,,,,,,,,,,,,,,,,,,"2007-05-17"
"72793524234","SEATTLE BOEING FIELD, WA US","47.54554","-122.31475","7.6","2024-03-27T16:00:00","FM-16","6",,,,,,,,,,,,,,,,,,,,,"29.70","46","57",,,,,"67",,"FEW:02 31 FEW:02 39","29.67","10.00","51","160","18","11",,,,,,,,,,,,,,,,,,,,,,,,,,,,,"MET09603/27/24 16:00:01 SPECI KBFI 280000Z 16010G16KT 10SM FEW031 FEW039 14/08 A2970 RMK AO2 T01390078","FM-16","6",,,,,,,,,,,,,,,,,,,,,,,,,,,"2007-05-17"
"72793524234","SEATTLE BOEING FIELD, WA US","47.54554","-122.31475","7.6","2024-03-27T16:53:00","FM-15","6",,,,,,,,,,,,,,,,,,,,,"29.70","44","52","0.00",,,,"75","29.70","SCT:04 30 BKN:07 55 BKN:07 75","29.67","10.00","48","150",,"15",,,,,,,,,,,,,,,,,,,,,,,,,,,,,"MET10703/27/24 16:53:01 METAR KBFI 280053Z 15013KT 10SM SCT030 BKN055 BKN075 11/07 A2970 RMK AO2 SLP058 T01110067","FM-15","6",,,,,,,,,,,,,,,,,,,,,,,,,,,"2007-05-17"
"72793524234","SEATTLE BOEING FIELD, WA US","47.54554","-122.31475","7.6","2024-03-27T17:30:00","FM-16","6",,,,,,,,,,,,,,,,,,,,,"29.72","42","49",,"TS:7 +RA:02 |RA TS |RA",,,"77",,"SCT:04 31 BKN:07 39 OVC:08 47","29.69","10.00","46","VRB","16","6",,,,,,,,,,,,,,,,,,,,,,,,,,,,,"MET12703/27/24 17:30:01 SPECI KBFI 280130Z VRB05G14KT 10SM +TSRA SCT031 BKN039 OVC047 09/06 A2972 RMK AO2 RAB20 TSB24 P0009 T00940056","FM-16","6",,,,,,,,,,,,,,,,,,,,,,,,,,,"2007-05-17"
"72793524234","SEATTLE BOEING FIELD, WA US","47.54554","-122.31475","7.6","2024-03-27T17:45:00","FM-16","6",,,,,,,,,,,,,,,,,,,,,"29.72","42","49",,"-RA:02 |RA |RA",,,"77",,"BKN:07 36 OVC:08 49","29.69","10.00","46","190",,"3",,,,,,,,,,,,,,,,,,,,,,,,,,,,,"MET11803/27/24 17:45:01 SPECI KBFI 280145Z 19003KT 10SM -RA BKN036 OVC049 09/06 A2972 RMK AO2 RAB20 TSB24E39 P0013 T00940056","FM-16","6",,,,,,,,,,,,,,,,,,,,,,,,,,,"2007-05-17"
"72793524234","SEATTLE BOEING FIELD, WA US","47.54554","-122.31475","7.6","2024-03-27T17:53:00","FM-15","6",,,,,,,,,,,,,,,,,,,,,"29.72","43","50","0.13","-RA:02 |RA |RA",,,"77","29.72","FEW:02 33 BKN:07 41 OVC:08 70","29.69","10.00","47","210",,"5",,,,,,,,,,,,,,,,,,,,,,,,,,,,,"MET13203/27/24 17:53:01 METAR KBFI 280153Z 21004KT 10SM -RA FEW033 BKN041 OVC070 10/06 A2972 RMK AO2 RAB20 TSB24E39 SLP063 P0013 T01000061","FM-15","6",,,,,,,,,,,,,,,,,,,,,,,,,,,"2007-05-17"
"72793524234","SEATTLE BOEING FIELD, WA US","47.54554","-122.31475","7.6","2024-03-27T18:53:00","FM-15","6",,,,,,,,,,,,,,,,,,,,,"29.74","41","49","T",,"-0.04","3","74","29.74","BKN:07 50 BKN:07 70 BKN:07 80","29.71","10.00","45","170",,"10",,,,,,,,,,,,,,,,,,,,,,,,,,,,,"MET13103/27/24 18:53:01 METAR KBFI 280253Z 17009KT 10SM BKN050 BKN070 BKN080 09/05 A2974 RMK AO2 RAE25 SLP070 P0000 60013 T00940050 53014","FM-15","6",,,,,,,,,,,,,,,,,,,,,,,,,,,"2007-05-17"
"72793524234","SEATTLE BOEING FIELD, WA US","47.54554","-122.31475","7.6","2024-03-27T19:53:00","FM-15","6",,,,,,,,,,,,,,,,,,,,,"29.75","42","48","T",,,,"80","29.74","FEW:02 60 OVC:08 80","29.72","10.00","45","160",,"10",,,,,,,,,,,,,,,,,,,,,,,,,,,,,"MET11503/27/24 19:53:01 METAR KBFI 280353Z 16009KT 10SM FEW060 OVC080 09/06 A2975 RMK AO2 RAB16E25 SLP072 P0000 T00890056","FM-15","6",,,,,,,,,,,,,,,,,,,,,,,,,,,"2007-05-17"
"72793524234","SEATTLE BOEING FIELD, WA US","47.54554","-122.31475","7.6","2024-03-27T20:53:00","FM-15","6",,,,,,,,,,,,,,,,,,,,,"29.76","41","46","0.00",,,,"83","29.75","CLR:00","29.73","10.00","44","130",,"9",,,,,,,,,,,,,,,,,,,,,,,,,,,,,"MET09003/27/24 20:53:01 METAR KBFI 280453Z 13008KT 10SM CLR 08/05 A2976 RMK AO2 SLP076 T00780050","FM-15","6",,,,,,,,,,,,,,,,,,,,,,,,,,,"2007-05-17"
"72793524234","SEATTLE BOEING FIELD, WA US","47.54554","-122.31475","7.6","2024-03-27T21:53:00","FM-15","6",,,,,,,,,,,,,,,,,,,,,"29.75","40","44","0.00",,"-0.01","0","85","29.75","CLR:00","29.72","10.00","42","160",,"3",,,,,,,,,,,,,,,,,,,,,,,,,,,,,"MET11403/27/24 21:53:01 METAR KBFI 280553Z 16003KT 10SM CLR 07/04 A2975 RMK AO2 SLP075 60013 T00670044 10139 20061 50004","FM-15","6",,,,,,,,,,,,,,,,,,,,,,,,,,,"2007-05-17"
"72793524234","SEATTLE BOEING FIELD, WA US","47.54554","-122.31475","7.6","2024-03-27T22:53:00","FM-15","6",,,,,,,,,,,,,,,,,,,,,"29.76","40","46","T","-RA:02 |RA |RA",,,"79","29.75","BKN:07 26 OVC:08 43","29.73","10.00","43","000",,"0",,,,,,,,,,,,,,,,,,,,,,,,,,,,,"MET11603/27/24 22:53:01 METAR KBFI 280653Z 00000KT 10SM -RA BKN026 OVC043 08/04 A2976 RMK AO2 RAB53 SLP076 P0000 T00780044","FM-15","6",,,,,,,,,,,,,,,,,,,,,,,,,,,"2007-05-17"
"72793524234","SEATTLE BOEING FIELD, WA US","47.54554","-122.31475","7.6","2024-03-27T23:53:00","FM-15","6",,,,,,,,,,,,,,,,,,,,,"29.74","40","46","T","-RA:02 |RA |RA",,,"79","29.74","BKN:07 22 BKN:07 31 OVC:08 47","29.71","10.00","43","000",,"0",,,,,,,,,,,,,,,,,,,,,,,,,,,,,"MET12703/27/24 23:53:01 METAR KBFI 280753Z 00000KT 10SM -RA BKN022 BKN031 OVC047 08/04 A2974 RMK AO2 SLP072 P0000 T00780044 401390061","FM-15","6",,,,,,,,,,,,,,,,,,,,,,,,,,,"2007-05-17"
"72793524234","SEATTLE BOEING FIELD, WA US","47.54554","-122.31475","7.6","2024-03-27T23:59:00","SOD  ","6",,,,,"50","29.68","6.9","0","1.2","15","57","43","200","28","0.43","180","16","TS RA BR",,,,,,,,,,,,,,,,,,,,,,,,,,,,,,,,,,,,,,,,,,,,,,,"SOD72724 HR PRECIPITATION (IN):0.43  24 HR MAX TEMP (F):57 24 HR MAX TEMP TIME (LST):1600 24 HR MIN TEMP (F):43 24 HR MIN TEMP TIME (LST):2149 AVERAGE STATION PRESSURE:29.685 MINIMUM SEA LEVEL PRESSURE:29.66 TIME OF OCCURRENCE:0946 PEAK WIND SPEED (MPH):28  PEAK WIND DIR (DEG):200 PEAK WIND TIME (LST):1422  FASTEST 2MIN SPEED (MPH):16 FASTEST 2MIN DIR (DEG):180 FASTEST 2MIN TIME (LST):1634 AVERAGE WIND SPEED (MPH):6.9  24 HR AVG TEMP (F):50 HEATING DEGREE DAYS:15  COOLING DEGREE DAYS:0   LATEST DAY MAX TEMP (0700-1900 LST):57  LATEST NIGHT MIN TEMP(1900-0800 LST):45 HOURLY INCREMENTAL PRECIPITATION VALUES (IN):    T    T    0.01 0.03 0.02 0.03 0.06 0.02 T    0.00 T    T    0.13 T    T    0.00 0.13 T    T    0.00 0.00 T    T","SOD  ","6",,,,,,,,,,,,,,,,,,,,,,,,,"0556","1833","2007-05-17"
"72793524234","SEATTLE BOEING FIELD, WA US","47.54554","-122.31475","7.6","2024-03-28T00:51:00","FM-16","6",,,,,,,,,,,,,,,,,,,,,"29.75","43","45",,"-RA:02 BR:1 |RA |RA",,,"93",,"FEW:02 20 SCT:04 25 OVC:08 35","29.72","5.00","44","000",,"0",,,,,,,,,,,,,,,,,,,,,,,,,,,,,"MET11203/28/24 00:51:02 SPECI KBFI 280851Z 00000KT 5SM -RA BR FEW020 SCT025 OVC035 07/06 A2975 RMK AO2 P0003 FIBI (SN)","FM-16","6",,,,,,,,,,,,,,,,,,,,,,,,,,,"2007-05-17"
"72793524234","SEATTLE BOEING FIELD, WA US","47.54554","-122.31475","7.6","2024-03-28T00:53:00","FM-15","6",,,,,,,,,,,,,,,,,,,,,"29.74","42","45","0.04","-RA:02 BR:1 |RA |RA","0.01","8","90","29.74","FEW:02 20 SCT:04 25 OVC:08 35","29.71","4.00","44","270",,"3",,,,,,,,,,,,,,,,,,,,,,,,,,,,,"MET13603/28/24 00:53:02 METAR KBFI 280853Z 27003KT 4SM -RA BR FEW020 SCT025 OVC035 07/06 A2974 RMK AO2 SLP071 P0003 60003 T00720056 58004 (SN)","FM-15","6",,,,,,,,,,,,,,,,,,,,,,,,,,,"2007-05-17"
"72793524234","SEATTLE BOEING FIELD, WA US","47.54554","-122.31475","7.6","2024-03-28T01:53:00","FM-15","6",,,,,,,,,,,,,,,,,,,,,"29.74","41","45","0.02","-RA:02 BR:1 |RA |RA",,,"86","29.74","SCT:04 21 BKN:07 34 OVC:08 48","29.71","5.00","43","000",,"0",,,,,,,,,,,,,,,,,,,,,,,,,,,,,"MET12403/28/24 01:53:02 METAR KBFI 280953Z 00000KT 5SM -RA BR SCT021 BKN034 OVC048 07/05 A2974 RMK AO2 SLP071 P0003 T00720050 (SN)","FM-15","6",,,,,,,,,,,,,,,,,,,,,,,,,,,"2007-05-17"
"72793524234","SEATTLE BOEING FIELD, WA US","47.54554","-122.31475","7.6","2024-03-28T02:51:00","FM-16","6",,,,,,,,,,,,,,,,,,,,,"29.74","41","45",,"-RA:02 |RA |RA",,,"87",,"BKN:07 25 OVC:08 34","29.71","7.00","43","000",,"0",,,,,,,,,,,,,,,,,,,,,,,,,,,,,"MET10203/28/24 02:51:02 SPECI KBFI 281051Z 00000KT 7SM -RA BKN025 OVC034 07/05 A2974 RMK AO2 P0003 FIBI (SN)","FM-16","6",,,,,,,,,,,,,,,,,,,,,,,,,,,"2007-05-17"
"72793524234","SEATTLE BOEING FIELD, WA US","47.54554","-122.31475","7.6","2024-03-28T02:53:00","FM-15","6",,,,,,,,,,,,,,,,,,,,,"29.74","41","44","0.03","-RA:02 BR:1 |RA |RA",,,"89","29.74","BKN:07 25 OVC:08 34","29.71","6.00","43","000",,"0",,,,,,,,,,,,,,,,,,,,,,,,,,,,,"MET11703/28/24 02:53:02 METAR KBFI 281053Z 00000KT 6SM -RA BR BKN025 OVC034 07/05 A2974 RMK AO2 SLP071 P0003 T00670050 (SN)","FM-15","6",,,,,,,,,,,,,,,,,,,,,,,,,,,"2007-05-17"
"72793524234","SEATTLE BOEING FIELD, WA US","47.54554","-122.31475","7.6","2024-03-28T03:51:00","FM-16","6",,,,,,,,,,,,,,,,,,,,,"29.74","43","45",,"-RA:02 |RA |RA",,,"93",,"FEW:02 8 BKN:07 29 OVC:08 34","29.71","7.00","44","VRB",,"7",,,,,,,,,,,,,,,,,,,,,,,,,,,,,"MET10903/28/24 03:51:02 SPECI KBFI 281151Z VRB06KT 7SM -RA FEW008 BKN029 OVC034 07/06 A2974 RMK AO2 P0001 FIBI (SN)","FM-16","6",,,,,,,,,,,,,,,,,,,,,,,,,,,"2007-05-17"
"72793524234","SEATTLE BOEING FIELD, WA US","47.54554","-122.31475","7.6","2024-03-28T03:53:00","FM-15","6",,,,,,,,,,,,,,,,,,,,,"29.75","41","44","0.02","-RA:02 |RA |RA","0.00","3","89","29.74","FEW:02 8 BKN:07 29 OVC:08 34","29.72","7.00","43","140",,"6",,,,,,,,,,,,,,,,,,,,,,,,,,,,,"MET15103/28/24 03:53:02 METAR KBFI 281153Z 14005KT 7SM -RA FEW008 BKN029 OVC034 07/05 A2975 RMK AO2 SLP072 P0002 60011 70053 T00670050 10083 20067 53001 (SN)","FM-15","6",,,,,,,,,,,,,,,,,,,,,,,,,,,"2007-05-17"
"72793524234","SEATTLE BOEING FIELD, WA US","47.54554","-122.31475","7.6","2024-03-28T04:53:00","FM-15","6",,,,,,,,,,,,,,,,,,,,,"29.73","41","44","0.03",,,,"89","29.72","SCT:04 8 BKN:07 28 OVC:08 34","29.70","10.00","43","100",,"8",,,,,,,,,,,,,,,,,,,,,,,,,,,,,"MET12403/28/24 04:53:02 METAR KBFI 281253Z 10007KT 10SM SCT008 BKN028 OVC034 07/05 A2973 RMK AO2 RAE22 SLP066 P0003 T00670050 (SN)","FM-15","6",,,,,,,,,,,,,,,,,,,,,,,,,,,"2007-05-17"
"72793524234","SEATTLE BOEING FIELD, WA US","47.54554","-122.31475","7.6","2024-03-28T05:00:00","FM-16","6",,,,,,,,,,,,,,,,,,,,,"29.73","40","44",,,,,"85",,"SCT:04 90","29.70","10.00","42","100",,"7",,,,,,,,,,,,,,,,,,,,,,,,,,,,,"MET09103/28/24 05:00:02 SPECI KBFI 281300Z 10006KT 10SM SCT090 07/04 A2973 RMK AO2 T00670044 (SN)","FM-16","6",,,,,,,,,,,,,,,,,,,,,,,,,,,"2007-05-17"
"72793524234","SEATTLE BOEING FIELD, WA US","47.54554","-122.31475","7.6","2024-03-28T05:53:00","FM-15","6",,,,,,,,,,,,,,,,,,,,,"29.72","40","44","0.00",,,,"85","29.72","BKN:07 65 OVC:08 90","29.69","10.00","42","000",,"0",,,,,,,,,,,,,,,,,,,,,,,,,,,,,"MET10503/28/24 05:53:02 METAR KBFI 281353Z 00000KT 10SM BKN065 OVC090 07/04 A2972 RMK AO2 SLP064 T00670044 (LG)","FM-15","6",,,,,,,,,,,,,,,,,,,,,,,,,,,"2007-05-17"
"72793524234","SEATTLE BOEING FIELD, WA US","47.54554","-122.31475","7.6","2024-03-28T06:53:00","FM-15","6",,,,,,,,,,,,,,,,,,,,,"29.72","41","44","0.00",,"0.03","6","89","29.71","SCT:04 50 BKN:07 65 BKN:07 80","29.69","10.00","43","150",,"5",,,,,,,,,,,,,,,,,,,,,,,,,,,,,"MET12403/28/24 06:53:02 METAR KBFI 281453Z 15004KT 10SM SCT050 BKN065 BKN080 07/05 A2972 RMK AO2 SLP062 60003 T00670050 56009 (LG)","FM-15","6",,,,,,,,,,,,,,,,,,,,,,,,,,,"2007-05-17"
"72793524234","SEATTLE BOEING FIELD, WA US","47.54554","-122.31475","7.6","2024-03-28T07:53:00","FM-15","6",,,,,,,,,,,,,,,,,,,,,"29.71","40","45","0.00",,,,"83","29.71","SCT:04 45 OVC:08 60","29.68","10.00","43","150",,"5",,,,,,,,,,,,,,,,,,,,,,,,,,,,,"MET10503/28/24 07:53:02 METAR KBFI 281553Z 15004KT 10SM SCT045 OVC060 07/04 A2971 RMK AO2 SLP061 T00720044 (LG)","FM-15","6",,,,,,,,,,,,,,,,,,,,,,,,,,,"2007-05-17"
"72793524234","SEATTLE BOEING FIELD, WA US","47.54554","-122.31475","7.6","2024-03-28T08:53:00","FM-15","6",,,,,,,,,,,,,,,,,,,,,"29.71","40","47","0.00",,,,"77","29.70","BKN:07 60 OVC:08 75","29.68","10.00","44","120",,"6",,,,,,,,,,,,,,,,,,,,,,,,,,,,,"MET10503/28/24 08:53:02 METAR KBFI 281653Z 12005KT 10SM BKN060 OVC075 08/04 A2971 RMK AO2 SLP059 T00830044 (LG)","FM-15","6",,,,,,,,,,,,,,,,,,,,,,,,,,,"2007-05-17"
"72793524234","SEATTLE BOEING FIELD, WA US","47.54554","-122.31475","7.6","2024-03-28T09:53:00","FM-15","6",,,,,,,,,,,,,,,,,,,,,"29.71","41","50","T",,"0.01","5","71","29.71","FEW:02 42 BKN:07 70 OVC:08 90","29.68","10.00","46","140",,"8",,,,,,,,,,,,,,,,,,,,,,,,,,,,,"MET15103/28/24 09:53:02 METAR KBFI 281753Z 14007KT 10SM FEW042 BKN070 OVC090 10/05 A2971 RMK AO2 RAB28E41 SLP060 P0000 60003 T01000050 10100 20056 55003 (LG)","FM-15","6",,,,,,,,,,,,,,,,,,,,,,,,,,,"2007-05-17"
"72793524234","SEATTLE BOEING FIELD, WA US","47.54554","-122.31475","7.6","2024-03-28T10:53:00","FM-15","6",,,,,,,,,,,,,,,,,,,,,"29.71","42","50","0.00",,,,"74","29.71","SCT:04 45 BKN:07 70 OVC:08 90","29.68","10.00","46","150",,"6",,,,,,,,,,,,,,,,,,,,,,,,,,,,,"MET11203/28/24 10:53:02 METAR KBFI 281853Z 15005KT 10SM SCT045 BKN070 OVC090 10/06 A2971 RMK AO2 SLP061 T01000056 (LG)","FM-15","6",,,,,,,,,,,,,,,,,,,,,,,,,,,"2007-05-17"
"72793524234","SEATTLE BOEING FIELD, WA US","47.54554","-122.31475","7.6","2024-03-28T11:53:00","FM-15","6",,,,,,,,,,,,,,,,,,,,,"29.71","41","52","0.01",,,,"66","29.70","OVC:08 60","29.68","10.00","47","150",,"3",,,,,,,,,,,,,,,,,,,,,,,,,,,,,"MET11303/28/24 11:53:02 METAR KBFI 281953Z 15003KT 10SM OVC060 11/05 A2971 RMK AO2 RAB01E27 SLP059 P0001 T01110050 (LG)","FM-15","6",,,,,,,,,,,,,,,,,,,,,,,,,,,"2007-05-17"
"72793524234","SEATTLE BOEING FIELD, WA US","47.54554","-122.31475","7.6","2024-03-28T12:53:00","FM-15","6",,,,,,,,,,,,,,,,,,,,,"29.72","42","49","0.02",,"-0.01","3","77","29.71","BKN:07 43 BKN:07 55 OVC:08 70","29.69","10.00","46","180",,"5",,,,,,,,,,,,,,,,,,,,,,,,,,,,,"MET15003/28/24 12:53:02 METAR KBFI 282053Z 18004KT 10SM BKN043 BKN055 OVC070 09/06 A2972 RMK AO2 LTG DSNT N RAB03E49 SLP062 P0002 60003 T00940056 53002 (LG)","FM-15","6",,,,,,,,,,,,,,,,,,,,,,,,,,,"2007-05-17"
"72793524234","SEATTLE BOEING FIELD, WA US","47.54554","-122.31475","7.6","2024-03-28T13:13:00","FM-16","6",,,,,,,,,,,,,,,,,,,,,"29.73","41","48",,"RA:02 |RA |RA",,,"77",,"FEW:02 31 BKN:07 39 OVC:08 50","29.70","1.75","45","230","23","9",,,,,,,,,,,,,,,,,,,,,,,,,,,,,"MET13703/28/24 13:13:02 SPECI KBFI 282113Z 23008G20KT 1 3/4SM RA FEW031 BKN039 OVC050 09/05 A2973 RMK AO2 LTG DSNT N RAB00 P0003 T00890050 (LG)","FM-16","6",,,,,,,,,,,,,,,,,,,,,,,,,,,"2007-05-17"
"72793524234","SEATTLE BOEING FIELD, WA US","47.54554","-122.31475","7.6","2024-03-28T13:21:00","FM-16","6",,,,,,,,,,,,,,,,,,,,,"29.72","41","49",,"-RA:02 |RA |RA",,,"74",,"FEW:02 27 BKN:07 38 OVC:08 70","29.69","10.00","45","160","18","9",,,,,,,,,,,,,,,,,,,,,,,,,,,,,"MET12403/28/24 13:21:02 SPECI KBFI 282121Z 16008G16KT 10SM -RA FEW027 BKN038 OVC070 09/05 A2972 RMK AO2 RAB00 P0003 T00940050 (LG)","FM-16","6",,,,,,,,,,,,,,,,,,,,,,,,,,,"2007-05-17"
"72793524234","SEATTLE BOEING FIELD, WA US","47.54554","-122.31475","7.6","2024-03-28T13:53:00","FM-15","6",,,,,,,,,,,,,,,,,,,,,"29.72","44","52","0.03",,,,"75","29.71","FEW:02 48 SCT:04 100","29.69","10.00","48","170",,"7",,,,,,,,,,,,,,,,,,,,,,,,,,,,,"MET12003/28/24 13:53:02 METAR KBFI 282153Z 17006KT 10SM FEW048 SCT100 11/07 A2972 RMK AO2 RAB00E26 SLP062 P0003 T01110067 (LG)","FM-15","6",,,,,,,,,,,,,,,,,,,,,,,,,,,"2007-05-17"
"72793524234","SEATTLE BOEING FIELD, WA US","47.54554","-122.31475","7.6","2024-03-28T14:53:00","FM-15","6",,,,,,,,,,,,,,,,,,,,,"29.70","40","55","0.00",,,,"57","29.70","FEW:02 40 SCT:04 60","29.67","10.00","48","170","21","15",,,,,,,,,,,,,,,,,,,,,,,,,,,,,"MET10903/28/24 14:53:02 METAR KBFI 282253Z 17013G18KT 10SM FEW040 SCT060 13/04 A2970 RMK AO2 SLP058 T01280044 (TWR)","FM-15","6",,,,,,,,,,,,,,,,,,,,,,,,,,,"2007-05-17"
"72793524234","SEATTLE BOEING FIELD, WA US","47.54554","-122.31475","7.6","2024-03-28T15:53:00","FM-15","6",,,,,,,,,,,,,,,,,,,,,"29.70","38","53","0.00",,"0.01","8","57","29.70","BKN:07 65","29.67","10.00","46","200","18","9",,,,,,,,,,,,,,,,,,,,,,,,,,,,,"MET12603/28/24 15:53:02 METAR KBFI 282353Z 20008G16KT 10SM BKN065 12/03 A2970 RMK AO2 SLP058 60006 T01170033 10128 20089 58004 (TWR)","FM-15","6",,,,,,,,,,,,,,,,,,,,,,,,,,,"2007-05-17"
"72793524234","SEATTLE BOEING FIELD, WA US","47.54554","-122.31475","7.6","2024-03-28T16:53:00","FM-15","6",,,,,,,,,,,,,,,,,,,,,"29.71","37","53","0.00",,,,"55","29.71","BKN:07 60 BKN:07 95","29.68","10.00","46","180","29","9",,,,,,,,,,,,,,,,,,,,,,,,,,,,,"MET10303/28/24 16:53:01 METAR KBFI 290053Z 18008G25KT 10SM BKN060 BKN095 12/03 A2971 RMK AO2 SLP062 T01170028","FM-15","6",,,,,,,,,,,,,,,,,,,,,,,,,,,"2007-05-17"
"72793524234","SEATTLE BOEING FIELD, WA US","47.54554","-122.31475","7.6","2024-03-28T17:53:00","FM-15","6",,,,,,,,,,,,,,,,,,,,,"29.73","36","53","0.00",,,,"52","29.73","SCT:04 50 OVC:08 65","29.70","10.00","45","190",,"10",,,,,,,,,,,,,,,,,,,,,,,,,,,,,"MET10003/28/24 17:53:01 METAR KBFI 290153Z 19009KT 10SM SCT050 OVC065 12/02 A2973 RMK AO2 SLP067 T01170022","FM-15","6",,,,,,,,,,,,,,,,,,,,,,,,,,,"2007-05-17"
"72793524234","SEATTLE BOEING FIELD, WA US","47.54554","-122.31475","7.6","2024-03-28T18:53:00","FM-15","6",,,,,,,,,,,,,,,,,,,,,"29.75","40","49","0.02",,"-0.05","3","71","29.75","FEW:02 35 BKN:07 50 OVC:08 80","29.72","10.00","45","180","18","8",,,,,,,,,,,,,,,,,,,,,,,,,,,,,"MET13703/28/24 18:53:01 METAR KBFI 290253Z 18007G16KT 10SM FEW035 BKN050 OVC080 09/04 A2975 RMK AO2 RAB16E51 SLP075 P0002 60002 T00940044 53016","FM-15","6",,,,,,,,,,,,,,,,,,,,,,,,,,,"2007-05-17"
"72793524234","SEATTLE BOEING FIELD, WA US","47.54554","-122.31475","7.6","2024-03-28T19:53:00","FM-15","6",,,,,,,,,,,,,,,,,,,,,"29.77","39","47","T",,,,"74","29.76","FEW:02 80","29.74","10.00","43","180",,"3",,,,,,,,,,,,,,,,,,,,,,,,,,,,,"MET11003/28/24 19:53:01 METAR KBFI 290353Z 18003KT 10SM FEW080 08/04 A2977 RMK AO2 RAB0257E09 SLP079 P0000 T00830039","FM-15","6",,,,,,,,,,,,,,,,,,,,,,,,,,,"2007-05-17"
"72793524234","SEATTLE BOEING FIELD, WA US","47.54554","-122.31475","7.6","2024-03-28T20:53:00","FM-15","6",,,,,,,,,,,,,,,,,,,,,"29.79","37","49","0.00",,,,"64","29.79","FEW:02 50 SCT:04 65","29.76","10.00","44","180",,"9",,,,,,,,,,,,,,,,,,,,,,,,,,,,,"MET10003/28/24 20:53:01 METAR KBFI 290453Z 18008KT 10SM FEW050 SCT065 09/03 A2979 RMK AO2 SLP087 T00940028","FM-15","6",,,,,,,,,,,,,,,,,,,,,,,,,,,"2007-05-17"
"72793524234","SEATTLE BOEING FIELD, WA US","47.54554","-122.31475","7.6","2024-03-28T21:53:00","FM-15","6",,,,,,,,,,,,,,,,,,,,,"29.81","37","47","0.00",,"-0.05","3","69","29.80","CLR:00","29.78","10.00","42","170",,"7",,,,,,,,,,,,,,,,,,,,,,,,,,,,,"MET11403/28/24 21:53:01 METAR KBFI 290553Z 17006KT 10SM CLR 08/03 A2981 RMK AO2 SLP092 60002 T00830028 10122 20083 53018","FM-15","6",,,,,,,,,,,,,,,,,,,,,,,,,,,"2007-05-17"
"72793524234","SEATTLE BOEING FIELD, WA US","47.54554","-122.31475","7.6","2024-03-28T22:53:00","FM-15","6",,,,,,,,,,,,,,,,,,,,,"29.82","38","47","0.00",,,,"71","29.82","SCT:04 37 BKN:07 80","29.79","10.00","43","150",,"7",,,,,,,,,,,,,,,,,,,,,,,,,,,,,"MET10003/28/24 22:53:01 METAR KBFI 290653Z 15006KT 10SM SCT037 BKN080 08/03 A2982 RMK AO2 SLP098 T00830033","FM-15","6",,,,,,,,,,,,,,,,,,,,,,,,,,,"2007-05-17"
"72793524234","SEATTLE BOEING FIELD, WA US","47.54554","-122.31475","7.6","2024-03-28T23:53:00","FM-15","6",,,,,,,,,,,,,,,,,,,,,"29.84","38","46","0.00",,,,"73","29.83","SCT:04 40 BKN:07 110","29.81","10.00","42","150",,"5",,,,,,,,,,,,,,,,,,,,,,,,,,,,,"MET11003/28/24 23:53:01 METAR KBFI 290753Z 15004KT 10SM SCT040 BKN110 08/03 A2984 RMK AO2 SLP103 T00780033 401280056","FM-15","6",,,,,,,,,,,,,,,,,,,,,,,,,,,"2007-05-17"
"72793524234","SEATTLE BOEING FIELD, WA US","47.54554","-122.31475","7.6","2024-03-28T23:59:00","SOD  ","6",,,,,"49","29.70","6.0","0","0.0","16","55","42","170","28","0.22","180","16","RA BR",,,,,,,,,,,,,,,,,,,,,,,,,,,,,,,,,,,,,,,,,,,,,,,"SOD73024 HR PRECIPITATION (IN):0.22  24 HR MAX TEMP (F):55 24 HR MAX TEMP TIME (LST):1518 24 HR MIN TEMP (F):42 24 HR MIN TEMP TIME (LST):0624 AVERAGE STATION PRESSURE:29.705 MINIMUM SEA LEVEL PRESSURE:29.70 TIME OF OCCURRENCE:1626 PEAK WIND SPEED (MPH):28  PEAK WIND DIR (DEG):170 PEAK WIND TIME (LST):1646  FASTEST 2MIN SPEED (MPH):16 FASTEST 2MIN DIR (DEG):180 FASTEST 2MIN TIME (LST):1500 AVERAGE WIND SPEED (MPH):6.0  24 HR AVG TEMP (F):49 HEATING DEGREE DAYS:16  COOLING DEGREE DAYS:0   LATEST DAY MAX TEMP (0700-1900 LST):55  LATEST NIGHT MIN TEMP(1900-0800 LST):42 HOURLY INCREMENTAL PRECIPITATION VALUES (IN):.04 0.02 0.03 0.02 0.03 0.00 0.00 0.00 0.00 T    0.00 0.01 0.02 0.03 0.00 0.00 0.00 0.00 0.02 T    0.00 0.00 0.00 0.00","SOD  ","6",,,,,,,,,,,,,,,,,,,,,,,,,"0554","1835","2007-05-17"
"72793524234","SEATTLE BOEING FIELD, WA US","47.54554","-122.31475","7.6","2024-03-29T00:53:00","FM-15","6",,,,,,,,,,,,,,,,,,,,,"29.85","39","46","T",,"-0.05","3","77","29.85","SCT:04 60 BKN:07 70","29.82","10.00","43","160",,"6",,,,,,,,,,,,,,,,,,,,,,,,,,,,,"MET13203/29/24 00:53:02 METAR KBFI 290853Z 16005KT 10SM SCT060 BKN070 08/04 A2985 RMK AO2 RAB18E27 SLP109 P0000 60000 T00780039 53017 (JL)","FM-15","6",,,,,,,,,,,,,,,,,,,,,,,,,,,"2007-05-17"
"72793524234","SEATTLE BOEING FIELD, WA US","47.54554","-122.31475","7.6","2024-03-29T01:53:00","FM-15","6",,,,,,,,,,,,,,,,,,,,,"29.87","39","45","T",,,,"80","29.86","BKN:07 65 OVC:08 80","29.84","10.00","42","140",,"3",,,,,,,,,,,,,,,,,,,,,,,,,,,,,"MET12003/29/24 01:53:02 METAR KBFI 290953Z 14003KT 10SM BKN065 OVC080 07/04 A2987 RMK AO2 RAB05E18 SLP113 P0000 T00720039 (JL)","FM-15","6",,,,,,,,,,,,,,,,,,,,,,,,,,,"2007-05-17"
"72793524234","SEATTLE BOEING FIELD, WA US","47.54554","-122.31475","7.6","2024-03-29T02:53:00","FM-15","6",,,,,,,,,,,,,,,,,,,,,"29.88","40","45","0.00",,,,"83","29.88","FEW:02 40 BKN:07 60 OVC:08 70","29.85","10.00","43","120",,"5",,,,,,,,,,,,,,,,,,,,,,,,,,,,,"MET11203/29/24 02:53:02 METAR KBFI 291053Z 12004KT 10SM FEW040 BKN060 OVC070 07/04 A2988 RMK AO2 SLP117 T00720044 (JL)","FM-15","6",,,,,,,,,,,,,,,,,,,,,,,,,,,"2007-05-17"
"72793524234","SEATTLE BOEING FIELD, WA US","47.54554","-122.31475","7.6","2024-03-29T03:53:00","FM-15","6",,,,,,,,,,,,,,,,,,,,,"29.88","40","46","0.00",,"-0.03","1","79","29.88","BKN:07 35 OVC:08 55","29.85","10.00","43","130",,"5",,,,,,,,,,,,,,,,,,,,,,,,,,,,,"MET13503/29/24 03:53:02 METAR KBFI 291153Z 13004KT 10SM BKN035 OVC055 08/04 A2988 RMK AO2 SLP118 60000 70011 T00780044 10089 20067 51009 (JL)","FM-15","6",,,,,,,,,,,,,,,,,,,,,,,,,,,"2007-05-17"
"72793524234","SEATTLE BOEING FIELD, WA US","47.54554","-122.31475","7.6","2024-03-29T04:53:00","FM-15","6",,,,,,,,,,,,,,,,,,,,,"29.88","39","43","T",,,,"86","29.88","SCT:04 48 SCT:04 60 BKN:07 70","29.85","10.00","41","160",,"3",,,,,,,,,,,,,,,,,,,,,,,,,,,,,"MET12703/29/24 04:53:02 METAR KBFI 291253Z 16003KT 10SM SCT048 SCT060 BKN070 06/04 A2988 RMK AO2 RAB12E21 SLP118 P0000 T00610039 (JL)","FM-15","6",,,,,,,,,,,,,,,,,,,,,,,,,,,"2007-05-17"
"72793524234","SEATTLE BOEING FIELD, WA US","47.54554","-122.31475","7.6","2024-03-29T05:53:00","FM-15","6",,,,,,,,,,,,,,,,,,,,,"29.89","40","44","0.00",,,,"85","29.88","SCT:04 50","29.86","10.00","42","000",,"0",,,,,,,,,,,,,,,,,,,,,,,,,,,,,"MET09803/29/24 05:53:02 METAR KBFI 291353Z 00000KT 10SM SCT050 07/04 A2989 RMK AO2 SLP120 T00670044 (JL)","FM-15","6",,,,,,,,,,,,,,,,,,,,,,,,,,,"2007-05-17"
"72793524234","SEATTLE BOEING FIELD, WA US","47.54554","-122.31475","7.6","2024-03-29T06:53:00","FM-15","6",,,,,,,,,,,,,,,,,,,,,"29.90","41","45","0.00",,"-0.02","3","86","29.90","BKN:07 65","29.87","10.00","43","000",,"0",,,,,,,,,,,,,,,,,,,,,,,,,,,,,"MET11003/29/24 06:53:02 METAR KBFI 291453Z 00000KT 10SM BKN065 07/05 A2990 RMK AO2 SLP124 60000 T00720050 53006 (JL)","FM-15","6",,,,,,,,,,,,,,,,,,,,,,,,,,,"2007-05-17"
"72793524234","SEATTLE BOEING FIELD, WA US","47.54554","-122.31475","7.6","2024-03-29T07:53:00","FM-15","6",,,,,,,,,,,,,,,,,,,,,"29.91","42","49","0.00",,,,"77","29.91","CLR:00","29.88","10.00","46","000",,"0",,,,,,,,,,,,,,,,,,,,,,,,,,,,,"MET09503/29/24 07:53:02 METAR KBFI 291553Z 00000KT 10SM CLR 09/06 A2991 RMK AO2 SLP129 T00940056 (JL)","FM-15","6",,,,,,,,,,,,,,,,,,,,,,,,,,,"2007-05-17"
"72793524234","SEATTLE BOEING FIELD, WA US","47.54554","-122.31475","7.6","2024-03-29T08:53:00","FM-15","6",,,,,,,,,,,,,,,,,,,,,"29.92","38","51","0.00",,,,"61","29.92","CLR:00","29.89","10.00","45","000",,"0",,,,,,,,,,,,,,,,,,,,,,,,,,,,,"MET09003/29/24 08:53:02 METAR KBFI 291653Z 00000KT 10SM CLR 11/03 A2992 RMK AO2 SLP131 T01060033","FM-15","6",,,,,,,,,,,,,,,,,,,,,,,,,,,"2007-05-17"
"72793524234","SEATTLE BOEING FIELD, WA US","47.54554","-122.31475","7.6","2024-03-29T09:53:00","FM-15","6",,,,,,,,,,,,,,,,,,,,,"29.93","38","52","0.00",,"-0.03","1","59","29.93","CLR:00","29.90","10.00","45","VRB",,"3",,,,,,,,,,,,,,,,,,,,,,,,,,,,,"MET11903/29/24 09:53:02 METAR KBFI 291753Z VRB03KT 10SM CLR 11/03 A2993 RMK AO2 SLP134 60000 T01110033 10117 20061 51010 (LG)","FM-15","6",,,,,,,,,,,,,,,,,,,,,,,,,,,"2007-05-17"
"72793524234","SEATTLE BOEING FIELD, WA US","47.54554","-122.31475","7.6","2024-03-29T10:53:00","FM-15","6",,,,,,,,,,,,,,,,,,,,,"29.93","38","54","0.00",,,,"55","29.93","SCT:04 35","29.90","10.00","46","VRB",,"3",,,,,,,,,,,,,,,,,,,,,,,,,,,,,"MET09803/29/24 10:53:02 METAR KBFI 291853Z VRB03KT 10SM SCT035 12/03 A2993 RMK AO2 SLP135 T01220033 (LG)","FM-15","6",,,,,,,,,,,,,,,,,,,,,,,,,,,"2007-05-17"
"72793524234","SEATTLE BOEING FIELD, WA US","47.54554","-122.31475","7.6","2024-03-29T11:53:00","FM-15","6",,,,,,,,,,,,,,,,,,,,,"29.93","36","54","0.00",,,,"51","29.93","SCT:04 40","29.90","10.00","46","VRB",,"5",,,,,,,,,,,,,,,,,,,,,,,,,,,,,"MET09803/29/24 11:53:02 METAR KBFI 291953Z VRB04KT 10SM SCT040 12/02 A2993 RMK AO2 SLP134 T01220022 (LG)","FM-15","6",,,,,,,,,,,,,,,,,,,,,,,,,,,"2007-05-17"
"72793524234","SEATTLE BOEING FIELD, WA US","47.54554","-122.31475","7.6","2024-03-29T12:53:00","FM-15","6",,,,,,,,,,,,,,,,,,,,,"29.91","36","56","0.00",,"0.01","8","47","29.91","SCT:04 40","29.88","10.00","47","000",,"0",,,,,,,,,,,,,,,,,,,,,,,,,,,,,"MET10403/29/24 12:53:02 METAR KBFI 292053Z 00000KT 10SM SCT040 13/02 A2991 RMK AO2 SLP129 T01330022 58005 (LG)","FM-15","6",,,,,,,,,,,,,,,,,,,,,,,,,,,"2007-05-17"
"72793524234","SEATTLE BOEING FIELD, WA US","47.54554","-122.31475","7.6","2024-03-29T13:53:00","FM-15","6",,,,,,,,,,,,,,,,,,,,,"29.90","36","58","0.00",,,,"44","29.90","CLR:00","29.87","10.00","48","VRB",,"7",,,,,,,,,,,,,,,,,,,,,,,,,,,,,"MET09503/29/24 13:53:02 METAR KBFI 292153Z VRB06KT 10SM CLR 14/02 A2990 RMK AO2 SLP125 T01440022 (IV)","FM-15","6",,,,,,,,,,,,,,,,,,,,,,,,,,,"2007-05-17"
"72793524234","SEATTLE BOEING FIELD, WA US","47.54554","-122.31475","7.6","2024-03-29T14:53:00","FM-15","6",,,,,,,,,,,,,,,,,,,,,"29.89","36","58","0.00",,,,"44","29.89","SCT:04 60","29.86","10.00","48","310",,"9",,,,,,,,,,,,,,,,,,,,,,,,,,,,,"MET09803/29/24 14:53:02 METAR KBFI 292253Z 31008KT 10SM SCT060 14/02 A2989 RMK AO2 SLP121 T01440022 (IV)","FM-15","6",,,,,,,,,,,,,,,,,,,,,,,,,,,"2007-05-17"
"72793524234","SEATTLE BOEING FIELD, WA US","47.54554","-122.31475","7.6","2024-03-29T15:53:00","FM-15","6",,,,,,,,,,,,,,,,,,,,,"29.88","34","58","0.00",,"0.03","6","41","29.88","CLR:00","29.85","10.00","47","320","18","9",,,,,,,,,,,,,,,,,,,,,,,,,,,,,"MET11603/29/24 15:53:02 METAR KBFI 292353Z 32008G16KT 10SM CLR 14/01 A2988 RMK AO2 SLP119 T01440011 10150 20111 56010 (IV)","FM-15","6",,,,,,,,,,,,,,,,,,,,,,,,,,,"2007-05-17"
"72793524234","SEATTLE BOEING FIELD, WA US","47.54554","-122.31475","7.6","2024-03-29T16:53:00","FM-15","6",,,,,,,,,,,,,,,,,,,,,"29.89","37","58","0.00",,,,"46","29.88","CLR:00","29.86","10.00","48","340",,"9",,,,,,,,,,,,,,,,,,,,,,,,,,,,,"MET09003/29/24 16:53:01 METAR KBFI 300053Z 34008KT 10SM CLR 14/03 A2989 RMK AO2 SLP120 T01440028","FM-15","6",,,,,,,,,,,,,,,,,,,,,,,,,,,"2007-05-17"
"72793524234","SEATTLE BOEING FIELD, WA US","47.54554","-122.31475","7.6","2024-03-29T17:53:00","FM-15","6",,,,,,,,,,,,,,,,,,,,,"29.90","37","55","0.00",,,,"51","29.90","CLR:00","29.87","10.00","47","330","20","10",,,,,,,,,,,,,,,,,,,,,,,,,,,,,"MET09303/29/24 17:53:01 METAR KBFI 300153Z 33009G17KT 10SM CLR 13/03 A2990 RMK AO2 SLP124 T01280028","FM-15","6",,,,,,,,,,,,,,,,,,,,,,,,,,,"2007-05-17"
"72793524234","SEATTLE BOEING FIELD, WA US","47.54554","-122.31475","7.6","2024-03-29T18:53:00","FM-15","6",,,,,,,,,,,,,,,,,,,,,"29.92","37","52","0.00",,"-0.03","3","57","29.91","CLR:00","29.89","10.00","45","340","18","5",,,,,,,,,,,,,,,,,,,,,,,,,,,,,"MET09903/29/24 18:53:02 METAR KBFI 300253Z 34004G16KT 10SM CLR 11/03 A2992 RMK AO2 SLP130 T01110028 53011","FM-15","6",,,,,,,,,,,,,,,,,,,,,,,,,,,"2007-05-17"
"72793524234","SEATTLE BOEING FIELD, WA US","47.54554","-122.31475","7.6","2024-03-29T19:53:00","FM-15","6",,,,,,,,,,,,,,,,,,,,,"29.93","39","51","0.00",,,,"64","29.93","CLR:00","29.90","10.00","45","000",,"0",,,,,,,,,,,,,,,,,,,,,,,,,,,,,"MET09003/29/24 19:53:02 METAR KBFI 300353Z 00000KT 10SM CLR 11/04 A2993 RMK AO2 SLP134 T01060039","FM-15","6",,,,,,,,,,,,,,,,,,,,,,,,,,,"2007-05-17"
"72793524234","SEATTLE BOEING FIELD, WA US","47.54554","-122.31475","7.6","2024-03-29T20:53:00","FM-15","6",,,,,,,,,,,,,,,,,,,,,"29.95","39","50","0.00",,,,"66","29.94","CLR:00","29.92","10.00","45","360",,"6",,,,,,,,,,,,,,,,,,,,,,,,,,,,,"MET09003/29/24 20:53:02 METAR KBFI 300453Z 36005KT 10SM CLR 10/04 A2995 RMK AO2 SLP140 T01000039","FM-15","6",,,,,,,,,,,,,,,,,,,,,,,,,,,"2007-05-17"
"72793524234","SEATTLE BOEING FIELD, WA US","47.54554","-122.31475","7.6","2024-03-29T21:53:00","FM-15","6",,,,,,,,,,,,,,,,,,,,,"29.94","39","49","0.00",,"-0.02","0","69","29.94","CLR:00","29.91","10.00","44","000",,"0",,,,,,,,,,,,,,,,,,,,,,,,,,,,,"MET10803/29/24 21:53:02 METAR KBFI 300553Z 00000KT 10SM CLR 09/04 A2994 RMK AO2 SLP138 T00940039 10150 20094 50008","FM-15","6",,,,,,,,,,,,,,,,,,,,,,,,,,,"2007-05-17"
"72793524234","SEATTLE BOEING FIELD, WA US","47.54554","-122.31475","7.6","2024-03-29T22:53:00","FM-15","6",,,,,,,,,,,,,,,,,,,,,"29.94","39","49","0.00",,,,"69","29.94","CLR:00","29.91","10.00","44","010",,"3",,,,,,,,,,,,,,,,,,,,,,,,,,,,,"MET09003/29/24 22:53:02 METAR KBFI 300653Z 01003KT 10SM CLR 09/04 A2994 RMK AO2 SLP140 T00940039","FM-15","6",,,,,,,,,,,,,,,,,,,,,,,,,,,"2007-05-17"
"72793524234","SEATTLE BOEING FIELD, WA US","47.54554","-122.31475","7.6","2024-03-29T23:53:00","FM-15","6",,,,,,,,,,,,,,,,,,,,,"29.95","40","48","0.00",,,,"74","29.95","CLR:00","29.92","10.00","44","000",,"0",,,,,,,,,,,,,,,,,,,,,,,,,,,,,"MET10003/29/24 23:53:02 METAR KBFI 300753Z 00000KT 10SM CLR 09/04 A2995 RMK AO2 SLP142 T00890044 401500061","FM-15","6",,,,,,,,,,,,,,,,,,,,,,,,,,,"2007-05-17"
"72793524234","SEATTLE BOEING FIELD, WA US","47.54554","-122.31475","7.6","2024-03-29T23:59:00","SOD  ","6",,,,,"51","29.87","3.8","0","1.9","14","59","43","330","22","T","310","14",,,,,,,,,,,,,,,,,,,,,,,,,,,,,,,,,,,,,,,,,,,,,,,,"SOD73024 HR PRECIPITATION (IN):T     24 HR MAX TEMP (F):59 24 HR MAX TEMP TIME (LST):1614 24 HR MIN TEMP (F):43 24 HR MIN TEMP TIME (LST):0623 AVERAGE STATION PRESSURE:29.870 MINIMUM SEA LEVEL PRESSURE:29.84 TIME OF OCCURRENCE:0034 PEAK WIND SPEED (MPH):22  PEAK WIND DIR (DEG):330 PEAK WIND TIME (LST):1734  FASTEST 2MIN SPEED (MPH):14 FASTEST 2MIN DIR (DEG):310 FASTEST 2MIN TIME (LST):1545 AVERAGE WIND SPEED (MPH):3.8  24 HR AVG TEMP (F):51 HEATING DEGREE DAYS:14  COOLING DEGREE DAYS:0   LATEST DAY MAX TEMP (0700-1900 LST):59  LATEST NIGHT MIN TEMP(1900-0800 LST):43 HOURLY INCREMENTAL PRECIPITATION VALUES (IN):    T    0.00 0.00 T    0.00 0.00 0.00 0.00 0.00 0.00 0.00 0.00 0.00 0.00 0.00 0.00 0.00 0.00 0.00 0.00 0.00 0.00 0.00","SOD  ","6",,,,,,,,,,,,,,,,,,,,,,,,,"0552","1836","2007-05-17"
"72793524234","SEATTLE BOEING FIELD, WA US","47.54554","-122.31475","7.6","2024-03-30T00:53:00","FM-15","6",,,,,,,,,,,,,,,,,,,,,"29.95","39","47","0.00",,"-0.01","1","74","29.95","CLR:00","29.92","10.00","43","000",,"0",,,,,,,,,,,,,,,,,,,,,,,,,,,,,"MET10103/30/24 00:53:02 METAR KBFI 300853Z 00000KT 10SM CLR 08/04 A2995 RMK AO2 SLP142 T00830039 51004 (PV)","FM-15","6",,,,,,,,,,,,,,,,,,,,,,,,,,,"2007-05-17"
"72793524234","SEATTLE BOEING FIELD, WA US","47.54554","-122.31475","7.6","2024-03-30T01:53:00","FM-15","6",,,,,,,,,,,,,,,,,,,,,"29.96","39","46","0.00",,,,"77","29.96","CLR:00","29.93","10.00","43","000",,"0",,,,,,,,,,,,,,,,,,,,,,,,,,,,,"MET09503/30/24 01:53:02 METAR KBFI 300953Z 00000KT 10SM CLR 08/04 A2996 RMK AO2 SLP145 T00780039 (PV)","FM-15","6",,,,,,,,,,,,,,,,,,,,,,,,,,,"2007-05-17"
"72793524234","SEATTLE BOEING FIELD, WA US","47.54554","-122.31475","7.6","2024-03-30T02:53:00","FM-15","6",,,,,,,,,,,,,,,,,,,,,"29.96","38","43","0.00",,,,"82","29.96","CLR:00","29.93","10.00","41","000",,"0",,,,,,,,,,,,,,,,,,,,,,,,,,,,,"MET09503/30/24 02:53:02 METAR KBFI 301053Z 00000KT 10SM CLR 06/03 A2996 RMK AO2 SLP145 T00610033 (LG)","FM-15","6",,,,,,,,,,,,,,,,,,,,,,,,,,,"2007-05-17"
"72793524234","SEATTLE BOEING FIELD, WA US","47.54554","-122.31475","7.6","2024-03-30T03:53:00","FM-15","6",,,,,,,,,,,,,,,,,,,,,"29.96","39","44","0.00",,"-0.01","1","83","29.96","CLR:00","29.93","10.00","42","000",,"0",,,,,,,,,,,,,,,,,,,,,,,,,,,,,"MET11303/30/24 03:53:02 METAR KBFI 301153Z 00000KT 10SM CLR 07/04 A2996 RMK AO2 SLP145 T00670039 10100 20061 51003 (LG)","FM-15","6",,,,,,,,,,,,,,,,,,,,,,,,,,,"2007-05-17"
"72793524234","SEATTLE BOEING FIELD, WA US","47.54554","-122.31475","7.6","2024-03-30T04:53:00","FM-15","6",,,,,,,,,,,,,,,,,,,,,"29.97","39","43","0.00",,,,"86","29.97","CLR:00","29.94","10.00","41","000",,"0",,,,,,,,,,,,,,,,,,,,,,,,,,,,,"MET09503/30/24 04:53:02 METAR KBFI 301253Z 00000KT 10SM CLR 06/04 A2997 RMK AO2 SLP148 T00610039 (LG)","FM-15","6",,,,,,,,,,,,,,,,,,,,,,,,,,,"2007-05-17"
"72793524234","SEATTLE BOEING FIELD, WA US","47.54554","-122.31475","7.6","2024-03-30T05:53:00","FM-15","6",,,,,,,,,,,,,,,,,,,,,"29.98","38","41","0.00",,,,"89","29.98","FEW:02 50","29.95","10.00","40","000",,"0",,,,,,,,,,,,,,,,,,,,,,,,,,,,,"MET09803/30/24 05:53:02 METAR KBFI 301353Z 00000KT 10SM FEW050 05/03 A2998 RMK AO2 SLP151 T00500033 (LG)","FM-15","6",,,,,,,,,,,,,,,,,,,,,,,,,,,"2007-05-17"
"72793524234","SEATTLE BOEING FIELD, WA US","47.54554","-122.31475","7.6","2024-03-30T06:51:00","FM-16","6",,,,,,,,,,,,,,,,,,,,,"29.99","39","43",,,,,"87",,"BKN:07 13","29.96","10.00","41","000",,"0",,,,,,,,,,,,,,,,,,,,,,,,,,,,,"MET08603/30/24 06:51:02 SPECI KBFI 301451Z 00000KT 10SM BKN013 06/04 A2999 RMK AO2 FIBI (LG)","FM-16","6",,,,,,,,,,,,,,,,,,,,,,,,,,,"2007-05-17"
"72793524234","SEATTLE BOEING FIELD, WA US","47.54554","-122.31475","7.6","2024-03-30T06:53:00","FM-15","6",,,,,,,,,,,,,,,,,,,,,"29.99","39","43","0.00",,"-0.03","3","86","29.99","BKN:07 13","29.96","10.00","41","000",,"0",,,,,,,,,,,,,,,,,,,,,,,,,,,,,"MET10403/30/24 06:53:02 METAR KBFI 301453Z 00000KT 10SM BKN013 06/04 A2999 RMK AO2 SLP156 T00610039 53011 (LG)","FM-15","6",,,,,,,,,,,,,,,,,,,,,,,,,,,"2007-05-17"
"72793524234","SEATTLE BOEING FIELD, WA US","47.54554","-122.31475","7.6","2024-03-30T07:00:00","FM-16","6",,,,,,,,,,,,,,,,,,,,,"30.00","40","44",,,,,"85",,"FEW:02 14","29.97","10.00","42","000",,"0",,,,,,,,,,,,,,,,,,,,,,,,,,,,,"MET09103/30/24 07:00:02 SPECI KBFI 301500Z 00000KT 10SM FEW014 07/04 A3000 RMK AO2 T00670044 (LG)","FM-16","6",,,,,,,,,,,,,,,,,,,,,,,,,,,"2007-05-17"
"72793524234","SEATTLE BOEING FIELD, WA US","47.54554","-122.31475","7.6","2024-03-30T07:53:00","FM-15","6",,,,,,,,,,,,,,,,,,,,,"30.00","41","48","0.00",,,,"77","29.99",,"29.97","10.00","45","000",,"0",,,,,,,,,,,,,,,,,,,,,,,,,,,,,"MET09803/30/24 07:53:02 METAR KBFI 301553Z 00000KT 10SM CLR015 09/05 A3000 RMK AO2 SLP157 T00890050 (LG)","FM-15","6",,,,,,,,,,,,,,,,,,,,,,,,,,,"2007-05-17"
"72793524234","SEATTLE BOEING FIELD, WA US","47.54554","-122.31475","7.6","2024-03-30T08:53:00","FM-15","6",,,,,,,,,,,,,,,,,,,,,"29.99","41","50","0.00",,,,"71","29.98","SCT:04 14","29.96","10.00","46","050",,"7",,,,,,,,,,,,,,,,,,,,,,,,,,,,,"MET09803/30/24 08:53:02 METAR KBFI 301653Z 05006KT 10SM SCT014 10/05 A2999 RMK AO2 SLP154 T01000050 (LG)","FM-15","6",,,,,,,,,,,,,,,,,,,,,,,,,,,"2007-05-17"
"72793524234","SEATTLE BOEING FIELD, WA US","47.54554","-122.31475","7.6","2024-03-30T09:53:00","FM-15","6",,,,,,,,,,,,,,,,,,,,,"29.98","41","53","0.00",,"0.01","8","64","29.98","CLR:00","29.95","10.00","47","000",,"0",,,,,,,,,,,,,,,,,,,,,,,,,,,,,"MET11303/30/24 09:53:02 METAR KBFI 301753Z 00000KT 10SM CLR 12/05 A2998 RMK AO2 SLP151 T01170050 10117 20050 58005 (LG)","FM-15","6",,,,,,,,,,,,,,,,,,,,,,,,,,,"2007-05-17"
"72793524234","SEATTLE BOEING FIELD, WA US","47.54554","-122.31475","7.6","2024-03-30T10:53:00","FM-15","6",,,,,,,,,,,,,,,,,,,,,"29.97","40","55","0.00",,,,"57","29.97","CLR:00","29.94","10.00","48","310",,"7",,,,,,,,,,,,,,,,,,,,,,,,,,,,,"MET09503/30/24 10:53:02 METAR KBFI 301853Z 31006KT 10SM CLR 13/04 A2997 RMK AO2 SLP148 T01280044 (LG)","FM-15","6",,,,,,,,,,,,,,,,,,,,,,,,,,,"2007-05-17"
"72793524234","SEATTLE BOEING FIELD, WA US","47.54554","-122.31475","7.6","2024-03-30T11:53:00","FM-15","6",,,,,,,,,,,,,,,,,,,,,"29.95","37","56","0.00",,,,"49","29.95","FEW:02 100","29.92","10.00","47","300","18","7",,,,,,,,,,,,,,,,,,,,,,,,,,,,,"MET10103/30/24 11:53:02 METAR KBFI 301953Z 30006G16KT 10SM FEW100 13/03 A2995 RMK AO2 SLP141 T01330028 (LB)","FM-15","6",,,,,,,,,,,,,,,,,,,,,,,,,,,"2007-05-17"
"72793524234","SEATTLE BOEING FIELD, WA US","47.54554","-122.31475","7.6","2024-03-30T12:53:00","FM-15","6",,,,,,,,,,,,,,,,,,,,,"29.93","37","58","0.00",,"0.05","8","46","29.93","CLR:00","29.90","10.00","48","310",,"6",,,,,,,,,,,,,,,,,,,,,,,,,,,,,"MET10103/30/24 12:53:02 METAR KBFI 302053Z 31005KT 10SM CLR 14/03 A2993 RMK AO2 SLP134 T01440028 58018 (LB)","FM-15","6",,,,,,,,,,,,,,,,,,,,,,,,,,,"2007-05-17"
"72793524234","SEATTLE BOEING FIELD, WA US","47.54554","-122.31475","7.6","2024-03-30T13:53:00","FM-15","6",,,,,,,,,,,,,,,,,,,,,"29.92","36","57","0.00",,,,"45","29.91","FEW:02 30 BKN:07 250","29.89","10.00","47","310","20","11",,,,,,,,,,,,,,,,,,,,,,,,,,,,,"MET10803/30/24 13:53:02 METAR KBFI 302153Z 31010G17KT 10SM FEW030 BKN250 14/02 A2992 RMK AO2 SLP130 T01390022 (LB)","FM-15","6",,,,,,,,,,,,,,,,,,,,,,,,,,,"2007-05-17"
"72793524234","SEATTLE BOEING FIELD, WA US","47.54554","-122.31475","7.6","2024-03-30T14:53:00","FM-15","6",,,,,,,,,,,,,,,,,,,,,"29.91","35","56","0.00",,,,"46","29.91","CLR:00","29.88","10.00","46","310","17","9",,,,,,,,,,,,,,,,,,,,,,,,,,,,,"MET09803/30/24 14:53:02 METAR KBFI 302253Z 31008G15KT 10SM CLR 13/02 A2991 RMK AO2 SLP127 T01330017 (LB)","FM-15","6",,,,,,,,,,,,,,,,,,,,,,,,,,,"2007-05-17"
"72793524234","SEATTLE BOEING FIELD, WA US","47.54554","-122.31475","7.6","2024-03-30T15:53:00","FM-15","6",,,,,,,,,,,,,,,,,,,,,"29.90","38","56","0.00",,"0.02","6","51","29.90","CLR:00","29.87","10.00","47","320",,"6",,,,,,,,,,,,,,,,,,,,,,,,,,,,,"MET11303/30/24 15:53:02 METAR KBFI 302353Z 32005KT 10SM CLR 13/03 A2990 RMK AO2 SLP126 T01330033 10150 20111 56008 (LB)","FM-15","6",,,,,,,,,,,,,,,,,,,,,,,,,,,"2007-05-17"
"72793524234","SEATTLE BOEING FIELD, WA US","47.54554","-122.31475","7.6","2024-03-30T16:53:00","FM-15","6",,,,,,,,,,,,,,,,,,,,,"29.89","39","55","0.00",,,,"55","29.89","FEW:02 150","29.86","10.00","47","320",,"7",,,,,,,,,,,,,,,,,,,,,,,,,,,,,"MET09803/30/24 16:53:03 METAR KBFI 310053Z 32006KT 10SM FEW150 13/04 A2989 RMK AO2 SLP122 T01280039 (LB)","FM-15","6",,,,,,,,,,,,,,,,,,,,,,,,,,,"2007-05-17"
"72793524234","SEATTLE BOEING FIELD, WA US","47.54554","-122.31475","7.6","2024-03-30T17:53:00","FM-15","6",,,,,,,,,,,,,,,,,,,,,"29.87","41","54","0.00",,,,"62","29.87","CLR:00","29.84","10.00","48","320",,"3",,,,,,,,,,,,,,,,,,,,,,,,,,,,,"MET09503/30/24 17:53:03 METAR KBFI 310153Z 32003KT 10SM CLR 12/05 A2987 RMK AO2 SLP115 T01220050 (MB)","FM-15","6",,,,,,,,,,,,,,,,,,,,,,,,,,,"2007-05-17"
"72793524234","SEATTLE BOEING FIELD, WA US","47.54554","-122.31475","7.6","2024-03-30T18:53:00","FM-15","6",,,,,,,,,,,,,,,,,,,,,"29.87","40","53","0.00",,"0.03","6","61","29.87","SCT:04 50","29.84","10.00","47","320",,"5",,,,,,,,,,,,,,,,,,,,,,,,,,,,,"MET10403/30/24 18:53:03 METAR KBFI 310253Z 32004KT 10SM SCT050 12/04 A2987 RMK AO2 SLP115 T01170044 56011 (MB)","FM-15","6",,,,,,,,,,,,,,,,,,,,,,,,,,,"2007-05-17"
"72793524234","SEATTLE BOEING FIELD, WA US","47.54554","-122.31475","7.6","2024-03-30T19:53:00","FM-15","6",,,,,,,,,,,,,,,,,,,,,"29.88","41","53","0.00",,,,"64","29.88","OVC:08 65","29.85","10.00","47","000",,"0",,,,,,,,,,,,,,,,,,,,,,,,,,,,,"MET09803/30/24 19:53:03 METAR KBFI 310353Z 00000KT 10SM OVC065 12/05 A2988 RMK AO2 SLP117 T01170050 (MB)","FM-15","6",,,,,,,,,,,,,,,,,,,,,,,,,,,"2007-05-17"
"72793524234","SEATTLE BOEING FIELD, WA US","47.54554","-122.31475","7.6","2024-03-30T20:53:00","FM-15","6",,,,,,,,,,,,,,,,,,,,,"29.89","39","52","0.00",,,,"61","29.88","BKN:07 70","29.86","10.00","46","010",,"3",,,,,,,,,,,,,,,,,,,,,,,,,,,,,"MET09803/30/24 20:53:03 METAR KBFI 310453Z 01003KT 10SM BKN070 11/04 A2989 RMK AO2 SLP120 T01110039 (MB)","FM-15","6",,,,,,,,,,,,,,,,,,,,,,,,,,,"2007-05-17"
"72793524234","SEATTLE BOEING FIELD, WA US","47.54554","-122.31475","7.6","2024-03-30T21:53:00","FM-15","6",,,,,,,,,,,,,,,,,,,,,"29.89","37","50","0.00",,"-0.01","1","61","29.88","CLR:00","29.86","10.00","44","VRB",,"3",,,,,,,,,,,,,,,,,,,,,,,,,,,,,"MET11303/30/24 21:53:03 METAR KBFI 310553Z VRB03KT 10SM CLR 10/03 A2989 RMK AO2 SLP120 T01000028 10133 20100 51005 (MB)","FM-15","6",,,,,,,,,,,,,,,,,,,,,,,,,,,"2007-05-17"
"72793524234","SEATTLE BOEING FIELD, WA US","47.54554","-122.31475","7.6","2024-03-30T22:53:00","FM-15","6",,,,,,,,,,,,,,,,,,,,,"29.89","37","47","0.00",,,,"69","29.89","CLR:00","29.86","10.00","43","000",,"0",,,,,,,,,,,,,,,,,,,,,,,,,,,,,"MET09503/30/24 22:53:03 METAR KBFI 310653Z 00000KT 10SM CLR 08/03 A2989 RMK AO2 SLP121 T00830028 (MB)","FM-15","6",,,,,,,,,,,,,,,,,,,,,,,,,,,"2007-05-17"
"72793524234","SEATTLE BOEING FIELD, WA US","47.54554","-122.31475","7.6","2024-03-30T23:53:00","FM-15","6",,,,,,,,,,,,,,,,,,,,,"29.90","38","47","0.00",,,,"71","29.90","BKN:07 75","29.87","10.00","43","000",,"0",,,,,,,,,,,,,,,,,,,,,,,,,,,,,"MET10803/30/24 23:53:03 METAR KBFI 310753Z 00000KT 10SM BKN075 08/03 A2990 RMK AO2 SLP124 T00830033 401500050 (MB)","FM-15","6",,,,,,,,,,,,,,,,,,,,,,,,,,,"2007-05-17"
"72793524234","SEATTLE BOEING FIELD, WA US","47.54554","-122.31475","7.6","2024-03-30T23:59:00","SOD  ","6",,,,,"50","29.91","3.1","0","0.8","15","59","41","310","22","0.00","310","13",,,,,,,,,,,,,,,,,,,,,,,,,,,,,,,,,,,,,,,,,,,,,,,,"SOD73424 HR PRECIPITATION (IN): 0.00 24 HR MAX TEMP (F):59 24 HR MAX TEMP TIME (LST):1256 24 HR MIN TEMP (F):41 24 HR MIN TEMP TIME (LST):0628 AVERAGE STATION PRESSURE(D):29.907 MINIMUM SEA LEVEL PRESSURE:29.87 TIME OF OCCURRENCE:1936 PEAK WIND SPEED (MPH):22  PEAK WIND DIR (DEG):310 PEAK WIND TIME (LST):1438  FASTEST 2MIN SPEED (MPH):13 FASTEST 2MIN DIR (DEG):310 FASTEST 2MIN TIME (LST):1340 AVERAGE WIND SPEED (MPH): 3.1 24 HR AVG TEMP (F):50 HEATING DEGREE DAYS: 15 COOLING DEGREE DAYS:  0 LATEST DAY MAX TEMP (0700-1900 LST): 59 LATEST NIGHT MIN TEMP(1900-0800 LST):41 HOURLY INCREMENTAL PRECIPITATION VALUES (IN):0.00 0.00 0.00 0.00 0.00 0.00 0.00 0.00 0.00 0.00 0.00 0.00 0.00 0.00 0.00 0.00 0.00 0.00 0.00 0.00 0.00 0.00 0.00 0.00","SOD  ","6",,,,,,,,,,,,,,,,,,,,,,,,,"0550","1838","2007-05-17"
"72793524234","SEATTLE BOEING FIELD, WA US","47.54554","-122.31475","7.6","2024-03-31T00:53:00","FM-15","6",,,,,,,,,,,,,,,,,,,,,"29.91","38","46","0.00",,"-0.02","3","73","29.91","FEW:02 60","29.88","10.00","42","000",,"0",,,,,,,,,,,,,,,,,,,,,,,,,,,,,"MET10403/31/24 00:53:02 METAR KBFI 310853Z 00000KT 10SM FEW060 08/03 A2991 RMK AO2 SLP127 T00780033 53007 (MB)","FM-15","6",,,,,,,,,,,,,,,,,,,,,,,,,,,"2007-05-17"
"72793524234","SEATTLE BOEING FIELD, WA US","47.54554","-122.31475","7.6","2024-03-31T01:53:00","FM-15","6",,,,,,,,,,,,,,,,,,,,,"29.91","38","44","0.00",,,,"79","29.91","CLR:00","29.88","10.00","41","000",,"0",,,,,,,,,,,,,,,,,,,,,,,,,,,,,"MET09503/31/24 01:53:02 METAR KBFI 310953Z 00000KT 10SM CLR 07/03 A2991 RMK AO2 SLP128 T00670033 (MB)","FM-15","6",,,,,,,,,,,,,,,,,,,,,,,,,,,"2007-05-17"
"72793524234","SEATTLE BOEING FIELD, WA US","47.54554","-122.31475","7.6","2024-03-31T02:53:00","FM-15","6",,,,,,,,,,,,,,,,,,,,,"29.91","38","43","0.00",,,,"82","29.91","CLR:00","29.88","10.00","41","000",,"0",,,,,,,,,,,,,,,,,,,,,,,,,,,,,"MET09503/31/24 02:53:02 METAR KBFI 311053Z 00000KT 10SM CLR 06/03 A2991 RMK AO2 SLP127 T00610033 (MB)","FM-15","6",,,,,,,,,,,,,,,,,,,,,,,,,,,"2007-05-17"
"72793524234","SEATTLE BOEING FIELD, WA US","47.54554","-122.31475","7.6","2024-03-31T03:53:00","FM-15","6",,,,,,,,,,,,,,,,,,,,,"29.92","37","42","0.00",,"-0.01","3","82","29.92","CLR:00","29.89","10.00","40","000",,"0",,,,,,,,,,,,,,,,,,,,,,,,,,,,,"MET11303/31/24 03:53:02 METAR KBFI 311153Z 00000KT 10SM CLR 06/03 A2992 RMK AO2 SLP131 T00560028 10100 20056 53004 (MB)","FM-15","6",,,,,,,,,,,,,,,,,,,,,,,,,,,"2007-05-17"
"72793524234","SEATTLE BOEING FIELD, WA US","47.54554","-122.31475","7.6","2024-03-31T04:53:00","FM-15","6",,,,,,,,,,,,,,,,,,,,,"29.93","37","41","0.00",,,,"86","29.93","CLR:00","29.90","10.00","39","000",,"0",,,,,,,,,,,,,,,,,,,,,,,,,,,,,"MET09503/31/24 04:53:02 METAR KBFI 311253Z 00000KT 10SM CLR 05/03 A2993 RMK AO2 SLP135 T00500028 (MB)","FM-15","6",,,,,,,,,,,,,,,,,,,,,,,,,,,"2007-05-17"
"72793524234","SEATTLE BOEING FIELD, WA US","47.54554","-122.31475","7.6","2024-03-31T05:53:00","FM-15","6",,,,,,,,,,,,,,,,,,,,,"29.95","39","43","0.00",,,,"86","29.95","FEW:02 17","29.92","10.00","41","030",,"3",,,,,,,,,,,,,,,,,,,,,,,,,,,,,"MET09803/31/24 05:53:02 METAR KBFI 311353Z 03003KT 10SM FEW017 06/04 A2995 RMK AO2 SLP141 T00610039 (AD)","FM-15","6",,,,,,,,,,,,,,,,,,,,,,,,,,,"2007-05-17"
"72793524234","SEATTLE BOEING FIELD, WA US","47.54554","-122.31475","7.6","2024-03-31T06:51:00","FM-16","6",,,,,,,,,,,,,,,,,,,,,"29.97","41","45",,,,,"87",,"SCT:04 13 BKN:07 17","29.94","10.00","43","000",,"0",,,,,,,,,,,,,,,,,,,,,,,,,,,,,"MET09303/31/24 06:51:02 SPECI KBFI 311451Z 00000KT 10SM SCT013 BKN017 07/05 A2997 RMK AO2 FIBI (AD)","FM-16","6",,,,,,,,,,,,,,,,,,,,,,,,,,,"2007-05-17"
"72793524234","SEATTLE BOEING FIELD, WA US","47.54554","-122.31475","7.6","2024-03-31T06:53:00","FM-15","6",,,,,,,,,,,,,,,,,,,,,"29.97","41","46","0.00",,"-0.05","3","83","29.97","SCT:04 13 BKN:07 17","29.94","10.00","44","000",,"0",,,,,,,,,,,,,,,,,,,,,,,,,,,,,"MET11103/31/24 06:53:02 METAR KBFI 311453Z 00000KT 10SM SCT013 BKN017 08/05 A2997 RMK AO2 SLP148 T00780050 53016 (AD)","FM-15","6",,,,,,,,,,,,,,,,,,,,,,,,,,,"2007-05-17"
"72793524234","SEATTLE BOEING FIELD, WA US","47.54554","-122.31475","7.6","2024-03-31T07:34:00","FM-16","6",,,,,,,,,,,,,,,,,,,,,"29.98","41","47",,,,,"80",,"BKN:07 12","29.95","10.00","44","060",,"7",,,,,,,,,,,,,,,,,,,,,,,,,,,,,"MET09103/31/24 07:34:02 SPECI KBFI 311534Z 06006KT 10SM BKN012 08/05 A2998 RMK AO2 T00830050 (AD)","FM-16","6",,,,,,,,,,,,,,,,,,,,,,,,,,,"2007-05-17"
"72793524234","SEATTLE BOEING FIELD, WA US","47.54554","-122.31475","7.6","2024-03-31T07:53:00","FM-15","6",,,,,,,,,,,,,,,,,,,,,"29.99","41","48","0.00",,,,"77","29.99","BKN:07 12","29.96","10.00","45","VRB",,"5",,,,,,,,,,,,,,,,,,,,,,,,,,,,,"MET09803/31/24 07:53:02 METAR KBFI 311553Z VRB04KT 10SM BKN012 09/05 A2999 RMK AO2 SLP156 T00890050 (AD)","FM-15","6",,,,,,,,,,,,,,,,,,,,,,,,,,,"2007-05-17"
"72793524234","SEATTLE BOEING FIELD, WA US","47.54554","-122.31475","7.6","2024-03-31T08:00:00","FM-16","6",,,,,,,,,,,,,,,,,,,,,"29.99","41","47",,,,,"80",,"FEW:02 15","29.96","10.00","44","050",,"6",,,,,,,,,,,,,,,,,,,,,,,,,,,,,"MET09103/31/24 08:00:02 SPECI KBFI 311600Z 05005KT 10SM FEW015 08/05 A2999 RMK AO2 T00830050 (AD)","FM-16","6",,,,,,,,,,,,,,,,,,,,,,,,,,,"2007-05-17"
"72793524234","SEATTLE BOEING FIELD, WA US","47.54554","-122.31475","7.6","2024-03-31T08:07:00","FM-16","6",,,,,,,,,,,,,,,,,,,,,"29.99","41","48",,,,,"77",,"BKN:07 12","29.96","10.00","45","060",,"6",,,,,,,,,,,,,,,,,,,,,,,,,,,,,"MET09103/31/24 08:07:02 SPECI KBFI 311607Z 06005KT 10SM BKN012 09/05 A2999 RMK AO2 T00890050 (AD)","FM-16","6",,,,,,,,,,,,,,,,,,,,,,,,,,,"2007-05-17"
"72793524234","SEATTLE BOEING FIELD, WA US","47.54554","-122.31475","7.6","2024-03-31T08:53:00","FM-15","6",,,,,,,,,,,,,,,,,,,,,"30.00","41","50","0.00",,,,"71","30.00","BKN:07 12","29.97","10.00","46","VRB",,"5",,,,,,,,,,,,,,,,,,,,,,,,,,,,,"MET09803/31/24 08:53:02 METAR KBFI 311653Z VRB04KT 10SM BKN012 10/05 A3000 RMK AO2 SLP158 T01000050 (AD)","FM-15","6",,,,,,,,,,,,,,,,,,,,,,,,,,,"2007-05-17"
"72793524234","SEATTLE BOEING FIELD, WA US","47.54554","-122.31475","7.6","2024-03-31T09:00:00","FM-16","6",,,,,,,,,,,,,,,,,,,,,"30.00","41","50",,,,,"71",,"BKN:07 21","29.97","10.00","46","030",,"6",,,,,,,,,,,,,,,,,,,,,,,,,,,,,"MET09103/31/24 09:00:02 SPECI KBFI 311700Z 03005KT 10SM BKN021 10/05 A3000 RMK AO2 T01000050 (AD)","FM-16","6",,,,,,,,,,,,,,,,,,,,,,,,,,,"2007-05-17"
"72793524234","SEATTLE BOEING FIELD, WA US","47.54554","-122.31475","7.6","2024-03-31T09:53:00","FM-15","6",,,,,,,,,,,,,,,,,,,,,"30.01","40","52","0.00",,"-0.04","1","64","30.01","BKN:07 25","29.98","10.00","46",,,,,,,,,,,,,,,,,,,,,,,,,,,,,,,,"MET11603/31/24 09:53:02 METAR KBFI 311753Z      KT 10SM BKN025 11/04 A3001 RMK AO2 SLP163 T01110044 10117 20044 51015 (AD)","FM-15","6",,,,,,,,,,,,,,,,,,,,,,,,,,,"2007-05-17"
"72793524234","SEATTLE BOEING FIELD, WA US","47.54554","-122.31475","7.6","2024-03-31T10:51:00","FM-16","6",,,,,,,,,,,,,,,,,,,,,"30.01","41","55",,,,,"59",,"BKN:07 30","29.98","10.00","48","060",,"7",,,,,,,,,,,,,,,,,,,,,,,,,,,,,"MET08603/31/24 10:51:02 SPECI KBFI 311851Z 06006KT 10SM BKN030 13/05 A3001 RMK AO2 FIBI (AD)","FM-16","6",,,,,,,,,,,,,,,,,,,,,,,,,,,"2007-05-17"
"72793524234","SEATTLE BOEING FIELD, WA US","47.54554","-122.31475","7.6","2024-03-31T10:53:00","FM-15","6",,,,,,,,,,,,,,,,,,,,,"30.01","41","55","0.00",,,,"59","30.00","SCT:04 30","29.98","10.00","48","VRB",,"6",,,,,,,,,,,,,,,,,,,,,,,,,,,,,"MET09803/31/24 10:53:02 METAR KBFI 311853Z VRB05KT 10SM SCT030 13/05 A3001 RMK AO2 SLP160 T01280050 (AD)","FM-15","6",,,,,,,,,,,,,,,,,,,,,,,,,,,"2007-05-17"
"72793524234","SEATTLE BOEING FIELD, WA US","47.54554","-122.31475","7.6","2024-03-31T11:53:00","FM-15","6",,,,,,,,,,,,,,,,,,,,,"30.01","43","57","0.00",,,,"60","30.01","FEW:02 32","29.98","10.00","50","290",,"6",,,,,,,,,,,,,,,,,,,,,,,,,,,,,"MET09803/31/24 11:53:02 METAR KBFI 311953Z 29005KT 10SM FEW032 14/06 A3001 RMK AO2 SLP161 T01390061 (AD)","FM-15","6",,,,,,,,,,,,,,,,,,,,,,,,,,,"2007-05-17"
"72793524234","SEATTLE BOEING FIELD, WA US","47.54554","-122.31475","7.6","2024-03-31T12:53:00","FM-15","6",,,,,,,,,,,,,,,,,,,,,"30.00","40","58","0.00",,"0.01","6","51","30.00","CLR:00","29.97","10.00","49","VRB",,"7",,,,,,,,,,,,,,,,,,,,,,,,,,,,,"MET10103/31/24 12:53:02 METAR KBFI 312053Z VRB06KT 10SM CLR 14/04 A3000 RMK AO2 SLP159 T01440044 56004 (AD)","FM-15","6",,,,,,,,,,,,,,,,,,,,,,,,,,,"2007-05-17"
"72793524234","SEATTLE BOEING FIELD, WA US","47.54554","-122.31475","7.6","2024-03-31T13:53:00","FM-15","6",,,,,,,,,,,,,,,,,,,,,"29.99","41","59","0.00",,,,"51","29.98","FEW:02 40 SCT:04 150 SCT:04 200","29.96","10.00","50","300",,"8",,,,,,,,,,,,,,,,,,,,,,,,,,,,,"MET11203/31/24 13:53:02 METAR KBFI 312153Z 30007KT 10SM FEW040 SCT150 SCT200 15/05 A2999 RMK AO2 SLP154 T01500050 (MO)","FM-15","6",,,,,,,,,,,,,,,,,,,,,,,,,,,"2007-05-17"
"72793524234","SEATTLE BOEING FIELD, WA US","47.54554","-122.31475","7.6","2024-03-31T14:53:00","FM-15","6",,,,,,,,,,,,,,,,,,,,,"29.99","38","61","0.00",,,,"43","29.99","CLR:00","29.96","10.00","50","VRB",,"5",,,,,,,,,,,,,,,,,,,,,,,,,,,,,"MET09503/31/24 14:53:02 METAR KBFI 312253Z VRB04KT 10SM CLR 16/03 A2999 RMK AO2 SLP156 T01610033 (MB)","FM-15","6",,,,,,,,,,,,,,,,,,,,,,,,,,,"2007-05-17"
"72793524234","SEATTLE BOEING FIELD, WA US","47.54554","-122.31475","7.6","2024-03-31T15:53:00","FM-15","6",,,,,,,,,,,,,,,,,,,,,"29.99","32","61","0.00",,"0.02","6","34","29.98","CLR:00","29.96","10.00","48","310",,"9",,,,,,,,,,,,,,,,,,,,,,,,,,,,,"MET11303/31/24 15:53:02 METAR KBFI 312353Z 31008KT 10SM CLR 16/00 A2999 RMK AO2 SLP153 T01610000 10167 20111 56006 (MB)","FM-15","6",,,,,,,,,,,,,,,,,,,,,,,,,,,"2007-05-17"
"72793524234","SEATTLE BOEING FIELD, WA US","47.54554","-122.31475","7.6","2024-03-31T16:53:00","FM-15","6",,,,,,,,,,,,,,,,,,,,,"29.98","31","62","0.00",,,,"31","29.98","CLR:00","29.95","10.00","48",,,,,,,,,,,,,,,,,,,,,,,,,,,,,,,,"MET09603/31/24 16:53:03 METAR KBFI 010053Z      KT 10SM CLR 17/M01 A2998 RMK AO2 SLP151 T01671006 (MO)","FM-15","6",,,,,,,,,,,,,,,,,,,,,,,,,,,"2007-05-17"
"72793524234","SEATTLE BOEING FIELD, WA US","47.54554","-122.31475","7.6","2024-03-31T17:53:00","FM-15","6",,,,,,,,,,,,,,,,,,,,,"29.97","32","59","0.00",,,,"36","29.97","BKN:07 250","29.94","10.00","47","VRB",,"3",,,,,,,,,,,,,,,,,,,,,,,,,,,,,"MET09803/31/24 17:53:03 METAR KBFI 010153Z VRB03KT 10SM BKN250 15/00 A2997 RMK AO2 SLP149 T01500000 (MO)","FM-15","6",,,,,,,,,,,,,,,,,,,,,,,,,,,"2007-05-17"
"72793524234","SEATTLE BOEING FIELD, WA US","47.54554","-122.31475","7.6","2024-03-31T18:53:00","FM-15","6",,,,,,,,,,,,,,,,,,,,,"29.98","35","58","0.00",,"0.00","5","42","29.98","BKN:07 250","29.95","10.00","47","000",,"0",,,,,,,,,,,,,,,,,,,,,,,,,,,,,"MET10403/31/24 18:53:03 METAR KBFI 010253Z 00000KT 10SM BKN250 14/02 A2998 RMK AO2 SLP153 T01440017 55001 (MO)","FM-15","6",,,,,,,,,,,,,,,,,,,,,,,,,,,"2007-05-17"
"72793524234","SEATTLE BOEING FIELD, WA US","47.54554","-122.31475","7.6","2024-03-31T19:53:00","FM-15","6",,,,,,,,,,,,,,,,,,,,,"30.00","39","54","0.00",,,,"57","30.00","SCT:04 140 BKN:07 200","29.97","10.00","47","000",,"0",,,,,,,,,,,,,,,,,,,,,,,,,,,,,"MET10503/31/24 19:53:03 METAR KBFI 010353Z 00000KT 10SM SCT140 BKN200 12/04 A3000 RMK AO2 SLP160 T01220039 (SN)","FM-15","6",,,,,,,,,,,,,,,,,,,,,,,,,,,"2007-05-17"
"72793524234","SEATTLE BOEING FIELD, WA US","47.54554","-122.31475","7.6","2024-03-31T20:53:00","FM-15","6",,,,,,,,,,,,,,,,,,,,,"30.02","39","53","0.00",,,,"59","30.02","CLR:00","29.99","10.00","46","000",,"0",,,,,,,,,,,,,,,,,,,,,,,,,,,,,"MET09503/31/24 20:53:03 METAR KBFI 010453Z 00000KT 10SM CLR 12/04 A3002 RMK AO2 SLP166 T01170039 (SN)","FM-15","6",,,,,,,,,,,,,,,,,,,,,,,,,,,"2007-05-17"
"72793524234","SEATTLE BOEING FIELD, WA US","47.54554","-122.31475","7.6","2024-03-31T21:53:00","FM-15","6",,,,,,,,,,,,,,,,,,,,,"30.03","39","50","0.00",,"-0.04","1","66","30.03","CLR:00","30.00","10.00","45","000",,"0",,,,,,,,,,,,,,,,,,,,,,,,,,,,,"MET11303/31/24 21:53:03 METAR KBFI 010553Z 00000KT 10SM CLR 10/04 A3003 RMK AO2 SLP168 T01000039 10172 20100 51015 (SN)","FM-15","6",,,,,,,,,,,,,,,,,,,,,,,,,,,"2007-05-17"
"72793524234","SEATTLE BOEING FIELD, WA US","47.54554","-122.31475","7.6","2024-03-31T22:53:00","FM-15","6",,,,,,,,,,,,,,,,,,,,,"30.04","39","49","0.00",,,,"69","30.03","CLR:00","30.01","10.00","44","000",,"0",,,,,,,,,,,,,,,,,,,,,,,,,,,,,"MET09503/31/24 22:53:03 METAR KBFI 010653Z 00000KT 10SM CLR 09/04 A3004 RMK AO2 SLP170 T00940039 (SN)","FM-15","6",,,,,,,,,,,,,,,,,,,,,,,,,,,"2007-05-17"
"72793524234","SEATTLE BOEING FIELD, WA US","47.54554","-122.31475","7.6","2024-03-31T23:53:00","FM-15","6",,,,,,,,,,,,,,,,,,,,,"30.05","37","47","0.00",,,,"69","30.05","CLR:00","30.02","10.00","43","000",,"0",,,,,,,,,,,,,,,,,,,,,,,,,,,,,"MET10503/31/24 23:53:03 METAR KBFI 010753Z 00000KT 10SM CLR 08/03 A3005 RMK AO2 SLP175 T00830028 401720044 (SN)","FM-15","6",,,,,,,,,,,,,,,,,,,,,,,,,,,"2007-05-17"
"72793524234","SEATTLE BOEING FIELD, WA US","47.54554","-122.31475","7.6","2024-03-31T23:59:00","SOD  ","6",,,,,"52","29.95","2.6","0","2.6","13","63","40","300","19","0.00","300","12",,,,,,,,,,,,,,,,,,,,,,,,,,,,,,,,,,,,,,,,,,,,,,,,"SOD73024 HR PRECIPITATION (IN):0.00  24 HR MAX TEMP (F):63 24 HR MAX TEMP TIME (LST):1652 24 HR MIN TEMP (F):40 24 HR MIN TEMP TIME (LST):0523 AVERAGE STATION PRESSURE:29.950 MINIMUM SEA LEVEL PRESSURE:29.90 TIME OF OCCURRENCE:0253 PEAK WIND SPEED (MPH):19  PEAK WIND DIR (DEG):300 PEAK WIND TIME (LST):1606  FASTEST 2MIN SPEED (MPH):12 FASTEST 2MIN DIR (DEG):300 FASTEST 2MIN TIME (LST):1607 AVERAGE WIND SPEED (MPH):2.6  24 HR AVG TEMP (F):52 HEATING DEGREE DAYS:13  COOLING DEGREE DAYS:0   LATEST DAY MAX TEMP (0700-1900 LST):63  LATEST NIGHT MIN TEMP(1900-0800 LST):40 HOURLY INCREMENTAL PRECIPITATION VALUES (IN):.00 0.00 0.00 0.00 0.00 0.00 0.00 0.00 0.00 0.00 0.00 0.00 0.00 0.00 0.00 0.00 0.00 0.00 0.00 0.00 0.00 0.00 0.00 0.00","SOD  ","6",,,,,,,,,,,,,,,,,,,,,,,,,"0548","1839","2007-05-17"
"72793524234","SEATTLE BOEING FIELD, WA US","47.54554","-122.31475","7.6","2024-03-31T23:59:00","SOM  ","6","5.1","0","0",,,,,,,,,,,,,,,,"3610","530",,,,,,,,,,,,,,,,,"12","8","5","0","0","0","0.9","0","-28","1.1","0.7","-1.88s","0.53","27-28","30.55","14","0619","55.2","47.9","29.27","02","0011","40.6","29.93","29.90","1.88","0","558","SOM796PCP MTOT:1.88 PCP GT 24HRS:0.53 DATE(S):27-28 DAYS W/PCP >=.01:12 DAYS W/PCP >=.10:8  DAYS W/ PCP >=.50:0 DAYS W/PCP >=1.00:0 MSDP AMTS W/DATE-TIME TAGS:MIN:5 0.11  27/1345 MIN:10 0.13  27/1346 MIN:15 0.13  27/1346 MIN:20 0.13  27/1737 MIN:30 0.13  27/1737 MIN:45 0.17  04/2050 MIN:60 0.22  04/2054 MIN:80 0.27  04/2050 MIN:100 0.30  04/2110 MIN:120 0.31  04/2117 MIN:150 0.31  04/2117 MIN:180 0.31  04/2117 AVG DLY MIN:40.6  AVG DLY MAX:55.2  AVG MLY TMP:47.9  MIN TMP:27 DATE(S):07 06 MAX TMP:74  DATE(S):16 DAYS MAX <=32:0 DAYS MAX >=90:0  DAYS MIN <=32:5  DAYS MIN  <=0:0  AVG STP:29.900 LWST SLP:29.27 DATE/TIME:020011 HGST SLP:30.55 DATE/TIME:140619 HDD MTH TOT:524 DEP NORM:-2553 SEASON(JUL 1-JUN 30):3563 DEP NORM:-25536 CDD MTH TOT:0 DEP NORM:-2553 SEASON(JAN 1-DEC 31):0 DEP NORM:-25536","SOM  ","6","2024-03-27 13:45","2024-03-27 13:46","2024-03-27 13:46","2024-03-27 17:37","2024-03-27 17:37","2024-03-04 20:50","2024-03-04 20:54","2024-03-04 20:50","2024-03-04 21:10","2024-03-04 21:17","2024-03-04 21:17","2024-03-04 21:17","0.11","0.13","0.13","0.13","0.13","0.17","0.22","0.27","0.30","0.31","0.31","0.31",,,"2007-05-17"
